{
"type": "FeatureCollection",
"name": "i03_WaterDistricts_Montague",
"crs": { "type": "name", "properties": { "name": "urn:ogc:def:crs:OGC:1.3:CRS84" } },
"features": [
{ "type": "Feature", "properties": { "OBJECTID": "3298", "AGENCYNAME": "Montague Water Conservation District", "SOURCE": "SERYSIAN", "AGENCYUNIQUEID": "1,641", "LASTMODIFIEDDATE": "1/7/19, 5:35 AM", "MODIFIEDBY": "SERYSIAN", "SOURCECOMMENTS": "new boundary from BBMRS submittal 2018", "Date_Data_Applies_To": "1/7/19, 5:34 AM", "GlobalID": "{A30A9DD0-1C29-48E8-B577-EC1985163D29}", "Shape.STArea()": "134,928,985.47", "Shape.STLength()": "139,020.18", "created_user": "ATLAS_WMAS", "created_date": "8/4/26, 3:13 PM", "last_edited_user": "ATLAS_WMAS", "last_edited_date": "8/4/26, 3:13 PM", "Polygon_ID": "{2EA731BB-5A2F-4E8F-A916-C1A1345A5571}" }, "geometry": { "type": "MultiPolygon", "coordinates": [ [ [ [ -122.459068373889025, 41.802900980046218 ], [ -122.473725835833704, 41.802969065207797 ], [ -122.473755747936011, 41.799313325272301 ], [ -122.478146814554421, 41.800064532688936 ], [ -122.478244665343354, 41.78800056487605 ], [ -122.479727809030265, 41.785813759447677 ], [ -122.480716514594917, 41.784355876749153 ], [ -122.504158981690338, 41.784825036836253 ], [ -122.504229384455797, 41.775685609339348 ], [ -122.508624789937002, 41.775704492555278 ], [ -122.50962382433076, 41.772784044402734 ], [ -122.514019033979267, 41.772802719446467 ], [ -122.514107314117197, 41.761104206788453 ], [ -122.522893442162058, 41.761506618670666 ], [ -122.523834848732065, 41.766263200092801 ], [ -122.552645110772829, 41.766378991686125 ], [ -122.557037395506754, 41.766761600218999 ], [ -122.557017276837669, 41.76968624602295 ], [ -122.567267435115141, 41.770456491106849 ], [ -122.567831837624979, 41.75912530558989 ], [ -122.562949269476988, 41.759106836305769 ], [ -122.56297407375861, 41.75545102024725 ], [ -122.552233050857055, 41.755409662677664 ], [ -122.55327541279361, 41.745908342356607 ], [ -122.533263712379551, 41.745463203946009 ], [ -122.533295481299589, 41.741076231700688 ], [ -122.553308354913398, 41.741155776727297 ], [ -122.553412195668685, 41.726166886200915 ], [ -122.533891977021284, 41.726089364783121 ], [ -122.533934249043611, 41.720240046481308 ], [ -122.529054649827614, 41.720220151243559 ], [ -122.528633475604977, 41.711078587389778 ], [ -122.533512383118193, 41.711098496187105 ], [ -122.534031955203801, 41.706713475608659 ], [ -122.524762662893451, 41.706675517007469 ], [ -122.524792275856811, 41.702654103470088 ], [ -122.514539678653321, 41.703708033334543 ], [ -122.514569924928949, 41.699686623339936 ], [ -122.505301669274459, 41.699647099824517 ], [ -122.504726898409572, 41.710978039419473 ], [ -122.499850854725508, 41.710591326907149 ], [ -122.500710621504126, 41.725584386153329 ], [ -122.494369589983307, 41.725181445361144 ], [ -122.494401040001421, 41.721169683353224 ], [ -122.487081581439469, 41.721137245436083 ], [ -122.4870466899755, 41.725524203218392 ], [ -122.455333191514086, 41.724647072697799 ], [ -122.454879193749264, 41.720623401406677 ], [ -122.441289243874195, 41.712149492613101 ], [ -122.441346218622755, 41.705569088378454 ], [ -122.436470992405575, 41.705179691529352 ], [ -122.436863118705205, 41.716149409909725 ], [ -122.431990340397164, 41.71539424165988 ], [ -122.431062868493854, 41.70990575802972 ], [ -122.427650993382912, 41.709523221706185 ], [ -122.42764775136304, 41.709888799561746 ], [ -122.427017013659338, 41.725971734550242 ], [ -122.428968995279561, 41.725981451316763 ], [ -122.428978706966106, 41.724884723284269 ], [ -122.434834558401974, 41.724913672935486 ], [ -122.434844168578877, 41.723816943438088 ], [ -122.436308108081633, 41.723824134207248 ], [ -122.439714439688942, 41.724937570685455 ], [ -122.439689029942826, 41.727862184152578 ], [ -122.443095633739688, 41.728975522495361 ], [ -122.444547095643131, 41.730444916170093 ], [ -122.447950791593428, 41.731923686407569 ], [ -122.448917501010015, 41.733025102857752 ], [ -122.4523121167894, 41.735600476061073 ], [ -122.452296585816455, 41.737428361019255 ], [ -122.454730821708736, 41.738171121476014 ], [ -122.455716262795647, 41.737079019016676 ], [ -122.456216681002758, 41.735619020483973 ], [ -122.458666244848729, 41.734533811473071 ], [ -122.461097390536438, 41.735642015319577 ], [ -122.463028360562134, 41.738210196994629 ], [ -122.463504279914844, 41.739674784500572 ], [ -122.463016177610271, 41.739672506812539 ], [ -122.459568812757411, 41.743312258454935 ], [ -122.459553483905395, 41.745140143087298 ], [ -122.459043859763241, 41.747696882294242 ], [ -122.45706964843302, 41.750246707180594 ], [ -122.455602015956103, 41.750605353485277 ], [ -122.451174104038003, 41.754605785248913 ], [ -122.448723649961593, 41.755690825941436 ], [ -122.445299799409597, 41.756405527319473 ], [ -122.445775445674442, 41.757870184955436 ], [ -122.446263685421243, 41.757872538390792 ], [ -122.447230750570711, 41.758973966127535 ], [ -122.446729942494741, 41.760433916091522 ], [ -122.44574084346803, 41.761891509706444 ], [ -122.445721966270625, 41.76408495764116 ], [ -122.44570623317675, 41.765912831041355 ], [ -122.444713872367217, 41.767735988430822 ], [ -122.443236290150239, 41.76919119580937 ], [ -122.442243808068113, 41.771014329042323 ], [ -122.444187692274369, 41.772120517743261 ], [ -122.444175067351367, 41.773582814210094 ], [ -122.444159285748455, 41.775410684306472 ], [ -122.444146659927156, 41.776872979454893 ], [ -122.443147757585706, 41.779427265548001 ], [ -122.442637195602416, 41.781983910973828 ], [ -122.441641324176757, 41.784172607363196 ], [ -122.441622293367459, 41.786366045681874 ], [ -122.441609602867445, 41.787828338179523 ], [ -122.440121941552945, 41.790380215410345 ], [ -122.439125851836678, 41.792568885711034 ], [ -122.438132885562666, 41.794391973234269 ], [ -122.438576733263076, 41.799512371839583 ], [ -122.440039213003516, 41.799885097224553 ], [ -122.440534129029501, 41.799156334086277 ], [ -122.442989549891138, 41.797705915214529 ], [ -122.443953989265026, 41.799172938162258 ], [ -122.445892450341873, 41.801010242937387 ], [ -122.448313329184217, 41.803581007433785 ], [ -122.448792514811274, 41.804680069362902 ], [ -122.450255171519814, 41.805052666255278 ], [ -122.453675350657221, 41.805068982875952 ], [ -122.457107878036553, 41.80362290648582 ], [ -122.459068373889025, 41.802900980046218 ] ] ], [ [ [ -122.379009348856741, 41.541826712068726 ], [ -122.370754808762712, 41.53995382203194 ], [ -122.371766906457353, 41.535937715617557 ], [ -122.364951506974364, 41.536265883680805 ], [ -122.36436113057637, 41.546865118247695 ], [ -122.359981367459199, 41.546840824947793 ], [ -122.35929978690703, 41.566579553582493 ], [ -122.369536564778372, 41.565173733348054 ], [ -122.369461917473217, 41.572850958027885 ], [ -122.37968898455631, 41.572540986444764 ], [ -122.379009348856741, 41.541826712068726 ] ] ], [ [ [ -122.389702568808758, 41.594896227096399 ], [ -122.388873377987466, 41.57953659587622 ], [ -122.379626017146464, 41.579121470083962 ], [ -122.379482513076454, 41.594110320331765 ], [ -122.389702568808758, 41.594896227096399 ] ] ], [ [ [ -122.39878402069823, 41.665870088922723 ], [ -122.398889424522096, 41.654537160136172 ], [ -122.388652919738632, 41.654483170224914 ], [ -122.388130866506202, 41.658136354604608 ], [ -122.384231032821148, 41.658115528725403 ], [ -122.386658022004028, 41.659225293733705 ], [ -122.387619143001245, 41.660692802607429 ], [ -122.390039388531292, 41.662533651579054 ], [ -122.392463206661233, 41.664008872408878 ], [ -122.393908636377574, 41.665844482810279 ], [ -122.39878402069823, 41.665870088922723 ] ] ], [ [ [ -122.387618025497019, 41.71224160274452 ], [ -122.383714923740968, 41.712220736029529 ], [ -122.384223745687564, 41.710029907183902 ], [ -122.387638844852063, 41.710048156542115 ], [ -122.388157912982791, 41.706760584481707 ], [ -122.383767296420345, 41.706737123939959 ], [ -122.383795223245897, 41.703812528877314 ], [ -122.378429164743977, 41.703783630081411 ], [ -122.378425643348052, 41.704149204358572 ], [ -122.378408037266823, 41.705977074075477 ], [ -122.379861018221433, 41.707081703055813 ], [ -122.381787894624395, 41.709651235687609 ], [ -122.382174240265144, 41.720255497604732 ], [ -122.387538202099194, 41.720649804403379 ], [ -122.387618025497019, 41.71224160274452 ] ] ], [ [ [ -122.369094240620669, 41.660592609412838 ], [ -122.362753191133564, 41.660923223343822 ], [ -122.363190262841798, 41.666043983663847 ], [ -122.358802433751677, 41.666019588903339 ], [ -122.358264070706937, 41.671134917998259 ], [ -122.363627396533758, 41.671164739349507 ], [ -122.363677798309411, 41.666046684722644 ], [ -122.368553170053701, 41.666073572498817 ], [ -122.369094240620669, 41.660592609412838 ] ] ], [ [ [ -122.412487078349073, 41.713833811629804 ], [ -122.408583861608633, 41.713813789682305 ], [ -122.407995311485649, 41.724778532883015 ], [ -122.412387175808007, 41.724801075017645 ], [ -122.412487078349073, 41.713833811629804 ] ] ], [ [ [ -122.383847573467378, 41.698328907888538 ], [ -122.378481970411329, 41.698300014676988 ], [ -122.378931059781422, 41.702323970811918 ], [ -122.383809184862045, 41.702350229749563 ], [ -122.383847573467378, 41.698328907888538 ] ] ], [ [ [ -122.402732430782294, 41.713417932813933 ], [ -122.397853451403861, 41.713392469677053 ], [ -122.397815914401392, 41.717413792222231 ], [ -122.402695197410409, 41.717439258459727 ], [ -122.402732430782294, 41.713417932813933 ] ] ] ] } }
]
}
