{
"type": "FeatureCollection",
"name": "i03_LegalDeltaBoundary",
"crs": { "type": "name", "properties": { "name": "urn:ogc:def:crs:OGC:1.3:CRS84" } },
"features": [
{ "type": "Feature", "id": 1, "properties": { "OBJECTID": 1, "comments": "final delta boundary", "Source": "Delta Protection Act (Section 12220 Water Code)", "Date_Record_Last_Updated": "2003-02-21T00:00:00Z", "Edited_By": "Joel Dudas", "Date_Data_Applies_To": "1994-07-29T00:00:00Z", "GlobalID": "{AAA9F069-1595-4AD9-918C-A0D77921082B}", "ShapeSTArea": 4826664388.7889423, "ShapeSTLength": 548781.18623127323 }, "geometry": { "type": "Polygon", "coordinates": [ [ [ -121.786629878468602, 38.28514314816416 ], [ -121.790738613576352, 38.285289216642937 ], [ -121.793947951828386, 38.285286198731249 ], [ -121.795146824541959, 38.285257960802653 ], [ -121.798384773237473, 38.28525512904131 ], [ -121.80199934870069, 38.285292083658895 ], [ -121.803545940396134, 38.285280833476314 ], [ -121.805079194804534, 38.285300987202326 ], [ -121.805223587308348, 38.285297932624935 ], [ -121.805393049995118, 38.28036557297704 ], [ -121.805458614434443, 38.277716705209485 ], [ -121.805502945395403, 38.275968836308138 ], [ -121.80546889655119, 38.274558105585101 ], [ -121.805546344803403, 38.27118388691742 ], [ -121.805536286367186, 38.270751194525033 ], [ -121.810682291760457, 38.270812474604341 ], [ -121.813284332947831, 38.270816311924669 ], [ -121.815093185095478, 38.270915702046999 ], [ -121.820874948876607, 38.270942412321403 ], [ -121.821772892258195, 38.270996502836077 ], [ -121.827165660368451, 38.271086580492735 ], [ -121.829854874070989, 38.271135940741509 ], [ -121.832646085185814, 38.271195283862113 ], [ -121.833051619739379, 38.271212867313061 ], [ -121.833130260954263, 38.267370006293469 ], [ -121.833250140230632, 38.265190264522737 ], [ -121.833235313536861, 38.264018549562273 ], [ -121.839972986289894, 38.264143941624532 ], [ -121.841708003209447, 38.264161077490748 ], [ -121.842415584599166, 38.26414103568591 ], [ -121.842436744415679, 38.259162035700712 ], [ -121.842509386681144, 38.254494507095295 ], [ -121.84264848810794, 38.250183600896293 ], [ -121.84263425789554, 38.249593142941166 ], [ -121.842604343098259, 38.249182801752347 ], [ -121.834392536760603, 38.249227692214056 ], [ -121.829779359891589, 38.24921331262378 ], [ -121.82339279546396, 38.249194501268107 ], [ -121.822139681575223, 38.249213499573237 ], [ -121.815459826190491, 38.249177775277481 ], [ -121.808354168462799, 38.249191447288297 ], [ -121.805515236145126, 38.249221175084656 ], [ -121.805407352072763, 38.249179526254451 ], [ -121.805416441226797, 38.247359163269927 ], [ -121.805402098724969, 38.245660244757424 ], [ -121.805444120117343, 38.243529303326234 ], [ -121.805444789362227, 38.242483912354352 ], [ -121.805432719598059, 38.241956597703521 ], [ -121.798395533257946, 38.24201992767599 ], [ -121.794115211846076, 38.24198953019917 ], [ -121.79099628633243, 38.241993479106178 ], [ -121.787145005690178, 38.242061912212037 ], [ -121.787087823430767, 38.238582639964847 ], [ -121.787044534515545, 38.236761755480373 ], [ -121.787146831066849, 38.234901829940696 ], [ -121.787088492675622, 38.234716459235514 ], [ -121.780158072903674, 38.234757288671595 ], [ -121.775881476805296, 38.234829932609429 ], [ -121.772016785214134, 38.234866142359309 ], [ -121.768990881146493, 38.234879516472446 ], [ -121.76893313833834, 38.231314636967674 ], [ -121.768940327555541, 38.229363591104622 ], [ -121.768879419084342, 38.227344222431313 ], [ -121.763547783125802, 38.227337740035658 ], [ -121.75870736393091, 38.227250606589678 ], [ -121.756174426545115, 38.227223784986641 ], [ -121.752056042632887, 38.227211603481827 ], [ -121.750748727094859, 38.227166155343347 ], [ -121.750523011006692, 38.223581456623052 ], [ -121.750456066755063, 38.221818910229445 ], [ -121.750474916104679, 38.219881498204145 ], [ -121.750415088306767, 38.219538399104003 ], [ -121.746395947572168, 38.21955411915102 ], [ -121.743200130761807, 38.219519959062438 ], [ -121.737619571638021, 38.219451041765325 ], [ -121.733820519944686, 38.219495745208675 ], [ -121.73211906677912, 38.219459349955422 ], [ -121.73207842430071, 38.215507114044627 ], [ -121.732024816437828, 38.209873991132554 ], [ -121.732004625005203, 38.208981597359113 ], [ -121.726993364209562, 38.20898141101204 ], [ -121.717431324422861, 38.208814220780582 ], [ -121.713733154434266, 38.208755734460972 ], [ -121.713656710498526, 38.205433967120769 ], [ -121.713650265984668, 38.204014482599327 ], [ -121.713680067594225, 38.201387816663129 ], [ -121.713737175293446, 38.19940126854712 ], [ -121.713701934384872, 38.196170063096261 ], [ -121.713779382637085, 38.195053407495642 ], [ -121.713748314402991, 38.194832273926167 ], [ -121.712528430094935, 38.193868131426676 ], [ -121.710507087754991, 38.192214736024702 ], [ -121.708015835791628, 38.190263279984272 ], [ -121.706939413332748, 38.189386272125589 ], [ -121.703699080508471, 38.186786578014164 ], [ -121.700629365604414, 38.184314886121577 ], [ -121.694507072956981, 38.179529154984749 ], [ -121.688879760115938, 38.174955876383848 ], [ -121.683493473350438, 38.170786084298896 ], [ -121.682606928691499, 38.170294010238479 ], [ -121.681643717314614, 38.169819073297582 ], [ -121.680692464310809, 38.169317239470743 ], [ -121.679728880133098, 38.168824235251009 ], [ -121.679753243341921, 38.168779456904872 ], [ -121.679598234548067, 38.168710129266906 ], [ -121.679678104658279, 38.168593862680382 ], [ -121.680519572754591, 38.167192930547515 ], [ -121.681352324497709, 38.165440441556228 ], [ -121.681912756454011, 38.164468922713432 ], [ -121.682779520210389, 38.163361133319633 ], [ -121.683775775216702, 38.162389987246257 ], [ -121.68474323292989, 38.161432028672188 ], [ -121.685765116871266, 38.160303451698155 ], [ -121.686672560835277, 38.159268193347764 ], [ -121.688264600995879, 38.157208703363018 ], [ -121.688999414813466, 38.156248100579631 ], [ -121.689602166402793, 38.155493281059478 ], [ -121.689871578343045, 38.154946558242557 ], [ -121.690378031432232, 38.153352542537171 ], [ -121.69091615013518, 38.151420942933619 ], [ -121.691560066124111, 38.148598327324521 ], [ -121.691865875104696, 38.147569849379273 ], [ -121.693110904155887, 38.144749394238303 ], [ -121.693494647377264, 38.143708249721442 ], [ -121.69412321475123, 38.141935346900517 ], [ -121.694504795727738, 38.140813065700279 ], [ -121.694754911855668, 38.139865053540888 ], [ -121.695875553884392, 38.136727762912756 ], [ -121.696186131122502, 38.135866028404735 ], [ -121.69681689667398, 38.134201307552054 ], [ -121.697251601321454, 38.132854279598575 ], [ -121.697580693735901, 38.13199276927638 ], [ -121.698386808634211, 38.130370517094782 ], [ -121.699150120605822, 38.128986570955263 ], [ -121.699672928423084, 38.128095668774471 ], [ -121.700994400511703, 38.126114073969084 ], [ -121.701667672545781, 38.125139202461668 ], [ -121.701975641076331, 38.124700997070519 ], [ -121.702314791926995, 38.12419107856249 ], [ -121.703222831474065, 38.122880820344484 ], [ -121.704890904142019, 38.12084442674459 ], [ -121.706225415276947, 38.119200903012143 ], [ -121.70720650761956, 38.118107716440093 ], [ -121.708464389765822, 38.116639057363507 ], [ -121.709360023578796, 38.115819754382137 ], [ -121.710392674727146, 38.114992963868971 ], [ -121.7118031815385, 38.11367465783951 ], [ -121.713132812126517, 38.112332882873517 ], [ -121.71459334970929, 38.111249381354199 ], [ -121.7161696684541, 38.110185140083665 ], [ -121.717857449261047, 38.109022998233854 ], [ -121.721428288448024, 38.106732242961755 ], [ -121.723903967217638, 38.10505586103033 ], [ -121.725605382653967, 38.103997357021377 ], [ -121.725945240478765, 38.103883885489225 ], [ -121.726398645355502, 38.10371758796623 ], [ -121.726689590811404, 38.103423327454045 ], [ -121.726931362488671, 38.103006876963931 ], [ -121.728077634350754, 38.102181166464455 ], [ -121.729174657874026, 38.101192660204326 ], [ -121.730253986382877, 38.1004022274414 ], [ -121.735141492569994, 38.096773459057196 ], [ -121.739398270934885, 38.0935703054543 ], [ -121.740002512829264, 38.09304056848724 ], [ -121.740958906891464, 38.092879562104265 ], [ -121.743603229982611, 38.09112345904034 ], [ -121.746153116781201, 38.08971772126619 ], [ -121.747575469676207, 38.088975866935371 ], [ -121.749081717133919, 38.088370060063383 ], [ -121.750190437620503, 38.087922242550299 ], [ -121.750911802759958, 38.087497335942707 ], [ -121.751092144044833, 38.087368590103573 ], [ -121.751502820555061, 38.087107073977784 ], [ -121.751492911239154, 38.086683396424995 ], [ -121.756848948135755, 38.084306847378279 ], [ -121.762269133726818, 38.081741499786389 ], [ -121.76254178858521, 38.081546108693772 ], [ -121.764351124924815, 38.081547114181788 ], [ -121.785238383601921, 38.081823492049054 ], [ -121.788217237508249, 38.081903808414651 ], [ -121.793892718014831, 38.081894607041654 ], [ -121.800386756883043, 38.08185746566965 ], [ -121.806167328599756, 38.081871248290732 ], [ -121.811738947689804, 38.08185113154606 ], [ -121.817357766959859, 38.081867261710975 ], [ -121.824061539090692, 38.081902986775148 ], [ -121.830141140202571, 38.081891587056433 ], [ -121.8361515611561, 38.081883651374746 ], [ -121.841955117167686, 38.081932005775734 ], [ -121.84302733012116, 38.081906487581591 ], [ -121.843093566500286, 38.086431336723578 ], [ -121.84305311087148, 38.090896581867369 ], [ -121.843040743764959, 38.095524287222453 ], [ -121.843052403897346, 38.096457173832668 ], [ -121.849653321623109, 38.09650396330548 ], [ -121.855642582760126, 38.096512865920978 ], [ -121.862047251833957, 38.09653003913602 ], [ -121.874162121300145, 38.096489022631538 ], [ -121.876066452684427, 38.096502731799312 ], [ -121.876010499320316, 38.096105653395767 ], [ -121.87600923179744, 38.094140973004393 ], [ -121.876035494943082, 38.09065793799526 ], [ -121.876047192804705, 38.087940821950234 ], [ -121.876034712510474, 38.086102168128498 ], [ -121.876130974179688, 38.085400136040377 ], [ -121.876552899393928, 38.08404781908591 ], [ -121.876743932427289, 38.083486342497856 ], [ -121.877637145280588, 38.081417540461935 ], [ -121.878273201010771, 38.080459284029381 ], [ -121.879241553446008, 38.079112144425558 ], [ -121.880159054947967, 38.078012401121057 ], [ -121.880971764378785, 38.077335179684297 ], [ -121.882397209275013, 38.07628528108367 ], [ -121.883528058860293, 38.07539478761408 ], [ -121.885018547172947, 38.074377038521355 ], [ -121.889546638313234, 38.071044765445322 ], [ -121.89191677941001, 38.069372817395205 ], [ -121.893658018061203, 38.06814999103505 ], [ -121.895310743012487, 38.066795661239809 ], [ -121.899810558780871, 38.063241920439445 ], [ -121.901561669018719, 38.062010078421501 ], [ -121.905595748736502, 38.059217785945229 ], [ -121.907540723497476, 38.057820950427882 ], [ -121.912199646174017, 38.054367345824936 ], [ -121.913760169841197, 38.05313352940275 ], [ -121.91516516369164, 38.052150648546224 ], [ -121.917706482359065, 38.050285954066908 ], [ -121.919529750670435, 38.049045506927484 ], [ -121.922067679994299, 38.047446537034652 ], [ -121.927719616555578, 38.043987903170645 ], [ -121.928514779193932, 38.043481449721256 ], [ -121.928459272292542, 38.040448242521613 ], [ -121.928485424047082, 38.036600129854115 ], [ -121.92852964182029, 38.035226130957561 ], [ -121.928518429048921, 38.034775407664171 ], [ -121.928863652510955, 38.034053036124526 ], [ -121.929336465489385, 38.033421972299777 ], [ -121.929819785163374, 38.032313325923248 ], [ -121.930269501557532, 38.030771800354785 ], [ -121.930499165741409, 38.029962741815488 ], [ -121.930445000024704, 38.028741069853034 ], [ -121.930581494540561, 38.027877100786625 ], [ -121.930773681909059, 38.027392179823686 ], [ -121.931012399314369, 38.026497625402001 ], [ -121.931248879914591, 38.025954515284859 ], [ -121.931149079781477, 38.024736904165557 ], [ -121.930957524826908, 38.023464419619764 ], [ -121.930968327966539, 38.023063429043383 ], [ -121.931121177210429, 38.022343852641178 ], [ -121.931251635945856, 38.022088148274143 ], [ -121.931989876836283, 38.021608181633248 ], [ -121.933420090888305, 38.020598255270677 ], [ -121.934928647016292, 38.019827865134232 ], [ -121.935940176077366, 38.019354826887117 ], [ -121.937230690424641, 38.018789701045492 ], [ -121.938085086176187, 38.01839638471337 ], [ -121.938868551851243, 38.017885237699133 ], [ -121.939599938596004, 38.017134777362962 ], [ -121.939999438267478, 38.01673281937439 ], [ -121.940339967133795, 38.015830106336409 ], [ -121.94045440800943, 38.01500201169776 ], [ -121.940363733861275, 38.013685344563562 ], [ -121.940318918708385, 38.01294140354814 ], [ -121.940246126424256, 38.012607283367899 ], [ -121.940133474094381, 38.012371955490593 ], [ -121.939722387952372, 38.01214292525777 ], [ -121.935522457673599, 38.012150041125452 ], [ -121.93271351381506, 38.012169635591526 ], [ -121.932680843884825, 38.015747330981519 ], [ -121.923991788687871, 38.015888929939138 ], [ -121.923646379274587, 38.012195154748163 ], [ -121.920813035376298, 38.012178205205018 ], [ -121.920614961347724, 38.012433238510887 ], [ -121.9204418470093, 38.012778610018195 ], [ -121.920361306755879, 38.013174422316318 ], [ -121.920368086341355, 38.013440370652376 ], [ -121.92003903075782, 38.013933041068775 ], [ -121.919751587833218, 38.014259338168969 ], [ -121.919107671844287, 38.014861792532443 ], [ -121.917287270955327, 38.014416918714865 ], [ -121.915042336144538, 38.013841958143587 ], [ -121.91472043294732, 38.013703823913261 ], [ -121.914650435322045, 38.012752347209997 ], [ -121.914624245838269, 38.011729196592967 ], [ -121.914473147410845, 38.006284237460783 ], [ -121.914502242046282, 38.005180470802514 ], [ -121.908678420940191, 38.005221188832493 ], [ -121.906506761707149, 38.005246074067472 ], [ -121.906148016803485, 38.000979834163793 ], [ -121.906200617654932, 37.999930344579575 ], [ -121.906218498620674, 37.999732234114489 ], [ -121.906334728042026, 37.999336756985507 ], [ -121.906521662961055, 37.998635545471025 ], [ -121.906579963623017, 37.998257539746625 ], [ -121.906431623023522, 37.997796536113654 ], [ -121.906012973965133, 37.997373565460329 ], [ -121.904754197995146, 37.996960767179495 ], [ -121.903910793131089, 37.996813245366184 ], [ -121.902821740359329, 37.996812090760322 ], [ -121.901824405578083, 37.996865883624146 ], [ -121.901009126067237, 37.996930331936646 ], [ -121.899924060917016, 37.997091450346502 ], [ -121.898018351517095, 37.997105159025807 ], [ -121.896304120714916, 37.997071036337857 ], [ -121.894943570114833, 37.997089811534416 ], [ -121.893602391683871, 37.997005097996258 ], [ -121.893009362560832, 37.99686882783157 ], [ -121.892731791222886, 37.996676974845037 ], [ -121.892630909518147, 37.996283956829778 ], [ -121.892640855664993, 37.995765843286335 ], [ -121.892700422951478, 37.994549722061905 ], [ -121.892668274044084, 37.993278652504586 ], [ -121.892703850024276, 37.992427275483514 ], [ -121.892712195373292, 37.991873101638632 ], [ -121.892623309770855, 37.991489247259608 ], [ -121.89247761291324, 37.99109581914464 ], [ -121.892199184582495, 37.990867868655407 ], [ -121.891807991632447, 37.990661412914029 ], [ -121.890149455479573, 37.990578190022411 ], [ -121.888652596314927, 37.990582064758726 ], [ -121.886111538158929, 37.990589552280809 ], [ -121.884524414477895, 37.990633101098823 ], [ -121.881416479851779, 37.99066215840881 ], [ -121.878490971500256, 37.990724445779151 ], [ -121.876039505920843, 37.990691998724216 ], [ -121.869934910084467, 37.990642527044209 ], [ -121.869991609050288, 37.992003972276095 ], [ -121.870171317022866, 37.997827756769418 ], [ -121.856001429173403, 37.997861993077677 ], [ -121.850693224870724, 37.997922901712151 ], [ -121.847228777654408, 37.995014008953412 ], [ -121.84712253300745, 37.994846221509867 ], [ -121.847163510557479, 37.991908569745284 ], [ -121.845559585685635, 37.990342680996584 ], [ -121.844853270920467, 37.989767942970204 ], [ -121.839542160567859, 37.989688632079478 ], [ -121.838531936758898, 37.98966061724127 ], [ -121.837805356000914, 37.989653465207802 ], [ -121.835405709738637, 37.988958289467483 ], [ -121.832932824729554, 37.987095233974792 ], [ -121.830469475337253, 37.98517361716177 ], [ -121.830167950422236, 37.984891239886153 ], [ -121.828887120812027, 37.98263889274714 ], [ -121.828382306249907, 37.981939916253857 ], [ -121.82662598039353, 37.981534865809571 ], [ -121.825685642818712, 37.980209631182703 ], [ -121.822619914637883, 37.980075333668751 ], [ -121.818612134896753, 37.979931500961243 ], [ -121.817634022265935, 37.979818028898208 ], [ -121.817181846284512, 37.979881097986016 ], [ -121.816687127887874, 37.980065388055216 ], [ -121.816540760887065, 37.980095451475513 ], [ -121.816335646761615, 37.980061849098881 ], [ -121.816016910125754, 37.980013569730055 ], [ -121.812985008006962, 37.979415213482376 ], [ -121.812623543004591, 37.979456639027283 ], [ -121.811952356858598, 37.979859939248108 ], [ -121.811370988766285, 37.980210041157001 ], [ -121.811305945349829, 37.980317553479814 ], [ -121.811264594100663, 37.980497373113288 ], [ -121.811346029974445, 37.981052442204067 ], [ -121.81135567788057, 37.982395408936611 ], [ -121.81131421524033, 37.982539204952715 ], [ -121.811112006266512, 37.982631778263887 ], [ -121.810930921176592, 37.982652491547491 ], [ -121.810589833558154, 37.982621980979197 ], [ -121.810221326662287, 37.982392949871972 ], [ -121.809657876366643, 37.982071829874322 ], [ -121.809083436980117, 37.981773099393202 ], [ -121.80867380341391, 37.981710365426999 ], [ -121.807635789323356, 37.981956718430261 ], [ -121.805043508331536, 37.982642396176686 ], [ -121.803941231460485, 37.983032210442985 ], [ -121.80290224808769, 37.983684062178071 ], [ -121.802298043024237, 37.984033904402636 ], [ -121.799941797068271, 37.984158590178197 ], [ -121.797741901090887, 37.984208248195337 ], [ -121.794149715237822, 37.984360724684691 ], [ -121.793650264516259, 37.984351075609851 ], [ -121.791300910435183, 37.983795225722105 ], [ -121.790744799375389, 37.983812026765648 ], [ -121.788074361360628, 37.984086468990739 ], [ -121.786988029585828, 37.984192454067816 ], [ -121.786515588509928, 37.984358788214337 ], [ -121.78519214102603, 37.984989516927691 ], [ -121.785081872824904, 37.985114574917013 ], [ -121.785018953025784, 37.985348225171329 ], [ -121.784980768338002, 37.985636227329209 ], [ -121.784674511996371, 37.986124240323292 ], [ -121.784356595522411, 37.986585096416597 ], [ -121.784180128671338, 37.986799598829684 ], [ -121.783796610028759, 37.986881219535988 ], [ -121.783184432417173, 37.98688840936417 ], [ -121.782842488704262, 37.986821801296408 ], [ -121.782544428591308, 37.986683519163563 ], [ -121.782264285376698, 37.986365191940102 ], [ -121.78205205659421, 37.986029543827264 ], [ -121.78184444605057, 37.985887684708949 ], [ -121.781640150290343, 37.985890068606537 ], [ -121.781075172858706, 37.985969827530603 ], [ -121.780575313403673, 37.985942111471857 ], [ -121.780162923806216, 37.985789151151415 ], [ -121.779789574990971, 37.985343643551047 ], [ -121.779489465820859, 37.98511524612541 ], [ -121.779055954136112, 37.985034145978204 ], [ -121.778512098791722, 37.985042006488399 ], [ -121.778159462431987, 37.985020325298834 ], [ -121.778106860682215, 37.982784667280939 ], [ -121.778050274005835, 37.980404802066019 ], [ -121.777966491732556, 37.976402424510695 ], [ -121.771975999903617, 37.976331010892082 ], [ -121.769058911461272, 37.976259932848727 ], [ -121.768920815249274, 37.980949478157569 ], [ -121.769026092410684, 37.982996413759786 ], [ -121.766228361323513, 37.981732384630384 ], [ -121.766001304050619, 37.981734508097503 ], [ -121.765866970881333, 37.981809722268366 ], [ -121.765238588560308, 37.982105026323261 ], [ -121.765013097050968, 37.982143209584763 ], [ -121.764808392557271, 37.982127564412266 ], [ -121.764393618831036, 37.981866346325084 ], [ -121.762230565458395, 37.980572851245917 ], [ -121.761068237108901, 37.979866648272349 ], [ -121.760631819374197, 37.97962320058064 ], [ -121.760472265104994, 37.979589970437402 ], [ -121.76029117821848, 37.979610609523277 ], [ -121.760044117260847, 37.979702623606848 ], [ -121.755773927947047, 37.981410446055278 ], [ -121.754593830921237, 37.981884638270138 ], [ -121.753986980319254, 37.982126037138507 ], [ -121.753578428324673, 37.98213073154038 ], [ -121.752735507652559, 37.981982092329105 ], [ -121.751937698577336, 37.981815907151692 ], [ -121.751415114440604, 37.981787855320576 ], [ -121.751007270318468, 37.981792512217012 ], [ -121.750576961127692, 37.981819483550488 ], [ -121.750352326611107, 37.981929752103603 ], [ -121.749882679295737, 37.982222187350082 ], [ -121.749599408147304, 37.98239042212618 ], [ -121.749164628939681, 37.982557016671784 ], [ -121.748665701037623, 37.982560741725081 ], [ -121.74811577398026, 37.982338565083758 ], [ -121.747382339076651, 37.98198827648983 ], [ -121.746760513558868, 37.981603156778128 ], [ -121.746457683391753, 37.981289002785601 ], [ -121.746216806436536, 37.980682599825663 ], [ -121.745947802331443, 37.979846085022693 ], [ -121.745806577287325, 37.979614745411794 ], [ -121.745734940236659, 37.979474302089649 ], [ -121.745302731109078, 37.979406612424931 ], [ -121.744734215213526, 37.979359971833254 ], [ -121.744300702630468, 37.979242700732485 ], [ -121.74413831776981, 37.979083258100104 ], [ -121.744015121913435, 37.978671873620222 ], [ -121.743915396340469, 37.978301282121521 ], [ -121.743819767983553, 37.978065955321881 ], [ -121.743302696807689, 37.977799075709193 ], [ -121.74277731980871, 37.977644737450412 ], [ -121.742139959724739, 37.977547805165223 ], [ -121.741638572235445, 37.977447818009743 ], [ -121.741476597006539, 37.97730636928592 ], [ -121.741511018651622, 37.975873771888018 ], [ -121.741499506741249, 37.973422268947807 ], [ -121.741479911789938, 37.973070564709026 ], [ -121.735418975873031, 37.972892905837327 ], [ -121.733387201397704, 37.972785431500327 ], [ -121.733431793768418, 37.968865494440401 ], [ -121.736358121383461, 37.968874435244331 ], [ -121.737672924379382, 37.96883900699261 ], [ -121.738375291048897, 37.968792441126887 ], [ -121.73866824783272, 37.96871897841033 ], [ -121.738865353477408, 37.968428219460769 ], [ -121.73894123686442, 37.96827581751419 ], [ -121.738928273276557, 37.967703389577999 ], [ -121.738793752359371, 37.966791661669362 ], [ -121.738882004649525, 37.966206829228071 ], [ -121.739029340932518, 37.965703690212479 ], [ -121.739227152653044, 37.965453463250626 ], [ -121.739608436287185, 37.965250285874163 ], [ -121.740106508094769, 37.965206028647174 ], [ -121.74065304491026, 37.965324567927006 ], [ -121.741626128772111, 37.965713488339091 ], [ -121.742203101407753, 37.966134222981808 ], [ -121.743049078148445, 37.966427179372786 ], [ -121.744097337524835, 37.966623129102338 ], [ -121.745074332651441, 37.966701137040999 ], [ -121.746356689397615, 37.966728332046799 ], [ -121.74701319707188, 37.966699274465981 ], [ -121.747238577190146, 37.96662506604072 ], [ -121.747394443875095, 37.966496059460951 ], [ -121.747458406618279, 37.966334493555671 ], [ -121.747222819841753, 37.965962486377748 ], [ -121.746784501271918, 37.96562884905434 ], [ -121.746570074311904, 37.965184980410264 ], [ -121.746154629544122, 37.964887628093599 ], [ -121.745603323572809, 37.964588859541685 ], [ -121.745507658384952, 37.964358003722111 ], [ -121.745635510209439, 37.964034946426139 ], [ -121.745836527118882, 37.963888356307578 ], [ -121.746152729607317, 37.963828639700807 ], [ -121.746674754093647, 37.963838734826389 ], [ -121.746898607075934, 37.963728466715516 ], [ -121.7469401065471, 37.963548647078511 ], [ -121.746798583262304, 37.963335336659114 ], [ -121.74620361647321, 37.963094682673294 ], [ -121.745653949927274, 37.962868036894825 ], [ -121.74548828621586, 37.962568857843493 ], [ -121.745483443398129, 37.962352492748856 ], [ -121.745729238629551, 37.962206424790672 ], [ -121.746249251787958, 37.962126331245685 ], [ -121.746567465604315, 37.962156766052338 ], [ -121.747023180049638, 37.962260739506313 ], [ -121.747301422429103, 37.96250705580205 ], [ -121.747908533542528, 37.963248016081884 ], [ -121.748145052770312, 37.963692144316077 ], [ -121.748679631212724, 37.96422057729427 ], [ -121.749004365001412, 37.96453946233278 ], [ -121.749394105375671, 37.96471484890322 ], [ -121.749735937697437, 37.964781569104439 ], [ -121.74998668713765, 37.964847320398256 ], [ -121.750330084324688, 37.964986162093048 ], [ -121.750675568298135, 37.965215118622439 ], [ -121.750744708930597, 37.967180581392519 ], [ -121.750714721369775, 37.968320334212137 ], [ -121.750724965757286, 37.96876654994319 ], [ -121.751042398039331, 37.96876092413337 ], [ -121.751192713135822, 37.968875178835873 ], [ -121.7598768500566, 37.968750753200666 ], [ -121.7599610787926, 37.961712897667624 ], [ -121.759856212161267, 37.960630327949403 ], [ -121.759841533689539, 37.960021801625828 ], [ -121.759767884412639, 37.95979120625725 ], [ -121.75943815868591, 37.959260501130728 ], [ -121.758973503308567, 37.958800502589639 ], [ -121.758439184479258, 37.958254113836723 ], [ -121.758068928563574, 37.957934744658679 ], [ -121.757659072215191, 37.957853831922861 ], [ -121.757001222457902, 37.957842357644452 ], [ -121.756322548853987, 37.957925320178518 ], [ -121.755083145053149, 37.958268195955291 ], [ -121.753870264909338, 37.958769061342906 ], [ -121.753518969734358, 37.958801396438488 ], [ -121.752954178253972, 37.958881006313888 ], [ -121.752023600874736, 37.958839618028804 ], [ -121.750967220728143, 37.958373286211881 ], [ -121.751015015592841, 37.960424095942336 ], [ -121.750776299085871, 37.960403569741992 ], [ -121.750759125992587, 37.961543434839342 ], [ -121.750748434244102, 37.961543322935348 ], [ -121.750563324701702, 37.961383656295318 ], [ -121.750176341257074, 37.96129842204288 ], [ -121.749882713431717, 37.961160102443273 ], [ -121.74988301257072, 37.961142108467506 ], [ -121.749809660636188, 37.961145834607642 ], [ -121.749717012889377, 37.961072743866559 ], [ -121.748725712990193, 37.960372761661688 ], [ -121.747768125965294, 37.959659592565067 ], [ -121.747138701598544, 37.958936401488629 ], [ -121.746152579588639, 37.957519933937668 ], [ -121.744999974603815, 37.95572769756135 ], [ -121.743968292737662, 37.954274685240811 ], [ -121.745873294265152, 37.954281502143488 ], [ -121.749974131384931, 37.954298117278526 ], [ -121.750759907526884, 37.954274908362663 ], [ -121.750677093637449, 37.950258970559354 ], [ -121.75066066434924, 37.947113446681385 ], [ -121.750070168475332, 37.94712067369926 ], [ -121.750070392155834, 37.947107188743537 ], [ -121.749983630170746, 37.947146825410535 ], [ -121.74148035555767, 37.947159789690978 ], [ -121.741580453931476, 37.941415428852856 ], [ -121.741530423160057, 37.941013804768751 ], [ -121.741085213613658, 37.940801762213596 ], [ -121.740529734967836, 37.940593033908456 ], [ -121.740110192984062, 37.94029564437573 ], [ -121.740016352274537, 37.939794443327123 ], [ -121.739703912828844, 37.939390062950473 ], [ -121.739139792389977, 37.938811711631388 ], [ -121.738932590579807, 37.938160606379846 ], [ -121.738668132848375, 37.937445759324035 ], [ -121.738492037899846, 37.936970710468863 ], [ -121.738398793671678, 37.936519093417402 ], [ -121.73833088193453, 37.935955084343078 ], [ -121.738469164996062, 37.93539781803679 ], [ -121.738323542698623, 37.93505375008359 ], [ -121.738323728649902, 37.934959127996692 ], [ -121.738247658413314, 37.934958308959764 ], [ -121.738027457082666, 37.934775695375379 ], [ -121.737635407139877, 37.934496633525576 ], [ -121.737323675566586, 37.93425896001979 ], [ -121.736439514138084, 37.933271609119139 ], [ -121.736108634076231, 37.932700261667975 ], [ -121.735752421523344, 37.931988954505293 ], [ -121.735652024908902, 37.931582338247715 ], [ -121.735553267719808, 37.931243300112556 ], [ -121.735547231939421, 37.930972843630101 ], [ -121.735838475635987, 37.930827259568581 ], [ -121.736200424830272, 37.93078609496893 ], [ -121.736470209571351, 37.930689871024242 ], [ -121.736624735071572, 37.930511280624835 ], [ -121.736734220840077, 37.930345727893737 ], [ -121.736846092533995, 37.930292829363843 ], [ -121.737049418113727, 37.930254458296567 ], [ -121.737300056162809, 37.930320247581371 ], [ -121.737732674023889, 37.930387972575552 ], [ -121.737936111892992, 37.930385663399548 ], [ -121.737978804326886, 37.93025993471651 ], [ -121.737928064784697, 37.930025054815921 ], [ -121.737765791315155, 37.929865613016254 ], [ -121.737449588826692, 37.929434112341845 ], [ -121.736778552699349, 37.928836613694116 ], [ -121.736332150190279, 37.928160361333866 ], [ -121.736247251311099, 37.927429459761598 ], [ -121.736328686286541, 37.927033796407997 ], [ -121.736480975880028, 37.926778539249973 ], [ -121.736928271314497, 37.926485954760388 ], [ -121.73748963482376, 37.926262139534309 ], [ -121.738028946489408, 37.926078668206067 ], [ -121.738315718372505, 37.925734787639406 ], [ -121.738376291772127, 37.925392954032013 ], [ -121.738371150713746, 37.925194619702346 ], [ -121.73846089330894, 37.924645809855711 ], [ -121.738721216095144, 37.924143901903186 ], [ -121.739470111004792, 37.923219135370864 ], [ -121.740057514877478, 37.922134926990815 ], [ -121.740888105274024, 37.920836998111348 ], [ -121.741179610380371, 37.920213757287563 ], [ -121.741153942817746, 37.920051260468696 ], [ -121.740739169091498, 37.919771937927393 ], [ -121.74030651350121, 37.91970871942263 ], [ -121.739833178601586, 37.91982081390347 ], [ -121.739157559269685, 37.919993816314516 ], [ -121.738163278760368, 37.920131876096463 ], [ -121.737073408521695, 37.920039078720329 ], [ -121.735768960406034, 37.919520368930868 ], [ -121.734986909577572, 37.91901626315714 ], [ -121.734799229056833, 37.918766407255077 ], [ -121.734884985827122, 37.918532980968166 ], [ -121.735492990764257, 37.918363777840959 ], [ -121.736305066882764, 37.918192265474268 ], [ -121.73687127410804, 37.918180307358021 ], [ -121.737479240417613, 37.918011104836872 ], [ -121.737609402709026, 37.917760132191425 ], [ -121.7376480338595, 37.917454136938055 ], [ -121.737483488550581, 37.917222535590511 ], [ -121.736611247765893, 37.916753558469409 ], [ -121.734367691869082, 37.91432310468452 ], [ -121.734101444693593, 37.91359473602018 ], [ -121.733606688567718, 37.912760271417646 ], [ -121.733366630876034, 37.912207922233712 ], [ -121.733009970962144, 37.911902149813244 ], [ -121.732851906997993, 37.91183285992232 ], [ -121.732608087161921, 37.911870783470022 ], [ -121.732277616731821, 37.912070012003767 ], [ -121.731954857440144, 37.91256670463325 ], [ -121.730721972713269, 37.915176084069344 ], [ -121.730176255161311, 37.915692894010824 ], [ -121.729826040659603, 37.915964021132076 ], [ -121.729249738167169, 37.91611098396951 ], [ -121.728758968764524, 37.916119216124862 ], [ -121.72819477286717, 37.915811209149759 ], [ -121.72780883236662, 37.915514117652023 ], [ -121.727560616175509, 37.915394275499708 ], [ -121.727159029717626, 37.915385445830758 ], [ -121.726962185482677, 37.915545521420157 ], [ -121.726980105075981, 37.916320792378897 ], [ -121.726850278754497, 37.916963776790702 ], [ -121.726418144187051, 37.917571968761031 ], [ -121.725689402980819, 37.917897521508728 ], [ -121.724845624417569, 37.918050631051223 ], [ -121.723795987025525, 37.917976163007872 ], [ -121.723479300345176, 37.917787961152982 ], [ -121.72317360185734, 37.917086153466492 ], [ -121.723085126785023, 37.916156917060064 ], [ -121.723230189432044, 37.915662794305177 ], [ -121.723591356193708, 37.914882644078865 ], [ -121.724283999498567, 37.913970879347637 ], [ -121.724425448223229, 37.913355050936055 ], [ -121.724191835943699, 37.912883876215012 ], [ -121.723335092894303, 37.912473535553488 ], [ -121.722927248772123, 37.91221224406118 ], [ -121.722768513766482, 37.911606698131834 ], [ -121.722826293405575, 37.91118372842233 ], [ -121.723324438875025, 37.910580790002768 ], [ -121.723516029762195, 37.910190826473112 ], [ -121.723343661025467, 37.909467934554023 ], [ -121.723262971651721, 37.908872260338534 ], [ -121.723608529286992, 37.908375790834661 ], [ -121.72396865310462, 37.908023712797785 ], [ -121.724271109572584, 37.907634942754896 ], [ -121.724307840786238, 37.907279363362669 ], [ -121.723877010572593, 37.906950233902158 ], [ -121.72273263774899, 37.906649416699338 ], [ -121.72216684105382, 37.906273758313937 ], [ -121.721972157267132, 37.905568672475574 ], [ -121.722095241732404, 37.905110350122165 ], [ -121.722505247201141, 37.90450648089034 ], [ -121.722580273595341, 37.90390793765318 ], [ -121.72188401636808, 37.903183891012397 ], [ -121.721268636262494, 37.90259589065883 ], [ -121.720628072786198, 37.901899485329849 ], [ -121.71942182310751, 37.900827383677921 ], [ -121.718670841411452, 37.900147778251728 ], [ -121.717834252065472, 37.89965201756803 ], [ -121.717410240064851, 37.899138187678957 ], [ -121.717425439559435, 37.8988364390014 ], [ -121.717553402775039, 37.898589973797982 ], [ -121.717861484493312, 37.898408589801114 ], [ -121.718437302793774, 37.898243596403113 ], [ -121.719057936247182, 37.898074617397235 ], [ -121.719586107905002, 37.897787471995514 ], [ -121.719931702371213, 37.897286531986801 ], [ -121.719965678451871, 37.896845271755986 ], [ -121.719909425050474, 37.896317435328164 ], [ -121.719450208972191, 37.895744634662428 ], [ -121.718857776330523, 37.895188448820193 ], [ -121.718476194455718, 37.894607489166859 ], [ -121.718377623217918, 37.894182806154603 ], [ -121.718402508347907, 37.893322375902194 ], [ -121.718179735140595, 37.892355625331049 ], [ -121.717879440019203, 37.891883706467297 ], [ -121.717499237058362, 37.891839003095413 ], [ -121.717012788552225, 37.892018450197448 ], [ -121.716194081070256, 37.892297921354391 ], [ -121.715658644736749, 37.892269571619472 ], [ -121.715163143907475, 37.892029812107992 ], [ -121.714712942423049, 37.891840157934048 ], [ -121.714134330362043, 37.891883408010123 ], [ -121.713535675988723, 37.892016549574429 ], [ -121.712869109878227, 37.892130953380985 ], [ -121.712513307855431, 37.892154087631425 ], [ -121.711813398976545, 37.892263574149759 ], [ -121.711236054438388, 37.892356408687498 ], [ -121.710443312759722, 37.892775801672343 ], [ -121.709894800548923, 37.893170868790278 ], [ -121.709280649338623, 37.893619245087507 ], [ -121.708640047234795, 37.893873607835381 ], [ -121.707526371641094, 37.893906428016429 ], [ -121.706563421673948, 37.893693079918627 ], [ -121.706091278838713, 37.893539188801419 ], [ -121.70545455206701, 37.893451048735258 ], [ -121.704623364290825, 37.893180554655089 ], [ -121.703611315105221, 37.892808920087376 ], [ -121.703075878771699, 37.892780496113026 ], [ -121.702433228509022, 37.892949140613254 ], [ -121.701970585357898, 37.893187372970083 ], [ -121.701530441411407, 37.89343938930206 ], [ -121.700862199044593, 37.893445534838072 ], [ -121.700167097050794, 37.893280132616233 ], [ -121.699763276482813, 37.893163009790712 ], [ -121.699371859852263, 37.89310910409214 ], [ -121.69852714973608, 37.893207936374772 ], [ -121.697614714732325, 37.893274432971467 ], [ -121.696628294481769, 37.893024689560356 ], [ -121.695489510077579, 37.892948991741243 ], [ -121.694069652702439, 37.89325319895535 ], [ -121.693471334299019, 37.893404259284644 ], [ -121.692883147993683, 37.893505885689734 ], [ -121.692483759713326, 37.893582552013577 ], [ -121.691796667098586, 37.893768705373098 ], [ -121.690775415571196, 37.893960110535197 ], [ -121.690171508748392, 37.893863289718112 ], [ -121.689391991169018, 37.893890633611832 ], [ -121.6889025629511, 37.893952809527796 ], [ -121.688571608329084, 37.894097797375316 ], [ -121.688487155912583, 37.894290655638343 ], [ -121.688516398770034, 37.894606411641576 ], [ -121.688769234098316, 37.894938185902291 ], [ -121.688909640777212, 37.895237140512329 ], [ -121.688897571911383, 37.895678624467514 ], [ -121.688723935651808, 37.8958885074478 ], [ -121.688283642584963, 37.896144956396277 ], [ -121.687884701665595, 37.896235146160869 ], [ -121.687280087868672, 37.896138251067683 ], [ -121.686662583247411, 37.895928591389556 ], [ -121.686053124836192, 37.895583815610493 ], [ -121.685556209160367, 37.895307883662859 ], [ -121.685018723769673, 37.895193740703498 ], [ -121.684349997210916, 37.895186253379691 ], [ -121.68403345875258, 37.894997976921431 ], [ -121.683801521831072, 37.894612334486077 ], [ -121.683746313170332, 37.894120559542564 ], [ -121.683511918458166, 37.893631242641177 ], [ -121.682996896339489, 37.893494821748675 ], [ -121.682102119519271, 37.893367640539125 ], [ -121.681675238299647, 37.893232189658001 ], [ -121.681193893122625, 37.892640985600977 ], [ -121.681045589354056, 37.891990400938411 ], [ -121.680799868682811, 37.891460404331141 ], [ -121.680526692801536, 37.891195982730046 ], [ -121.679878380457609, 37.891121141547025 ], [ -121.679254208540328, 37.891127661592463 ], [ -121.678605970756578, 37.891048274664954 ], [ -121.678131070093443, 37.890736506050288 ], [ -121.677962277549852, 37.89016009173185 ], [ -121.678020429091447, 37.887781419251596 ], [ -121.678141053969497, 37.883738435631145 ], [ -121.678060027727497, 37.882586165058584 ], [ -121.678023036002415, 37.881952605879164 ], [ -121.672227861272447, 37.881927944738813 ], [ -121.668805399515875, 37.881878026146794 ], [ -121.668663278851383, 37.878480971045995 ], [ -121.662743717098948, 37.878395847706521 ], [ -121.659768253434521, 37.878393539025645 ], [ -121.65973658782076, 37.874925628619174 ], [ -121.65348480482173, 37.874915085902195 ], [ -121.652165679132665, 37.874927044667373 ], [ -121.652394038962726, 37.869803801451503 ], [ -121.652492758422568, 37.867504477435858 ], [ -121.658008722389212, 37.867463870971903 ], [ -121.659651315242414, 37.867396965284854 ], [ -121.659711589503033, 37.862853079181988 ], [ -121.659740758698632, 37.860537177849622 ], [ -121.653002005272285, 37.860374643593786 ], [ -121.647770877319317, 37.860292166742141 ], [ -121.641528072083247, 37.860206783376277 ], [ -121.641573631041211, 37.852848589020041 ], [ -121.63486319071599, 37.852885879758006 ], [ -121.632301048201995, 37.852910205900464 ], [ -121.632198675293893, 37.849261209022586 ], [ -121.62810543792142, 37.849152766565282 ], [ -121.628049148587408, 37.844983793255551 ], [ -121.628034544675813, 37.840596817359092 ], [ -121.628065426958671, 37.836208052338883 ], [ -121.628053765927945, 37.831967516399978 ], [ -121.62804434080401, 37.827835163143426 ], [ -121.628037560320237, 37.823829022756982 ], [ -121.625946443137238, 37.823820417688609 ], [ -121.623055840622726, 37.823840720880064 ], [ -121.623090671001236, 37.816768517419341 ], [ -121.618414350652571, 37.816727279101897 ], [ -121.613903284383582, 37.816656237670458 ], [ -121.613945527659808, 37.809383613694891 ], [ -121.613940275210339, 37.801954974410499 ], [ -121.618614621062008, 37.801978331451146 ], [ -121.62307770471844, 37.801908929639062 ], [ -121.623049579365215, 37.798109803862644 ], [ -121.632040383157673, 37.798173989185067 ], [ -121.632049583702823, 37.794981377546925 ], [ -121.625970057151122, 37.795003022489617 ], [ -121.617602719200121, 37.79494792625934 ], [ -121.613910695484677, 37.794954109822278 ], [ -121.613999803869291, 37.790906246335616 ], [ -121.61398110274169, 37.787463221661334 ], [ -121.607544954005334, 37.78749771851254 ], [ -121.603566119779245, 37.78748892675813 ], [ -121.598947616798895, 37.787490417608048 ], [ -121.593471588336541, 37.787535568338079 ], [ -121.588235357054415, 37.787511241938304 ], [ -121.586593062441906, 37.787505058462408 ], [ -121.586518183371382, 37.782903243928338 ], [ -121.586534610862984, 37.779023540231179 ], [ -121.586527718988123, 37.776067335941484 ], [ -121.582143834400426, 37.776158866204689 ], [ -121.582021867439337, 37.772996243857499 ], [ -121.576953385756767, 37.773011741794321 ], [ -121.57691993159726, 37.771425102884557 ], [ -121.574583579731609, 37.771403645598618 ], [ -121.574456955904111, 37.769572553822876 ], [ -121.572561454060732, 37.769581121186278 ], [ -121.57239497018746, 37.767943334277668 ], [ -121.570367853476881, 37.76793454374797 ], [ -121.570221859276899, 37.765713413456005 ], [ -121.567863302854036, 37.765675750584734 ], [ -121.567846836734859, 37.763843764920189 ], [ -121.565544308236284, 37.763847304335776 ], [ -121.56546034001174, 37.761949119298656 ], [ -121.563323067389447, 37.761959140560727 ], [ -121.563267857830411, 37.760338452399829 ], [ -121.561051943094867, 37.760270838798306 ], [ -121.560990512702475, 37.758388710690106 ], [ -121.558808609980247, 37.758364310069808 ], [ -121.558713055285153, 37.754293945696332 ], [ -121.55874494368112, 37.751040798027375 ], [ -121.552752329133142, 37.751048472586646 ], [ -121.549745198956629, 37.751079094815729 ], [ -121.549677213557601, 37.749911141818636 ], [ -121.549677845971587, 37.743809637329456 ], [ -121.541418019292081, 37.743311119856465 ], [ -121.536392825626407, 37.742960421435278 ], [ -121.531469145181134, 37.742608530079572 ], [ -121.520115315847235, 37.74190545697784 ], [ -121.519917353209777, 37.742229669541224 ], [ -121.519724121998905, 37.742779261229877 ], [ -121.519401960086881, 37.743248387159724 ], [ -121.518699071496187, 37.743883921928479 ], [ -121.517851568517784, 37.744267590128935 ], [ -121.516633435924518, 37.744666829119829 ], [ -121.515921457281479, 37.744797549981207 ], [ -121.515436126279567, 37.744804963073037 ], [ -121.514845482183617, 37.744651070941842 ], [ -121.514379709302077, 37.744352302810746 ], [ -121.513831011140013, 37.743732526178576 ], [ -121.513147009628142, 37.74275054003639 ], [ -121.512363059761171, 37.741870923936787 ], [ -121.511892928253857, 37.741331017816265 ], [ -121.511141797437446, 37.740834846361693 ], [ -121.509506580651077, 37.740138217348097 ], [ -121.508319405799128, 37.739526114572286 ], [ -121.507407825991521, 37.738649367812748 ], [ -121.506568518343457, 37.737566239605059 ], [ -121.505468774721507, 37.736207179242605 ], [ -121.504820573768683, 37.73571003923508 ], [ -121.502680170517635, 37.734047069644753 ], [ -121.501488189678923, 37.733153223535155 ], [ -121.500996711505522, 37.732836014653962 ], [ -121.500580224692015, 37.732456705534695 ], [ -121.500036742148509, 37.732080265443223 ], [ -121.499753620120416, 37.731982029294223 ], [ -121.499293322470507, 37.731946899809387 ], [ -121.498881863527671, 37.731810963479937 ], [ -121.497981461457144, 37.731479562969994 ], [ -121.494075418616831, 37.728939995417662 ], [ -121.49244288419986, 37.72774749194955 ], [ -121.49139455026328, 37.727022103439843 ], [ -121.488381944855092, 37.725764557147926 ], [ -121.48549801053494, 37.724567137531785 ], [ -121.483369602487883, 37.723431259358819 ], [ -121.482229290947686, 37.722596421490245 ], [ -121.481271258358404, 37.721901395135554 ], [ -121.480725763588651, 37.721423439493961 ], [ -121.478869674430086, 37.720536559514535 ], [ -121.476229821355773, 37.719384886531572 ], [ -121.473347042269097, 37.718187242979802 ], [ -121.472139936495935, 37.717817843435121 ], [ -121.470740531064905, 37.717421174156492 ], [ -121.470099407938179, 37.717288926194335 ], [ -121.469511296193048, 37.71723397884363 ], [ -121.469045858383069, 37.716937296554775 ], [ -121.468242387226653, 37.716320761054313 ], [ -121.467929314468677, 37.715960674053122 ], [ -121.467567216154052, 37.715741925072734 ], [ -121.466953846478049, 37.715709179823307 ], [ -121.46618882141918, 37.715739764796268 ], [ -121.465804966806687, 37.715682953767413 ], [ -121.46490583136071, 37.715409889847066 ], [ -121.464226897245382, 37.715288370813241 ], [ -121.463717574937149, 37.715333559226075 ], [ -121.46298201641622, 37.715585351769477 ], [ -121.462472210814397, 37.715653040305078 ], [ -121.461883502587909, 37.715559758831297 ], [ -121.461161652358186, 37.715183058040807 ], [ -121.460126581148472, 37.714489110508595 ], [ -121.458983660900685, 37.713491812391744 ], [ -121.458053978243498, 37.712916366823258 ], [ -121.457488628010992, 37.712721944227283 ], [ -121.456266880597042, 37.71228236063601 ], [ -121.455213740673713, 37.711950884115069 ], [ -121.454878800226766, 37.711793266665524 ], [ -121.453370393219117, 37.71166984851186 ], [ -121.451555021099111, 37.711510853209738 ], [ -121.450275459011763, 37.711363331871226 ], [ -121.449213378156415, 37.711225458877955 ], [ -121.448345719678002, 37.71121629490959 ], [ -121.44689285730098, 37.711354875736568 ], [ -121.445336430849849, 37.711392947878032 ], [ -121.443189210284061, 37.711236151475859 ], [ -121.441489434273151, 37.711146110031642 ], [ -121.44062077057994, 37.711116606210773 ], [ -121.439781947123819, 37.71128800692933 ], [ -121.438285572151088, 37.711811187253168 ], [ -121.436529991896379, 37.712114612126335 ], [ -121.435891365187871, 37.712103883411956 ], [ -121.434819189963662, 37.712076130309264 ], [ -121.434689697815472, 37.711995552233233 ], [ -121.434641752932109, 37.710803011905192 ], [ -121.434553091010187, 37.704840050820749 ], [ -121.43446886137589, 37.699778423776451 ], [ -121.434522505171415, 37.695239083091842 ], [ -121.434445019189937, 37.690497458448135 ], [ -121.434376287290931, 37.688912570768714 ], [ -121.428022989274908, 37.688988008730647 ], [ -121.425178841338692, 37.689071715490535 ], [ -121.425244518965741, 37.693842472151523 ], [ -121.425247425015698, 37.696016812418947 ], [ -121.42108705744036, 37.696046764372184 ], [ -121.420972541106238, 37.6926903146257 ], [ -121.420692735658193, 37.692713597418766 ], [ -121.420207479216444, 37.69270033602298 ], [ -121.419899359768934, 37.692621880772066 ], [ -121.419459253551651, 37.692284742608329 ], [ -121.419069625466847, 37.691905508057495 ], [ -121.418832213313664, 37.691503512297473 ], [ -121.418541864339133, 37.691021980471561 ], [ -121.418436288937031, 37.690820032897804 ], [ -121.418127313395061, 37.690682942020402 ], [ -121.417899177245502, 37.690745228751325 ], [ -121.417609908045904, 37.690982417866948 ], [ -121.417157024192065, 37.69131206886653 ], [ -121.416628740244846, 37.691721813903108 ], [ -121.416425675176555, 37.691804701525164 ], [ -121.416361003662615, 37.687013679863057 ], [ -121.420802445107199, 37.687041693294944 ], [ -121.421847574753158, 37.686990359024833 ], [ -121.421756119070707, 37.686858446330191 ], [ -121.420944079783112, 37.6857773297858 ], [ -121.420473165843163, 37.685155914864218 ], [ -121.4203627476234, 37.684712828623901 ], [ -121.420349412133007, 37.684005171475228 ], [ -121.42030631006736, 37.683096574081937 ], [ -121.42013982619406, 37.682391376285331 ], [ -121.419744982490698, 37.681728162954109 ], [ -121.417995437118094, 37.681677648279489 ], [ -121.413376933239419, 37.681692214095214 ], [ -121.408618023580161, 37.681677648990387 ], [ -121.403246152978355, 37.68169065072999 ], [ -121.397697928713242, 37.68176407624847 ], [ -121.393702964337905, 37.681720974605646 ], [ -121.388178730480774, 37.681733455216197 ], [ -121.388399974755444, 37.677142369819293 ], [ -121.388481633411416, 37.674383381394243 ], [ -121.381579674064255, 37.67439250938795 ], [ -121.37970369261204, 37.67436449544514 ], [ -121.37958176338023, 37.669088254737865 ], [ -121.379506996599133, 37.667117985561845 ], [ -121.376011406588532, 37.667119475992536 ], [ -121.370331381504926, 37.667178559882885 ], [ -121.370205578737597, 37.66272463900436 ], [ -121.370187211783289, 37.658639448771645 ], [ -121.370184268004095, 37.654139930675541 ], [ -121.370136584530485, 37.649678075172737 ], [ -121.370154651447493, 37.645090938873274 ], [ -121.370169700923483, 37.642847010374162 ], [ -121.370143214097325, 37.642632619478405 ], [ -121.370075637431754, 37.642613657875572 ], [ -121.368769737638587, 37.64279161521187 ], [ -121.367306330836811, 37.642949381452972 ], [ -121.366335706562197, 37.642924682463885 ], [ -121.364090249830227, 37.642307737847233 ], [ -121.36299005974557, 37.641988294290371 ], [ -121.361743056197398, 37.641646535736854 ], [ -121.360907808934442, 37.641619154609714 ], [ -121.359916396745859, 37.641702266076663 ], [ -121.358718492416173, 37.641608984758719 ], [ -121.357368186203601, 37.641166607341766 ], [ -121.355599044981346, 37.640668796401144 ], [ -121.352575525042468, 37.640649126516891 ], [ -121.351165650645058, 37.640692526588673 ], [ -121.351361601954622, 37.645287113589561 ], [ -121.34615997826883, 37.645281899104468 ], [ -121.34235776001411, 37.645262303704833 ], [ -121.342338835206036, 37.642321708189939 ], [ -121.342271668172231, 37.640434923473613 ], [ -121.342196529488604, 37.64002380045612 ], [ -121.342078809762199, 37.639774280883998 ], [ -121.341415818946558, 37.639264772420852 ], [ -121.340706822710231, 37.638752359557763 ], [ -121.340137560314687, 37.638455937329397 ], [ -121.339366834547008, 37.638267102166282 ], [ -121.33886932238984, 37.63818346969731 ], [ -121.335823301449722, 37.638163092062555 ], [ -121.330307710283918, 37.638251866974741 ], [ -121.324520954564775, 37.638271201731946 ], [ -121.319477805373211, 37.638264794515486 ], [ -121.315067582181371, 37.638305512021589 ], [ -121.314940996981434, 37.63365552947208 ], [ -121.314882211229232, 37.629641864998156 ], [ -121.314866861715984, 37.625554475671393 ], [ -121.31480096130673, 37.624992515681953 ], [ -121.308506896403927, 37.625006076618099 ], [ -121.302585285594319, 37.624990877127949 ], [ -121.297363471374226, 37.625003469019575 ], [ -121.292637828126544, 37.625027534339836 ], [ -121.290617862903957, 37.625005071287497 ], [ -121.286299432262808, 37.628360367190687 ], [ -121.285464520071443, 37.62900391057984 ], [ -121.288237030957006, 37.631513564860278 ], [ -121.291548852609921, 37.634544721300628 ], [ -121.295067501475501, 37.637772499257323 ], [ -121.299596412777646, 37.641970118536392 ], [ -121.30453722858698, 37.646486623932503 ], [ -121.309227035343014, 37.650789818081577 ], [ -121.314008894262855, 37.655181972744195 ], [ -121.326684048361585, 37.66687368465503 ], [ -121.331443704520865, 37.67117699143656 ], [ -121.340210469379798, 37.67921590684076 ], [ -121.345154973671683, 37.683658688133228 ], [ -121.344275432278693, 37.684358335118645 ], [ -121.342584113007845, 37.685735984988298 ], [ -121.339750694549366, 37.68381705144926 ], [ -121.335970231694219, 37.687715679513332 ], [ -121.334208244654917, 37.689549603273434 ], [ -121.329579720069262, 37.689547218309976 ], [ -121.324625381021619, 37.689630144616913 ], [ -121.324622102170807, 37.692642488700528 ], [ -121.318254574840708, 37.692641930692112 ], [ -121.315421230942405, 37.692646549722078 ], [ -121.315397686997144, 37.696474249032939 ], [ -121.313072285594799, 37.696517573823499 ], [ -121.30859158058577, 37.696575055614247 ], [ -121.306514433103757, 37.69658127725539 ], [ -121.300542083650285, 37.696583214898823 ], [ -121.297888409995338, 37.69656745715087 ], [ -121.295215699242902, 37.693482655512369 ], [ -121.29372714769795, 37.691595535281586 ], [ -121.291568788920998, 37.689525242521 ], [ -121.289562532887956, 37.687749992548795 ], [ -121.287268461129457, 37.685610036698137 ], [ -121.284731798430172, 37.683178129820234 ], [ -121.281673111244515, 37.680556047706922 ], [ -121.272674148952646, 37.672378774109355 ], [ -121.270737294961819, 37.673972602739653 ], [ -121.269932558079176, 37.674447465745089 ], [ -121.269056556048383, 37.674725260182655 ], [ -121.267809217428621, 37.675033639707138 ], [ -121.266461778638401, 37.675441931796257 ], [ -121.264261846728402, 37.676180098447311 ], [ -121.263914239137648, 37.67564779122322 ], [ -121.263792384465972, 37.675130013867069 ], [ -121.263418662849929, 37.67438100660835 ], [ -121.263064015162286, 37.674089614113768 ], [ -121.262791175250911, 37.673968468882819 ], [ -121.262111347311873, 37.673796210423205 ], [ -121.261566149884473, 37.673623692752017 ], [ -121.261041778998631, 37.673289273931722 ], [ -121.260536480244568, 37.672774884525055 ], [ -121.260213906904141, 37.672384847041407 ], [ -121.259823049924023, 37.671978007843585 ], [ -121.259278598098334, 37.671805490211476 ], [ -121.258578392775391, 37.67177714110381 ], [ -121.257813218596127, 37.671891991541493 ], [ -121.257135587037993, 37.671900001379669 ], [ -121.25663680825626, 37.671743949098676 ], [ -121.256328056394793, 37.671523076585615 ], [ -121.255935895060873, 37.670990061880481 ], [ -121.255535202426699, 37.669974733514344 ], [ -121.255298087615884, 37.669297549869029 ], [ -121.254747191276323, 37.668766696467991 ], [ -121.253902929419468, 37.668204438295689 ], [ -121.252919749392177, 37.667464371938586 ], [ -121.251967192932881, 37.666535507887986 ], [ -121.251346149847734, 37.665825579620837 ], [ -121.251068428491109, 37.665400151872731 ], [ -121.250855826009442, 37.664829213334826 ], [ -121.250555456327916, 37.664403412232375 ], [ -121.250097097242374, 37.663977537575988 ], [ -121.249643021324147, 37.663822118595192 ], [ -121.249055877962846, 37.663811129024403 ], [ -121.248561643758151, 37.663977276597336 ], [ -121.247961462248853, 37.664520387495067 ], [ -121.246880158344723, 37.665998097643325 ], [ -121.246469036270099, 37.667057682825423 ], [ -121.246416956441507, 37.668005471288978 ], [ -121.24654380305121, 37.670204137593153 ], [ -121.246658616727672, 37.671016959332945 ], [ -121.246535719111989, 37.671751884293705 ], [ -121.246340774813845, 37.672235650151087 ], [ -121.246143669169143, 37.672631499671574 ], [ -121.245496326107428, 37.673067992200913 ], [ -121.244957127629505, 37.673215439718525 ], [ -121.24393878125376, 37.673065086236249 ], [ -121.242778204619057, 37.672486772823802 ], [ -121.242434210950663, 37.672168446001798 ], [ -121.242128737041668, 37.67142040786262 ], [ -121.242067456667954, 37.670473178522485 ], [ -121.242039479536743, 37.66877619704092 ], [ -121.241899146519671, 37.667095532390775 ], [ -121.241737320411133, 37.666176129786393 ], [ -121.241525313512497, 37.665641252713343 ], [ -121.241110726635839, 37.665164155250828 ], [ -121.240835688546994, 37.664898690420664 ], [ -121.240290417457743, 37.664705795934609 ], [ -121.239478192218868, 37.664713953747409 ], [ -121.238324879361571, 37.664584090676335 ], [ -121.236582224965474, 37.664296684597637 ], [ -121.235631755292601, 37.664129232849177 ], [ -121.234824968454447, 37.663788219739246 ], [ -121.234479671330604, 37.663379741218876 ], [ -121.234340569005511, 37.663150114798711 ], [ -121.23386190619793, 37.66286807286572 ], [ -121.23279554217531, 37.662538905609075 ], [ -121.231984769512252, 37.662637142079483 ], [ -121.230862152986532, 37.663005611242617 ], [ -121.230168317617256, 37.663371434635529 ], [ -121.22979496880204, 37.663965171312398 ], [ -121.229605612923294, 37.664807235912072 ], [ -121.229890522598808, 37.665699219224948 ], [ -121.23021700720399, 37.666303461431951 ], [ -121.230095786742908, 37.667200623355569 ], [ -121.229820674093872, 37.66831176543365 ], [ -121.22953464601585, 37.668778357974865 ], [ -121.229458426658923, 37.668914629657507 ], [ -121.229191919870345, 37.669185532559602 ], [ -121.228742984112145, 37.669350004217186 ], [ -121.227437270270258, 37.66957821635787 ], [ -121.226335775831814, 37.669859065237979 ], [ -121.225325887992781, 37.670190840175316 ], [ -121.224874940906673, 37.670231371658801 ], [ -121.223520052387826, 37.6701726599469 ], [ -121.223023434054355, 37.670196726279279 ], [ -121.222720306544872, 37.670280023346443 ], [ -121.222450372683483, 37.670336797355354 ], [ -121.222113829642069, 37.670482678876908 ], [ -121.221668956065599, 37.670863478475795 ], [ -121.221295904592722, 37.671529299617362 ], [ -121.221314345208881, 37.672656087813799 ], [ -121.222104553638431, 37.674078441198922 ], [ -121.22247678494945, 37.674753240571796 ], [ -121.222923410240739, 37.676528640206456 ], [ -121.223043737776408, 37.677663735679694 ], [ -121.222850171493945, 37.678291671164054 ], [ -121.222660852446111, 37.679097674997337 ], [ -121.223294450385694, 37.68061230338845 ], [ -121.223492561245166, 37.681665218847485 ], [ -121.223730830391133, 37.682432591423868 ], [ -121.2238907951904, 37.683243848820261 ], [ -121.223807832180668, 37.683690958426645 ], [ -121.223451360014664, 37.684016808548705 ], [ -121.223113736299965, 37.684056782226968 ], [ -121.222831098463828, 37.684050263080891 ], [ -121.222330605696527, 37.683788114020629 ], [ -121.221875077202469, 37.68354243121361 ], [ -121.22144588641423, 37.683529168888697 ], [ -121.220952658322645, 37.683765091467102 ], [ -121.220400271678045, 37.684486717581066 ], [ -121.219759745930986, 37.685369276568785 ], [ -121.219270801006701, 37.685839557366457 ], [ -121.218754103530003, 37.685987190640624 ], [ -121.218080161352702, 37.686191075071719 ], [ -121.217520623220096, 37.686500274943029 ], [ -121.217213509885724, 37.687040888564709 ], [ -121.216862736631882, 37.687688977921113 ], [ -121.216506225838359, 37.68801479199626 ], [ -121.216384073824301, 37.688114331201454 ], [ -121.21608999953628, 37.688080579931736 ], [ -121.215793130589404, 37.687868797792405 ], [ -121.215446939641822, 37.687408463112831 ], [ -121.215217721920681, 37.687213481670391 ], [ -121.214877864095854, 37.687109173305181 ], [ -121.21419982380425, 37.687098929354065 ], [ -121.213476297318252, 37.687033884852248 ], [ -121.21277348418603, 37.686845237204395 ], [ -121.212226536840447, 37.686510258788331 ], [ -121.211499099988004, 37.686195062512873 ], [ -121.210480978191043, 37.686062441767362 ], [ -121.210052867177765, 37.686121263891948 ], [ -121.209545631655971, 37.686169916535015 ], [ -121.20909706959695, 37.686372609708258 ], [ -121.208583723734563, 37.686734335477979 ], [ -121.208299857003112, 37.687309073668921 ], [ -121.208218123786978, 37.687848532605514 ], [ -121.208092730651401, 37.688493268799313 ], [ -121.207495977113226, 37.689286308532729 ], [ -121.207252602841507, 37.689591260859565 ], [ -121.206945974597375, 37.690167898371982 ], [ -121.206503820221272, 37.69078074599782 ], [ -121.206274714789529, 37.691257173340439 ], [ -121.206081111676141, 37.691849047687086 ], [ -121.206180502177475, 37.692402551807497 ], [ -121.206615876968144, 37.692807974615519 ], [ -121.207004984030078, 37.693163106580243 ], [ -121.207215686574912, 37.69362593680242 ], [ -121.207289298122561, 37.693983043078092 ], [ -121.207181861411215, 37.694323869797891 ], [ -121.206671459328007, 37.694883892831392 ], [ -121.206447941417352, 37.695011185873916 ], [ -121.205990735768637, 37.695364716487887 ], [ -121.205990363866135, 37.699584688857932 ], [ -121.205936943751112, 37.703977364591019 ], [ -121.205964437588719, 37.707776415753258 ], [ -121.205947748687379, 37.710290576893939 ], [ -121.199806047938225, 37.710334386814012 ], [ -121.196700272862017, 37.710320715671301 ], [ -121.196750713265203, 37.714879428281343 ], [ -121.196803165894679, 37.717482512509925 ], [ -121.202742918181428, 37.717458298081965 ], [ -121.208379283345607, 37.71751708250752 ], [ -121.215098516380777, 37.717513132991471 ], [ -121.215383690160976, 37.73931129829414 ], [ -121.218749602072108, 37.739294646014166 ], [ -121.228577851305033, 37.739303101801042 ], [ -121.236270688326641, 37.739303586287825 ], [ -121.25019880539719, 37.739274639262028 ], [ -121.251057485214318, 37.739285144530271 ], [ -121.251959303029736, 37.739332343627893 ], [ -121.251926633997797, 37.747715476913434 ], [ -121.251877161978484, 37.749938544067632 ], [ -121.251904878598239, 37.753886308783024 ], [ -121.25662027745841, 37.753890816037149 ], [ -121.261403402104463, 37.75391193819398 ], [ -121.261515980772501, 37.763286334682526 ], [ -121.261558673206366, 37.767856148282 ], [ -121.261665702980906, 37.775587988989393 ], [ -121.261694946736654, 37.782762153781903 ], [ -121.270468565741226, 37.78277861949568 ], [ -121.27060193142492, 37.787987395006795 ], [ -121.270671669437064, 37.79004997653692 ], [ -121.279821207336838, 37.790053254163276 ], [ -121.280187702904783, 37.800848475921889 ], [ -121.270878200205715, 37.800919480747858 ], [ -121.271008101985686, 37.804542027500936 ], [ -121.275590582523151, 37.804602451872348 ], [ -121.275590471132062, 37.807964004785909 ], [ -121.280787958974273, 37.807963370995417 ], [ -121.281048842309175, 37.811898767954034 ], [ -121.287134701085321, 37.811870268767834 ], [ -121.289972590458959, 37.811866469064796 ], [ -121.290359537072646, 37.819099865958492 ], [ -121.281504483092647, 37.819223285210192 ], [ -121.282239336436106, 37.838855789900784 ], [ -121.282561388753663, 37.845027031828053 ], [ -121.288397726984911, 37.844911510660154 ], [ -121.291076992743982, 37.844909871290973 ], [ -121.291377327391245, 37.855686019541302 ], [ -121.297262691179128, 37.855730722159961 ], [ -121.301378540943944, 37.855677525288868 ], [ -121.301574343133154, 37.860362189553229 ], [ -121.302063587196443, 37.873436842071257 ], [ -121.30215344208105, 37.875218052978134 ], [ -121.302434441390147, 37.882075828501975 ], [ -121.302685601360409, 37.888624479622649 ], [ -121.303175142766094, 37.897702229908091 ], [ -121.298675065587958, 37.897731883994901 ], [ -121.298655881166724, 37.901868148746132 ], [ -121.298651932172731, 37.904941215352707 ], [ -121.293899764369684, 37.90493998700456 ], [ -121.293897306579083, 37.914033159489605 ], [ -121.293888479733099, 37.922107801929663 ], [ -121.293942980521365, 37.923933566632734 ], [ -121.293918505023157, 37.92517684579677 ], [ -121.293813825241429, 37.925738582183605 ], [ -121.293898761849846, 37.926677094843264 ], [ -121.294490487517379, 37.928519622857515 ], [ -121.295262702691829, 37.930891962844257 ], [ -121.29535121639168, 37.931370886333511 ], [ -121.295360045034329, 37.931911723812448 ], [ -121.295276821513141, 37.932343112875962 ], [ -121.295077779998991, 37.932741271444655 ], [ -121.294113749358573, 37.933835761357599 ], [ -121.292543464597529, 37.935529763557412 ], [ -121.289260478865245, 37.93931220028729 ], [ -121.287997641611881, 37.940956543477476 ], [ -121.288825067243664, 37.943888459634969 ], [ -121.290125863707686, 37.948431413610173 ], [ -121.29136124575102, 37.953104083201566 ], [ -121.291447970905182, 37.9535063771594 ], [ -121.290171908654187, 37.953717638599706 ], [ -121.291249301293576, 37.957874280924138 ], [ -121.293942128918488, 37.967547221361009 ], [ -121.298182663946434, 37.966833641070842 ], [ -121.299282221617133, 37.969562155785411 ], [ -121.299663244739818, 37.970441808266422 ], [ -121.299922524581973, 37.970891636898038 ], [ -121.300720295927917, 37.972056722183751 ], [ -121.302568711677338, 37.974471604555475 ], [ -121.304370000908634, 37.97683619572863 ], [ -121.306216553552161, 37.979124826865267 ], [ -121.309410767768057, 37.983284747308403 ], [ -121.309727007985757, 37.983708350055331 ], [ -121.309184271043904, 37.98403848539666 ], [ -121.307682084869626, 37.985769702567914 ], [ -121.306991750235014, 37.986823215190931 ], [ -121.306351112198584, 37.988129711484774 ], [ -121.305721240470803, 37.989368817674929 ], [ -121.30525148176433, 37.989988370355682 ], [ -121.304349327080686, 37.990718862714637 ], [ -121.30385203860402, 37.991049632002863 ], [ -121.303170944040431, 37.991328171765055 ], [ -121.302599893997495, 37.991369522619998 ], [ -121.301179141900306, 37.991222820714285 ], [ -121.30065160445308, 37.991138591729573 ], [ -121.300377460187917, 37.991143657945777 ], [ -121.299806745216586, 37.991202964366259 ], [ -121.298879780861427, 37.99118508324127 ], [ -121.297715740322985, 37.991325937424946 ], [ -121.296462104513068, 37.991555600470775 ], [ -121.296416842897486, 37.991572961152265 ], [ -121.29808804529587, 37.995634534076132 ], [ -121.299866723931459, 37.999918394101542 ], [ -121.299949276411127, 38.000072807265681 ], [ -121.305852818507091, 37.998869314770715 ], [ -121.312332142970945, 37.997254736018562 ], [ -121.314962607752207, 37.996643601639263 ], [ -121.316234311377457, 37.999982728594198 ], [ -121.318986221198585, 38.006898245923011 ], [ -121.323916310225115, 38.019567363028074 ], [ -121.326972203650229, 38.022913753969043 ], [ -121.330055925086185, 38.026458740621344 ], [ -121.332086022406898, 38.028654947955779 ], [ -121.334063818015125, 38.030589007578286 ], [ -121.336614487246294, 38.033107936965735 ], [ -121.337948252779583, 38.034370437468333 ], [ -121.339521033958803, 38.035866142301657 ], [ -121.342354639266844, 38.038456522173448 ], [ -121.343009247902557, 38.039051525672576 ], [ -121.347140446282324, 38.04216024367684 ], [ -121.348447575869088, 38.043196953861802 ], [ -121.349959001216092, 38.044556461751725 ], [ -121.35032169691037, 38.045183390826637 ], [ -121.350516342069511, 38.045587138195671 ], [ -121.350747757968151, 38.048001088754354 ], [ -121.3512565592535, 38.052180753150715 ], [ -121.351622382881615, 38.056227722713643 ], [ -121.351824704144832, 38.0589882372823 ], [ -121.351907629425355, 38.062945613513357 ], [ -121.351916979989156, 38.069925467501427 ], [ -121.351992082740139, 38.073405112110827 ], [ -121.352371988358627, 38.07435219232508 ], [ -121.35297574516278, 38.07532494059258 ], [ -121.353358520000313, 38.075762886368494 ], [ -121.354664047890935, 38.076709407110435 ], [ -121.356655961422121, 38.077998954365789 ], [ -121.359633362752646, 38.080023165262666 ], [ -121.36274196931862, 38.082148257069953 ], [ -121.368328490560927, 38.08584426616823 ], [ -121.375991265461536, 38.090906972701745 ], [ -121.381076399214564, 38.094225982855519 ], [ -121.384286892700032, 38.096374432354274 ], [ -121.385816757764886, 38.097526478124415 ], [ -121.386681547024267, 38.098389963089268 ], [ -121.387311716992727, 38.099326836213422 ], [ -121.38814122851258, 38.100825185018394 ], [ -121.389720752446351, 38.103973986954315 ], [ -121.391349039628665, 38.107213536672866 ], [ -121.3933710530101, 38.111359673542367 ], [ -121.39546742443919, 38.115637424930114 ], [ -121.397438587785672, 38.119521450284758 ], [ -121.398234310074457, 38.121118370507389 ], [ -121.398452351855155, 38.122657884085307 ], [ -121.398438307593992, 38.124442037043977 ], [ -121.398380528853224, 38.124639514755863 ], [ -121.398433129704713, 38.125005227128561 ], [ -121.398456859601239, 38.129335728487405 ], [ -121.398511026216269, 38.134099256856921 ], [ -121.398566794527397, 38.138921384877925 ], [ -121.398555134395011, 38.139520486562304 ], [ -121.398578678340314, 38.140791480781907 ], [ -121.398621110262724, 38.141787884716656 ], [ -121.398230401504648, 38.143706595821953 ], [ -121.398099271727673, 38.144092312276641 ], [ -121.397842897037179, 38.145183747648154 ], [ -121.39780545795108, 38.145656375234729 ], [ -121.397981105538577, 38.14639774511852 ], [ -121.398419981962206, 38.148309713450104 ], [ -121.398589185035846, 38.148726573888069 ], [ -121.398750676971119, 38.15301840642298 ], [ -121.398918240619366, 38.157652779057543 ], [ -121.399041361915593, 38.162363148806968 ], [ -121.399140827875414, 38.167077690571105 ], [ -121.399240070154747, 38.171769694200286 ], [ -121.399453641918612, 38.18066278187009 ], [ -121.399472752677966, 38.181681350762624 ], [ -121.399654212365334, 38.182747230637283 ], [ -121.399893003432496, 38.183183053091717 ], [ -121.400363358620325, 38.183667080195789 ], [ -121.401321206156624, 38.184310959503179 ], [ -121.402534159962286, 38.185003340994136 ], [ -121.403862412534622, 38.185679295874472 ], [ -121.405866247608003, 38.186724835228681 ], [ -121.406496416678124, 38.187116400598747 ], [ -121.406872447862781, 38.187477456055916 ], [ -121.407521691759655, 38.188238756485497 ], [ -121.408160504419442, 38.189085514614419 ], [ -121.408556876157078, 38.189924487227287 ], [ -121.408752975688657, 38.190521949181168 ], [ -121.408904854752052, 38.191249424278254 ], [ -121.409091157257151, 38.194397071142909 ], [ -121.409213273338565, 38.199017288368232 ], [ -121.409334867498799, 38.203596937328811 ], [ -121.409352935314104, 38.207030649947015 ], [ -121.409651815588916, 38.208188208325822 ], [ -121.409375772285259, 38.208211492079357 ], [ -121.406871631294194, 38.208213578624033 ], [ -121.40546358317178, 38.208230527915191 ], [ -121.401955178693669, 38.208196330746858 ], [ -121.398260769951136, 38.208114411921223 ], [ -121.393272493450382, 38.207987639932249 ], [ -121.39267234967032, 38.207979444783305 ], [ -121.392511938408347, 38.208035807765945 ], [ -121.392263573995237, 38.208325300440819 ], [ -121.391578232196991, 38.20871694025552 ], [ -121.391168710021873, 38.209031243311117 ], [ -121.39111346542856, 38.210990522489112 ], [ -121.391044137048183, 38.210994099689579 ], [ -121.390788395669944, 38.210904990076429 ], [ -121.390323927142163, 38.21076342848238 ], [ -121.389930386894306, 38.210676927385236 ], [ -121.389142859935859, 38.210521918291384 ], [ -121.388193768278612, 38.210409787632017 ], [ -121.387802723550578, 38.210467492663021 ], [ -121.387457986077166, 38.210561891001561 ], [ -121.386962857150451, 38.210613635056738 ], [ -121.386613834713117, 38.210451138214999 ], [ -121.385963175071367, 38.210207913894038 ], [ -121.385524782839653, 38.210210894691208 ], [ -121.385087582672341, 38.210290466332076 ], [ -121.384835641167783, 38.210417685346023 ], [ -121.384469966659992, 38.210588377824386 ], [ -121.384056311336295, 38.210699839068951 ], [ -121.383434559480378, 38.210763355780543 ], [ -121.382994230480918, 38.21069421420188 ], [ -121.382553043590363, 38.210534920665189 ], [ -121.38204219414618, 38.210361172450753 ], [ -121.381786491395516, 38.210272026064473 ], [ -121.381185452893419, 38.21020519496642 ], [ -121.380700941155041, 38.210230042234031 ], [ -121.380517656989312, 38.210286071019688 ], [ -121.38052048847905, 38.210448344476795 ], [ -121.380639548491885, 38.210648243302288 ], [ -121.380876849253966, 38.210989443258683 ], [ -121.380880835977194, 38.211228308533627 ], [ -121.380839857528883, 38.211498094990027 ], [ -121.380775336033579, 38.211736028307079 ], [ -121.380570928882292, 38.211940473385646 ], [ -121.380182716542336, 38.212160413668833 ], [ -121.379792827047794, 38.212294710987244 ], [ -121.379632378954895, 38.212351074157354 ], [ -121.37940085256345, 38.212298324120866 ], [ -121.379007648285508, 38.212162202240386 ], [ -121.378556701199386, 38.211863097981144 ], [ -121.37815470510975, 38.211546634593283 ], [ -121.377677532607251, 38.211175074889532 ], [ -121.377225953107171, 38.210839910048144 ], [ -121.377011562978097, 38.21062514737698 ], [ -121.37673708274302, 38.210481686513937 ], [ -121.376102106787826, 38.210306188376975 ], [ -121.375830309820515, 38.210297917963437 ], [ -121.375469776371105, 38.21023432743749 ], [ -121.375084729694265, 38.210152408082152 ], [ -121.374524855591758, 38.210000490907191 ], [ -121.373977759125836, 38.209853229919084 ], [ -121.373217651444833, 38.209558820691548 ], [ -121.372769163945947, 38.209408393751488 ], [ -121.372798071731808, 38.209841383608811 ], [ -121.372882636437694, 38.213095759992008 ], [ -121.372950995535874, 38.21637248857013 ], [ -121.37306789599873, 38.219586780900862 ], [ -121.373150187068646, 38.222719489692068 ], [ -121.373216462075391, 38.225897051025896 ], [ -121.373277183697013, 38.227402850472856 ], [ -121.37338778786804, 38.230738699019554 ], [ -121.37399579190685, 38.230819240354435 ], [ -121.375194479567483, 38.230989038905065 ], [ -121.375749958213277, 38.231055311800986 ], [ -121.376231563003401, 38.231070994782741 ], [ -121.378032481230505, 38.231131940687739 ], [ -121.379201067244281, 38.231274246626185 ], [ -121.379863162439577, 38.231427579361416 ], [ -121.380961975406905, 38.231915853358132 ], [ -121.381574748601579, 38.232167608929906 ], [ -121.382110109476599, 38.232337220867755 ], [ -121.382455593450047, 38.232504188407049 ], [ -121.382586425884639, 38.232722266469764 ], [ -121.382568059828685, 38.233100533199362 ], [ -121.38240120405284, 38.233702018485502 ], [ -121.381786344970124, 38.234702817665962 ], [ -121.381419962589902, 38.235445752039155 ], [ -121.381275980616167, 38.235885336720571 ], [ -121.381311631156549, 38.237111441852647 ], [ -121.381352088581991, 38.237927541401952 ], [ -121.381339683746234, 38.23864831043759 ], [ -121.381681330116777, 38.239279337762405 ], [ -121.382067382008415, 38.239613570782296 ], [ -121.38250227170883, 38.239808812504116 ], [ -121.383267484515628, 38.240080721842354 ], [ -121.384135476268995, 38.240390069768829 ], [ -121.385006189019407, 38.24089767846916 ], [ -121.386616110145724, 38.242244557043875 ], [ -121.387619518436622, 38.243051379822241 ], [ -121.388830871444412, 38.244113386082411 ], [ -121.390064613164071, 38.245035991391781 ], [ -121.391137236647594, 38.245460748320589 ], [ -121.392411882255388, 38.245825156206024 ], [ -121.393430897876016, 38.246091439960622 ], [ -121.394480722117649, 38.246678061664333 ], [ -121.394817973031493, 38.247092686622146 ], [ -121.395290563227746, 38.247946262230762 ], [ -121.395550923743173, 38.248319312466656 ], [ -121.395960371358086, 38.248536683476217 ], [ -121.396400402116853, 38.248988785213577 ], [ -121.396903316742154, 38.249536364886758 ], [ -121.397451083351271, 38.250449508194954 ], [ -121.397523875635386, 38.25071184280074 ], [ -121.397733646627245, 38.251048125506031 ], [ -121.397939878256921, 38.25118614706426 ], [ -121.398394401536194, 38.251304983662813 ], [ -121.399161737061988, 38.251261398155663 ], [ -121.400334979942187, 38.251142225691105 ], [ -121.400904018657229, 38.251348234760911 ], [ -121.401227969114984, 38.251753658058327 ], [ -121.401235717982615, 38.252181805585558 ], [ -121.401359770831789, 38.252746745957346 ], [ -121.40179529474274, 38.253081611909423 ], [ -121.402613964495472, 38.253336086991538 ], [ -121.403790448497219, 38.253397144033002 ], [ -121.404328566301871, 38.253156638827242 ], [ -121.404814009593196, 38.252514398398525 ], [ -121.404991593948452, 38.252332083415169 ], [ -121.406562959382796, 38.252952716618061 ], [ -121.406929378593915, 38.253214492657399 ], [ -121.406753843295817, 38.253500483697742 ], [ -121.406423297407244, 38.253951094330198 ], [ -121.405682970628774, 38.254260963792781 ], [ -121.404891048213656, 38.254218644878797 ], [ -121.404095289093931, 38.253959998189458 ], [ -121.403210011059528, 38.253776751438515 ], [ -121.402558121624153, 38.253961637594266 ], [ -121.402113397168037, 38.254374623226042 ], [ -121.401713672917722, 38.254752181229669 ], [ -121.401504051046189, 38.255028672765754 ], [ -121.401445004782559, 38.255473956548691 ], [ -121.401272003631888, 38.255904152521019 ], [ -121.401026618032247, 38.256085537991666 ], [ -121.400737162881384, 38.25632041780802 ], [ -121.400427293515691, 38.256640605601653 ], [ -121.400369737557128, 38.257212065814876 ], [ -121.400262337676736, 38.257517017505982 ], [ -121.399883885532347, 38.257804721926234 ], [ -121.399459388441471, 38.258073799549727 ], [ -121.399151530403728, 38.258560732132736 ], [ -121.398986761414292, 38.259396576163873 ], [ -121.398913521769188, 38.259706483066466 ], [ -121.39880705254339, 38.260065489085882 ], [ -121.398674246510112, 38.260225863400862 ], [ -121.398595940366789, 38.260864638675827 ], [ -121.398431357328633, 38.261723019595415 ], [ -121.397636417472484, 38.262725980004667 ], [ -121.396949064346316, 38.263446525719154 ], [ -121.396367806746795, 38.263826095435682 ], [ -121.396144252903483, 38.263953687038963 ], [ -121.395845559478261, 38.264283040023969 ], [ -121.395670880274622, 38.264623084876703 ], [ -121.395272050746371, 38.26505469655671 ], [ -121.394648734923535, 38.265559845681253 ], [ -121.39368656738904, 38.266105415203356 ], [ -121.393104080894162, 38.266376802280107 ], [ -121.392817419503857, 38.266773881260455 ], [ -121.39251414377236, 38.267504187565478 ], [ -121.392432224604974, 38.268561908788868 ], [ -121.3924179189341, 38.270215379168832 ], [ -121.392356117537489, 38.272954064175956 ], [ -121.392582726551069, 38.272948178248157 ], [ -121.394605969726129, 38.272953356115643 ], [ -121.395849732152755, 38.272956857628934 ], [ -121.401119565816373, 38.273055837899243 ], [ -121.401168964173877, 38.275070587064896 ], [ -121.401167660718372, 38.279202455681443 ], [ -121.401265412692638, 38.28318240736413 ], [ -121.401626766303878, 38.283160316734907 ], [ -121.406813861536591, 38.283023597675353 ], [ -121.407785975217934, 38.283009776899831 ], [ -121.413293072812721, 38.283043863440454 ], [ -121.415577644887094, 38.283070237837364 ], [ -121.419944430941655, 38.283196710422473 ], [ -121.419917720435009, 38.285944931834827 ], [ -121.419867616001724, 38.286903971066238 ], [ -121.419891197676264, 38.290495449929431 ], [ -121.42187036950348, 38.290513106969151 ], [ -121.424674210032904, 38.29046516227595 ], [ -121.42798714829172, 38.290469074000022 ], [ -121.430633036248082, 38.290454954282602 ], [ -121.43421758552293, 38.290457785841014 ], [ -121.435551872977399, 38.290421538923219 ], [ -121.440707042983178, 38.290364019316364 ], [ -121.440847374203628, 38.291185930544863 ], [ -121.441388770859049, 38.295207829061049 ], [ -121.441890308367007, 38.299526595635292 ], [ -121.442463742538735, 38.30402652313979 ], [ -121.44296676855511, 38.308381350238427 ], [ -121.443355056353539, 38.31265351288954 ], [ -121.443885314797754, 38.317242996708096 ], [ -121.444967549356519, 38.326381656017013 ], [ -121.445284163273342, 38.330436560971826 ], [ -121.445464355437878, 38.331574413433827 ], [ -121.445858938629783, 38.335026603118429 ], [ -121.445922975933129, 38.335577163522387 ], [ -121.461686395146572, 38.33539752896143 ], [ -121.463264727015925, 38.335391196428816 ], [ -121.46782291890473, 38.335342729670593 ], [ -121.475205848831422, 38.335218192720014 ], [ -121.481745410724955, 38.335176877888202 ], [ -121.481723506205071, 38.338794769418392 ], [ -121.481906679878023, 38.341771015351874 ], [ -121.481875462523575, 38.346452141256954 ], [ -121.481816789060787, 38.350871602284812 ], [ -121.48179600294344, 38.354949118760302 ], [ -121.481724626404215, 38.358742098291771 ], [ -121.481858066648101, 38.362627836679621 ], [ -121.481979437127819, 38.367022562749703 ], [ -121.482038483391449, 38.3688526868861 ], [ -121.482084529236275, 38.37455763357719 ], [ -121.482087322098494, 38.374629754530595 ], [ -121.482117758816969, 38.375603396563164 ], [ -121.482131132934896, 38.380271596291522 ], [ -121.482189881856186, 38.384922360700742 ], [ -121.482202548101682, 38.389554461603865 ], [ -121.48223603819379, 38.394078715586268 ], [ -121.482277985924284, 38.397891177645057 ], [ -121.482257311198026, 38.400283484604813 ], [ -121.48234165222344, 38.409665591874976 ], [ -121.482353127302858, 38.414248146295968 ], [ -121.482363707660298, 38.418772064763985 ], [ -121.482329100063964, 38.423299932462946 ], [ -121.482380584309539, 38.427612625601157 ], [ -121.48247516972242, 38.43178167380907 ], [ -121.48241556560501, 38.436201060362713 ], [ -121.482398689854051, 38.440494830632602 ], [ -121.48244983992636, 38.444789457146392 ], [ -121.482348809999593, 38.449406544419197 ], [ -121.482425998638718, 38.453859235941437 ], [ -121.482490446472141, 38.455946256242626 ], [ -121.482481543269358, 38.458352197292861 ], [ -121.482479048647804, 38.46223160265864 ], [ -121.482456174845723, 38.463357758331597 ], [ -121.482447047962467, 38.46690363874329 ], [ -121.482453009182677, 38.471197706999 ], [ -121.482437064984708, 38.475545531211779 ], [ -121.482463925510032, 38.479731714149324 ], [ -121.482434905434758, 38.483439533169403 ], [ -121.482457593285574, 38.485706224275248 ], [ -121.482557877610617, 38.487892783112216 ], [ -121.482574381459031, 38.489839470675065 ], [ -121.482559107404242, 38.492515683039116 ], [ -121.482627616521086, 38.494782931659444 ], [ -121.482606047072792, 38.495981170729365 ], [ -121.484622062403105, 38.495980239867222 ], [ -121.489132459427211, 38.495925887761061 ], [ -121.491251105482092, 38.495917170412582 ], [ -121.493142435549231, 38.495914488205393 ], [ -121.499315615062599, 38.495854100199701 ], [ -121.501070115542305, 38.495849517593612 ], [ -121.502272974979107, 38.495869410938894 ], [ -121.50665853672146, 38.495821801187347 ], [ -121.509020855288753, 38.495811333885705 ], [ -121.513033924310307, 38.495754224913512 ], [ -121.516206755029216, 38.495817032265769 ], [ -121.520691781833065, 38.495846722892821 ], [ -121.521007761539295, 38.496305789894102 ], [ -121.521832317952075, 38.498109501465777 ], [ -121.522501603262924, 38.499798585188756 ], [ -121.522614181032651, 38.499935154423127 ], [ -121.522496685885088, 38.499933701261156 ], [ -121.52276770131806, 38.500806723647536 ], [ -121.519353174380413, 38.503890556942913 ], [ -121.5231067785069, 38.510696550985344 ], [ -121.526900018998646, 38.517561516044701 ], [ -121.525443952331059, 38.518128915151316 ], [ -121.524306881912423, 38.518939165281921 ], [ -121.523437846316639, 38.52000053831884 ], [ -121.523136805593595, 38.520663603259536 ], [ -121.522980864348483, 38.521594329440475 ], [ -121.523170668486529, 38.522304108922924 ], [ -121.523713815958473, 38.523230141662133 ], [ -121.524675686150616, 38.524120859074991 ], [ -121.526095170724901, 38.525143525817924 ], [ -121.527196852012949, 38.526035993353155 ], [ -121.528525551048006, 38.52690879134537 ], [ -121.52927496787882, 38.52763913455766 ], [ -121.529707883980578, 38.528315907993786 ], [ -121.529786263785724, 38.528726919300716 ], [ -121.529803288656993, 38.52954719137265 ], [ -121.529429753890497, 38.530074170245506 ], [ -121.528637906035527, 38.530686012517201 ], [ -121.527564836089311, 38.531163632122848 ], [ -121.524475378011928, 38.532242141868501 ], [ -121.52159598916711, 38.533318750796312 ], [ -121.518073838668542, 38.534580841688282 ], [ -121.517277669018725, 38.534976282197583 ], [ -121.516866955677571, 38.53542163985464 ], [ -121.515908737137053, 38.536445834515845 ], [ -121.51418929161467, 38.537834287525975 ], [ -121.512679170621439, 38.539225423139186 ], [ -121.511332403771078, 38.540897929197733 ], [ -121.510454054442462, 38.542387151803972 ], [ -121.509817365400025, 38.543735259865947 ], [ -121.509624916621746, 38.54461591875846 ], [ -121.509818818874152, 38.545542062717793 ], [ -121.510079142558652, 38.546306828524578 ], [ -121.510660548380187, 38.548229153090695 ], [ -121.511432056580503, 38.550081813740334 ], [ -121.512463627055553, 38.552645148882981 ], [ -121.512723205138371, 38.553378360489617 ], [ -121.513754366879937, 38.556802274923889 ], [ -121.514345570626318, 38.558328191990363 ], [ -121.515175714560158, 38.559604811062087 ], [ -121.515927478688823, 38.560474964500898 ], [ -121.518043554663691, 38.56218688442965 ], [ -121.518937327167393, 38.563130873023731 ], [ -121.519660741364035, 38.564302514544252 ], [ -121.519891300269904, 38.565337213750873 ], [ -121.51965943790853, 38.56597408965893 ], [ -121.518773004640693, 38.567080277711412 ], [ -121.517842464092382, 38.567748854971171 ], [ -121.516826838713612, 38.568542528967555 ], [ -121.515491284634635, 38.569926846307588 ], [ -121.51397863039233, 38.571232337354679 ], [ -121.512362898064424, 38.572595048681009 ], [ -121.509928196844825, 38.574979086248142 ], [ -121.509020195026991, 38.575936262191689 ], [ -121.508101203219979, 38.577181626949113 ], [ -121.507164776909917, 38.579300871103001 ], [ -121.5063329935507, 38.581389901626849 ], [ -121.506033592253004, 38.582161037258231 ], [ -121.505189889148298, 38.584542801713731 ], [ -121.504626141510272, 38.586054003111592 ], [ -121.504592874200355, 38.586134654996052 ], [ -121.506986447851318, 38.586872635403758 ], [ -121.508848422771621, 38.58726133180371 ], [ -121.51018282161715, 38.587517111028468 ], [ -121.512496973417228, 38.587762830736573 ], [ -121.515055055546128, 38.587975544139361 ], [ -121.516211274453397, 38.588071321384291 ], [ -121.520888563185949, 38.588382867232667 ], [ -121.523689347646766, 38.588485796883326 ], [ -121.526211109990427, 38.588616740593757 ], [ -121.531729607206174, 38.58902853420755 ], [ -121.53463615302033, 38.589155082122396 ], [ -121.536280049329022, 38.589162122658792 ], [ -121.538043938101794, 38.589017469583744 ], [ -121.540348365638877, 38.588793913683702 ], [ -121.543100796482889, 38.588237988596475 ], [ -121.545818135538653, 38.587713095212138 ], [ -121.550049469123152, 38.586796859590443 ], [ -121.554017276529123, 38.585814165423685 ], [ -121.555723198813226, 38.585407177452034 ], [ -121.563366936616347, 38.583735042579008 ], [ -121.565908739475674, 38.58318049539848 ], [ -121.569270554170799, 38.582523242534656 ], [ -121.571599643157398, 38.581835292022973 ], [ -121.575011152654014, 38.581052347587409 ], [ -121.579414819042597, 38.58002003269489 ], [ -121.583416302491955, 38.579036704353783 ], [ -121.587367681508027, 38.578151798462926 ], [ -121.591754323025327, 38.577163850963927 ], [ -121.593459127805232, 38.576756304116039 ], [ -121.596329911687917, 38.576047344261525 ], [ -121.60102955230137, 38.574999716906035 ], [ -121.603395483892697, 38.574419689488316 ], [ -121.6060929297565, 38.573798534456408 ], [ -121.607106954337439, 38.573598820959106 ], [ -121.609181530841099, 38.573204461600234 ], [ -121.610465228771972, 38.572859277044991 ], [ -121.612862118104673, 38.572301972853609 ], [ -121.616350406608603, 38.571509677621115 ], [ -121.619867452879745, 38.57074919658465 ], [ -121.623203450891907, 38.569959435147652 ], [ -121.626069317396727, 38.569254162290328 ], [ -121.626213113419212, 38.569237845939263 ], [ -121.628045584072353, 38.568772705113076 ], [ -121.633575032649716, 38.567499214292184 ], [ -121.637769078065062, 38.566538797543735 ], [ -121.639664094818173, 38.566096754683393 ], [ -121.63991164086606, 38.566018523190223 ], [ -121.639545594455768, 38.565000475616351 ], [ -121.639397290687228, 38.563926399692647 ], [ -121.639320549409121, 38.561870896612405 ], [ -121.63909893053696, 38.560309328672119 ], [ -121.638860847342244, 38.55943243323577 ], [ -121.638123053812876, 38.558540747404642 ], [ -121.637198809556381, 38.55742155799107 ], [ -121.635517733774719, 38.555473529322541 ], [ -121.633879276765086, 38.553665646176995 ], [ -121.632856943666113, 38.552581325389752 ], [ -121.632414342827303, 38.552017428139493 ], [ -121.632199057976194, 38.55130302899763 ], [ -121.632146679906924, 38.549829043692974 ], [ -121.632158340039339, 38.548531525645622 ], [ -121.632164634534519, 38.544755756449355 ], [ -121.632256499848722, 38.541192777234812 ], [ -121.632312528671335, 38.537818632271772 ], [ -121.632302059704969, 38.534168854047529 ], [ -121.632410614818852, 38.530479884862011 ], [ -121.63238051407032, 38.526843404546788 ], [ -121.632452187951912, 38.52328467205497 ], [ -121.632537087729418, 38.522132178626613 ], [ -121.632802364724384, 38.521486473495223 ], [ -121.633052407190462, 38.521079336965201 ], [ -121.633345251684887, 38.520758366083726 ], [ -121.633697478412827, 38.520442572920238 ], [ -121.634271730949763, 38.520214957776822 ], [ -121.634747115804871, 38.520022248846033 ], [ -121.635324834042194, 38.519952399119703 ], [ -121.636080992729234, 38.519848538440279 ], [ -121.636698087718713, 38.519743074441735 ], [ -121.637835642329279, 38.519715768549986 ], [ -121.638093953787561, 38.519664732066801 ], [ -121.638542143944065, 38.519620364068359 ], [ -121.639578855477481, 38.519542318860388 ], [ -121.640595338747346, 38.519432460262863 ], [ -121.641732035466816, 38.519373563722439 ], [ -121.642787075326979, 38.519232598531921 ], [ -121.643822334284579, 38.519077886870591 ], [ -121.644251189102917, 38.519033295006317 ], [ -121.645005970672628, 38.518848259383944 ], [ -121.646490089031616, 38.518266146149777 ], [ -121.647757805035312, 38.517794188890448 ], [ -121.64900495860212, 38.517308447563913 ], [ -121.65065772128267, 38.516638119221113 ], [ -121.652242198526892, 38.516052577075698 ], [ -121.653745762716824, 38.515421066156676 ], [ -121.654241264444408, 38.515260058340047 ], [ -121.654750101662373, 38.515229846446822 ], [ -121.657180741598566, 38.514973881624243 ], [ -121.658298105674817, 38.51494612829557 ], [ -121.658937886718476, 38.514966989859083 ], [ -121.659278751554751, 38.515024955874487 ], [ -121.659297303561999, 38.512285637580661 ], [ -121.659365847713076, 38.509555930334521 ], [ -121.659366481923698, 38.507357114935225 ], [ -121.65937259046764, 38.507298590924641 ], [ -121.659449703648249, 38.50507362325645 ], [ -121.659513070808373, 38.502235697364746 ], [ -121.659545331106855, 38.4997218338656 ], [ -121.659543357508198, 38.499595658567657 ], [ -121.658861256831486, 38.499506736110163 ], [ -121.658799229957765, 38.492224649586731 ], [ -121.658792560865066, 38.490805239374637 ], [ -121.658828844717732, 38.487340719176835 ], [ -121.660843370641302, 38.487332225798433 ], [ -121.669258950817976, 38.487491219651616 ], [ -121.674850799069915, 38.487554624150235 ], [ -121.67736883520179, 38.487520015786259 ], [ -121.676941990813091, 38.485352417919927 ], [ -121.67644570755121, 38.482318914496403 ], [ -121.675807936937161, 38.478053679808603 ], [ -121.675662576049447, 38.477186917031666 ], [ -121.675256146773904, 38.474221994976446 ], [ -121.675177095927211, 38.472982032057182 ], [ -121.675085416564258, 38.469457423029453 ], [ -121.675054458822942, 38.468096313741476 ], [ -121.675087054193042, 38.466744927240271 ], [ -121.681756182794928, 38.466612902777037 ], [ -121.682411163333214, 38.466602248360559 ], [ -121.684486895070336, 38.466544468450849 ], [ -121.684457613585337, 38.461925667073899 ], [ -121.684462866034806, 38.459388967465607 ], [ -121.689598403360051, 38.459374438219527 ], [ -121.691613561697594, 38.459405953771963 ], [ -121.693740292590036, 38.459407183358678 ], [ -121.698499650508595, 38.459437618436709 ], [ -121.700803779805014, 38.459454196745448 ], [ -121.705662304544447, 38.459467420420005 ], [ -121.711819464401344, 38.459526280127413 ], [ -121.712323907060949, 38.459558838790478 ], [ -121.712324054384624, 38.454111271619155 ], [ -121.712269367645092, 38.450095967744595 ], [ -121.712242357999443, 38.446175582786019 ], [ -121.712265865113778, 38.445013329836613 ], [ -121.716029451319727, 38.445050135434663 ], [ -121.719350511247001, 38.445000849292043 ], [ -121.721376920085135, 38.444982446131 ], [ -121.721317240509251, 38.440246149359048 ], [ -121.721318767645215, 38.436506293018098 ], [ -121.721311279289012, 38.435104876181761 ], [ -121.721328787453885, 38.430946147530058 ], [ -121.721294887730025, 38.430594331395412 ], [ -121.716614767507693, 38.430601744935252 ], [ -121.714097998000383, 38.430596678957791 ], [ -121.712172619088989, 38.430593549578333 ], [ -121.712161144009542, 38.425718074840489 ], [ -121.712219520129977, 38.423357619620056 ], [ -121.707336445332118, 38.423290340687764 ], [ -121.703725446062066, 38.423272981323791 ], [ -121.702918697851473, 38.423223509999112 ], [ -121.702936428798552, 38.419591947479098 ], [ -121.702992681301637, 38.416005907466719 ], [ -121.707598034742887, 38.416043272630894 ], [ -121.709937815477971, 38.416028519984891 ], [ -121.713472929564432, 38.416026806115745 ], [ -121.716869650994852, 38.416037013314458 ], [ -121.721107839623244, 38.415988732871924 ], [ -121.721235318646904, 38.416066741015726 ], [ -121.721300325232434, 38.419933481064731 ], [ -121.721328190972557, 38.421154891551225 ], [ -121.721354230437697, 38.422804301552084 ], [ -121.72141491612669, 38.423260053640995 ], [ -121.727024831295651, 38.423199480213185 ], [ -121.730436080280839, 38.423259046535755 ], [ -121.730498589549867, 38.418379846801926 ], [ -121.730480000711708, 38.415964481078653 ], [ -121.730424046449315, 38.413557719677151 ], [ -121.730452433212278, 38.408826861037596 ], [ -121.730451686712271, 38.403919945053474 ], [ -121.730425087596714, 38.399017239626403 ], [ -121.730407353954689, 38.394466089170812 ], [ -121.730486404801383, 38.389740222709491 ], [ -121.730488528418704, 38.387122312075583 ], [ -121.734538477774265, 38.387143583815721 ], [ -121.737657962040018, 38.387177222866654 ], [ -121.739883524681687, 38.387174130333477 ], [ -121.739869668168438, 38.391972789178098 ], [ -121.739840648093164, 38.394468733611497 ], [ -121.744493424496554, 38.39446012791403 ], [ -121.747084103792218, 38.39446530555459 ], [ -121.749008514319712, 38.394467838754196 ], [ -121.749043643837226, 38.39807745943132 ], [ -121.749053962784899, 38.399596036278808 ], [ -121.749008143315521, 38.401384399399518 ], [ -121.749038765086922, 38.401641556049171 ], [ -121.751057611008662, 38.401658581288729 ], [ -121.753453160054917, 38.401620993265929 ], [ -121.758939805705651, 38.401679255995283 ], [ -121.763328496280096, 38.401698589600251 ], [ -121.767538112194288, 38.401639320183826 ], [ -121.767605427450093, 38.395525484776272 ], [ -121.767583746610725, 38.394610553922014 ], [ -121.769493405004638, 38.394554040005268 ], [ -121.77390031161643, 38.394613720063134 ], [ -121.776235622334681, 38.394611111534587 ], [ -121.77687205086572, 38.394599711454276 ], [ -121.776914555551727, 38.387489808848272 ], [ -121.776930871652183, 38.381506134824598 ], [ -121.776935862691943, 38.375049163549654 ], [ -121.776895219315222, 38.374827955791524 ], [ -121.776907737338689, 38.374679391519486 ], [ -121.776867987785693, 38.373002749243931 ], [ -121.781136388553733, 38.37296612948164 ], [ -121.785948160474192, 38.372952979406875 ], [ -121.787433098995052, 38.373017910694813 ], [ -121.792337445000499, 38.37307304417704 ], [ -121.7954498505418, 38.373109551906978 ], [ -121.795420830466554, 38.374902646981283 ], [ -121.79538562638885, 38.374956328277293 ], [ -121.795426753957514, 38.376660014945564 ], [ -121.795428914405804, 38.376745659250204 ], [ -121.803172192728894, 38.376743870505422 ], [ -121.808707750748511, 38.376719134414138 ], [ -121.815673337767223, 38.376713136482898 ], [ -121.818277949034623, 38.376703338522788 ], [ -121.823034921926123, 38.3766430633979 ], [ -121.82297192756684, 38.379999362799659 ], [ -121.822924691454233, 38.383973131266181 ], [ -121.82294093389288, 38.386857101324267 ], [ -121.822888929522776, 38.387681173745612 ], [ -121.829365905790482, 38.387642392710703 ], [ -121.833382738753102, 38.387637400470368 ], [ -121.840568749884653, 38.387740255338258 ], [ -121.841291194799069, 38.387670778061647 ], [ -121.841414203805897, 38.381665572442181 ], [ -121.841357392550677, 38.377916067732436 ], [ -121.841357540772719, 38.374991677274522 ], [ -121.841345285057272, 38.374504930895739 ], [ -121.841347110433929, 38.371787853014695 ], [ -121.841307957362275, 38.369038812459884 ], [ -121.841175596893365, 38.364283702188487 ], [ -121.841143409358423, 38.3600658168425 ], [ -121.841035563015325, 38.359204119154477 ], [ -121.840274299202505, 38.358854128252979 ], [ -121.839578079704481, 38.358775151804473 ], [ -121.838507692127678, 38.35879158064288 ], [ -121.837662386428477, 38.358553385718828 ], [ -121.837298425007987, 38.35845514971971 ], [ -121.83633685305648, 38.358197807103416 ], [ -121.836185270437127, 38.357925935048122 ], [ -121.836207473197703, 38.357655776520495 ], [ -121.836400071096278, 38.357243164379327 ], [ -121.836679542371087, 38.35685390787912 ], [ -121.83659616972956, 38.355807697844057 ], [ -121.83627698663102, 38.354610463658034 ], [ -121.835912691037208, 38.353908395655601 ], [ -121.835657508411089, 38.353540895966127 ], [ -121.835089327587127, 38.352796247594455 ], [ -121.834964939666364, 38.35243455904309 ], [ -121.835010499522639, 38.351957386888138 ], [ -121.835136638259897, 38.351183606122731 ], [ -121.835033111914967, 38.350502176618228 ], [ -121.834612563818098, 38.349876178582299 ], [ -121.834021099560289, 38.349383620275731 ], [ -121.833052635733964, 38.348806238026029 ], [ -121.832727230903743, 38.348537159997726 ], [ -121.832576655295824, 38.348292333630283 ], [ -121.832561120729636, 38.347656836562557 ], [ -121.832663975134707, 38.347130676664221 ], [ -121.832731068506646, 38.346915057081091 ], [ -121.832808814999538, 38.346573372997696 ], [ -121.832796819795561, 38.346073066367026 ], [ -121.832775659979021, 38.345207718918218 ], [ -121.832617707405987, 38.344665427641168 ], [ -121.8320817491513, 38.344060813629007 ], [ -121.831462345491531, 38.343572502272679 ], [ -121.830837763942469, 38.342876841618533 ], [ -121.830536387249495, 38.342405220457771 ], [ -121.830495072831241, 38.341904653233186 ], [ -121.830689086474734, 38.341537078537442 ], [ -121.830851993256573, 38.341101629398302 ], [ -121.831003836387353, 38.340819251987782 ], [ -121.831283345391384, 38.340425526100795 ], [ -121.831306665656157, 38.340177943452844 ], [ -121.83115262434788, 38.339793381498296 ], [ -121.830294541012066, 38.339032342354663 ], [ -121.82932305884637, 38.338342231950435 ], [ -121.827833315237072, 38.337773119760378 ], [ -121.826702727061502, 38.337680694676649 ], [ -121.824446727701371, 38.337712173839691 ], [ -121.822537553499401, 38.337742572822435 ], [ -121.822031360921628, 38.337737505973898 ], [ -121.820664924559793, 38.337462430737219 ], [ -121.818732652875241, 38.336537254622556 ], [ -121.817176338713509, 38.335584326093695 ], [ -121.816640902379973, 38.335002174789459 ], [ -121.816064636718465, 38.333896881528489 ], [ -121.815785389124201, 38.333128055319079 ], [ -121.815541717510115, 38.332634454381164 ], [ -121.81498087502375, 38.332164658565574 ], [ -121.814569043280045, 38.331899156911852 ], [ -121.814197594401634, 38.331480843809302 ], [ -121.813871222984176, 38.331148622572499 ], [ -121.813509348350053, 38.330536631911244 ], [ -121.813400457266269, 38.329629821751979 ], [ -121.813609818626375, 38.328717237230435 ], [ -121.813811803919734, 38.327511696313771 ], [ -121.813767100157918, 38.326875900666359 ], [ -121.813633734474195, 38.326153566630524 ], [ -121.813192808993406, 38.325261434033742 ], [ -121.811985740051171, 38.323212524937276 ], [ -121.810898475825141, 38.321317989982326 ], [ -121.810263723550463, 38.320216608157892 ], [ -121.808282129865233, 38.316618722820735 ], [ -121.807562365523594, 38.315561523489592 ], [ -121.806706144395378, 38.314849880378596 ], [ -121.805969990291388, 38.314315189816718 ], [ -121.802745154304091, 38.31192116908548 ], [ -121.800339696840211, 38.310526755733456 ], [ -121.798199554100592, 38.309306238686517 ], [ -121.796431382160577, 38.308549148221736 ], [ -121.795497116298804, 38.308201615848539 ], [ -121.794374350652717, 38.307194223064549 ], [ -121.792796205632925, 38.305330534376118 ], [ -121.789718668199384, 38.301820193886307 ], [ -121.788410271089745, 38.300297182532475 ], [ -121.787992889554232, 38.299779181502799 ], [ -121.795310329601762, 38.299832042905457 ], [ -121.796031806132305, 38.299771879332532 ], [ -121.796114433172136, 38.295419920167014 ], [ -121.796076062533103, 38.293806385270905 ], [ -121.795974957147877, 38.292615745330792 ], [ -121.78995950742538, 38.292571898360244 ], [ -121.787904785486106, 38.29248759562828 ], [ -121.786618554306116, 38.292519335544327 ], [ -121.786531194941361, 38.28767899028329 ], [ -121.786629878468602, 38.28514314816416 ] ] ] } }
]
}
