{
"type": "FeatureCollection",
"name": "James_GSA",
"crs": { "type": "name", "properties": { "name": "urn:ogc:def:crs:OGC:1.3:CRS84" } },
"features": [
{ "type": "Feature", "properties": { "OBJECTID": 84, "GSA_ID": 12, "GSA_Name": "James GSA", "Loc_GSA_ID": "", "Basin_Name": "SAN JOAQUIN VALLEY", "Posted_DT": "02/09/2016", "GSA_URL": "https://jamesgsa.org/", "POC_Name": "Manny Amorelli", "POC_Phone": "559-693-4356", "POC_Email": "mamorelli@jamesid.org", "Date_90_Days": "2016-05-09T00:00:00Z", "Exclusive": "Yes", "Overlap": "No", "GSP_ID": 31, "COMMENTS": null, "Basin_Number": "5-022", "Basin_Subbasin_Number": "5-022.08", "Basin_Subbasin_Name": "SAN JOAQUIN VALLEY - KINGS", "UPDATED_DT": "2022-04-01T11:48:00Z", "MODIFIED_BY": "Mark Nordberg", "ShapeSTArea": 182771430.03129128, "ShapeSTLength": 68348.379696516757 }, "geometry": { "type": "Polygon", "coordinates": [ [ [ -120.207139983688862, 36.559624036799434 ], [ -120.192564222620973, 36.559878960803715 ], [ -120.183521781869359, 36.560159484037314 ], [ -120.182017504417075, 36.561268961394546 ], [ -120.179567158138468, 36.56235460711833 ], [ -120.177606529335335, 36.563203188900964 ], [ -120.17597171409588, 36.563849516405412 ], [ -120.174867782528068, 36.564258413538418 ], [ -120.173720712063655, 36.564535051387509 ], [ -120.172935079652163, 36.564244261699216 ], [ -120.172153978342934, 36.564251937921462 ], [ -120.170918651995123, 36.564131394663818 ], [ -120.169763544303905, 36.563877377212194 ], [ -120.169386527667342, 36.563416714430247 ], [ -120.168062483702116, 36.562865820161278 ], [ -120.167229770586559, 36.562177433284248 ], [ -120.165105195650796, 36.560340765253983 ], [ -120.124254713245648, 36.560405808247943 ], [ -120.113755044304739, 36.560466314064506 ], [ -120.102529976788787, 36.563290355089713 ], [ -120.094908789394239, 36.565151608401102 ], [ -120.094295636212223, 36.565311975839059 ], [ -120.094024654016863, 36.56445187802634 ], [ -120.093809739271677, 36.563624928238056 ], [ -120.092800356285821, 36.564248323841525 ], [ -120.090758432644421, 36.566014579375398 ], [ -120.091679299235452, 36.56774188847394 ], [ -120.092272045389123, 36.569119980385423 ], [ -120.09356701268527, 36.571091368896333 ], [ -120.094801758721374, 36.572673344062302 ], [ -120.09636038335006, 36.574516047177084 ], [ -120.102816051579211, 36.581091599346841 ], [ -120.110092052342651, 36.588426718068668 ], [ -120.117802728109154, 36.596492714426468 ], [ -120.125713214347684, 36.604177884052021 ], [ -120.139944241535403, 36.618412338853148 ], [ -120.153028032070395, 36.631330256028455 ], [ -120.167232411633492, 36.645699436660337 ], [ -120.169327592794829, 36.647859422079634 ], [ -120.173425001943485, 36.65129376364446 ], [ -120.189431915802871, 36.662586347379317 ], [ -120.201062659806254, 36.670262961198155 ], [ -120.210734295854209, 36.676698130705098 ], [ -120.221519223915294, 36.683938577226542 ], [ -120.224592054176739, 36.686805364057342 ], [ -120.229052042238706, 36.688336527479585 ], [ -120.22983815435056, 36.688592546826712 ], [ -120.232788218150361, 36.689537910800865 ], [ -120.236709677877585, 36.689494733289507 ], [ -120.240154781670881, 36.689510395765268 ], [ -120.242504640605134, 36.689279961187793 ], [ -120.247885339849574, 36.68818728313687 ], [ -120.251661567148162, 36.687379295842341 ], [ -120.253109415129231, 36.687034430866071 ], [ -120.257650625265924, 36.686048667583108 ], [ -120.260893553323072, 36.685403374741256 ], [ -120.260893560509572, 36.685403373300517 ], [ -120.260893560509572, 36.685403364655869 ], [ -120.260778056926995, 36.682467086566987 ], [ -120.260805209404751, 36.680306963397456 ], [ -120.260739073636913, 36.676491580867655 ], [ -120.260525632128761, 36.674741702407388 ], [ -120.259664145076357, 36.673929433201579 ], [ -120.259521356963646, 36.673778865456953 ], [ -120.259243401146747, 36.673485762610966 ], [ -120.258595818234824, 36.672893085630093 ], [ -120.25677858390722, 36.671824852292502 ], [ -120.254732448963793, 36.67087439196311 ], [ -120.253844532577375, 36.670557892759305 ], [ -120.252918864491178, 36.670254445302625 ], [ -120.252471082169833, 36.670065868304242 ], [ -120.25236273097353, 36.670020237271665 ], [ -120.251721111078467, 36.669812235652067 ], [ -120.251408985144778, 36.669677983489827 ], [ -120.249011246904175, 36.668819916679979 ], [ -120.247655675665726, 36.667639423488545 ], [ -120.246189015165953, 36.666616161598789 ], [ -120.243689503193551, 36.66474699618216 ], [ -120.242943356230356, 36.664233381240528 ], [ -120.242781479816173, 36.664067928159632 ], [ -120.242387357459975, 36.663773177093312 ], [ -120.241672435037742, 36.662934354939978 ], [ -120.240460734381926, 36.661695803780354 ], [ -120.239244980527516, 36.658386597925215 ], [ -120.238599473622259, 36.656740648936164 ], [ -120.237458501820313, 36.654501617690954 ], [ -120.237078715677754, 36.653802172869291 ], [ -120.236052019461439, 36.651752577214587 ], [ -120.234237331857685, 36.646570067246124 ], [ -120.233046757780698, 36.64221903953387 ], [ -120.231666063358688, 36.638350681076425 ], [ -120.230016433103543, 36.633610407452892 ], [ -120.228451741253465, 36.629249821653765 ], [ -120.227865800736325, 36.627503619470041 ], [ -120.227597726387586, 36.626793075832161 ], [ -120.227576370738333, 36.626641037470641 ], [ -120.226882193110924, 36.624572110536263 ], [ -120.226462612499603, 36.622927230495648 ], [ -120.225719288941349, 36.620714799194594 ], [ -120.224404185009817, 36.61717618937962 ], [ -120.225383563366861, 36.617060677144181 ], [ -120.225384204763955, 36.616924611200794 ], [ -120.225384204763955, 36.616924559286986 ], [ -120.225385776815713, 36.61659113499055 ], [ -120.225385776815713, 36.616591083076571 ], [ -120.225386763165872, 36.616381753918589 ], [ -120.22538676226759, 36.616381701283416 ], [ -120.225396680566632, 36.614277568468623 ], [ -120.225396679668322, 36.614277516553017 ], [ -120.22539833885665, 36.613925774718275 ], [ -120.22539833885665, 36.613925722802435 ], [ -120.22540803347519, 36.611868466948451 ], [ -120.22540803347519, 36.611868415031232 ], [ -120.225412593323568, 36.610900796343131 ], [ -120.225412593323568, 36.610900744425251 ], [ -120.225414857976418, 36.610420478270107 ], [ -120.225414857976418, 36.610420426351908 ], [ -120.225427561951179, 36.607724341864049 ], [ -120.225427561951179, 36.607724289222972 ], [ -120.225428633641286, 36.607496973789985 ], [ -120.225428633641286, 36.607496921869824 ], [ -120.225434618217704, 36.606226732663401 ], [ -120.225434618217704, 36.606226680021308 ], [ -120.225444259835641, 36.604180635938057 ], [ -120.225444259835641, 36.604180584015651 ], [ -120.225444572449362, 36.604114304351668 ], [ -120.225444572449362, 36.604114252429227 ], [ -120.225451750886805, 36.60259056958769 ], [ -120.225451751785144, 36.60259056958769 ], [ -120.225452764186457, 36.602590571029978 ], [ -120.228111311201786, 36.602593273212683 ], [ -120.228161112902853, 36.602593661196224 ], [ -120.254870811975422, 36.60262080849941 ], [ -120.254934897787777, 36.602501602315144 ], [ -120.254971382863047, 36.602433738261304 ], [ -120.255034504783112, 36.602316320268599 ], [ -120.255184425519204, 36.602037450197074 ], [ -120.255787427738511, 36.600915765661099 ], [ -120.256034373711813, 36.600456396235749 ], [ -120.256617674978585, 36.59937131070194 ], [ -120.256713852206175, 36.599192392857866 ], [ -120.257120446771765, 36.59843600139866 ], [ -120.257574047481199, 36.59759214556221 ], [ -120.257597365949337, 36.597548765026183 ], [ -120.258943924390579, 36.595169383520187 ], [ -120.258951422628257, 36.595155284946848 ], [ -120.261776402312933, 36.589876364525587 ], [ -120.260580044882161, 36.588866198212742 ], [ -120.259633742493875, 36.588115030844293 ], [ -120.261315954644388, 36.588165431266575 ], [ -120.261297876947609, 36.588151143877205 ], [ -120.261282708894043, 36.588151066698792 ], [ -120.261282772674448, 36.5881510147656 ], [ -120.2613425977774, 36.588102284130535 ], [ -120.261491143192785, 36.587981284734177 ], [ -120.261491144091096, 36.587981232800871 ], [ -120.261490093062221, 36.586147672702374 ], [ -120.261490093062221, 36.586147620767896 ], [ -120.261489276493649, 36.584720444275632 ], [ -120.261489275595295, 36.584720391618852 ], [ -120.261489268408795, 36.584707090366003 ], [ -120.261489268408795, 36.584707038430508 ], [ -120.2614870585532, 36.58082536080979 ], [ -120.2614870585532, 36.580825308871724 ], [ -120.261482927201186, 36.573495689478882 ], [ -120.261481051518885, 36.573495672164512 ], [ -120.258813080277875, 36.573470924195234 ], [ -120.239016433847894, 36.573409844926459 ], [ -120.238704916073658, 36.573179121347415 ], [ -120.237210956670737, 36.572226115059216 ], [ -120.235196630173164, 36.5706399130911 ], [ -120.230376909959077, 36.56790704839694 ], [ -120.230276219595495, 36.567849950924895 ], [ -120.225618783630736, 36.56525001492853 ], [ -120.225618970480312, 36.565208819701517 ], [ -120.225495084717792, 36.565138558469663 ], [ -120.225495085616132, 36.565138506521002 ], [ -120.225497461660041, 36.5646440497989 ], [ -120.225234938899703, 36.563550640184424 ], [ -120.224527037709734, 36.56271728581455 ], [ -120.223959024870751, 36.562330274791059 ], [ -120.223272880876976, 36.562224680930413 ], [ -120.222808133871467, 36.562199147204097 ], [ -120.22267758171121, 36.56219672572788 ], [ -120.21990322029616, 36.562206782502038 ], [ -120.21912452018374, 36.562216453974564 ], [ -120.216464446930686, 36.562249580418239 ], [ -120.216464446930686, 36.562249527746083 ], [ -120.216464404709853, 36.562247068751539 ], [ -120.21622764024201, 36.562250014782855 ], [ -120.21622764024201, 36.562249962832247 ], [ -120.216182498102356, 36.55959632598649 ], [ -120.216182497204016, 36.559596301453439 ], [ -120.216118945889278, 36.559597183922186 ], [ -120.209622257889279, 36.559688635915855 ], [ -120.207834957223596, 36.559711952397585 ], [ -120.207346300658486, 36.559718704752406 ], [ -120.207139302765867, 36.559764753227832 ], [ -120.207139303664206, 36.559764701275554 ], [ -120.207139526446383, 36.559718706917124 ], [ -120.207139526446383, 36.559718654243248 ], [ -120.207139882179249, 36.559644998849535 ], [ -120.207139882179249, 36.559644946897237 ], [ -120.207139983688862, 36.559624036799434 ] ] ] } }
]
}
