{
"type": "FeatureCollection",
"name": "NAPA_GSA",
"crs": { "type": "name", "properties": { "name": "urn:ogc:def:crs:OGC:1.3:CRS84" } },
"features": [
{ "type": "Feature", "properties": { "OBJECTID": 247, "GSA_ID": 488, "GSA_Name": "County of Napa GSA", "Loc_GSA_ID": "", "Basin_Name": "NAPA-SONOMA VALLEY", "Posted_DT": "12/18/2019", "GSA_URL": "", "POC_Name": "Jamison Crosby", "POC_Phone": "17072534823", "POC_Email": "jamison.crosby@countyofnapa.org", "Date_90_Days": "2020-03-17T00:00:00Z", "Exclusive": "Yes", "Overlap": "No", "GSP_ID": 124, "COMMENTS": null, "Basin_Number": "2-002", "Basin_Subbasin_Number": "2-002.01", "Basin_Subbasin_Name": "NAPA-SONOMA VALLEY - NAPA VALLEY", "UPDATED_DT": "2021-05-12T14:33:00Z", "MODIFIED_BY": "Mark Nordberg", "ShapeSTArea": 303227326.79891944, "ShapeSTLength": 209777.37679154496 }, "geometry": { "type": "Polygon", "coordinates": [ [ [ -122.286025497365529, 38.240737368742032 ], [ -122.286376688335963, 38.241496358218953 ], [ -122.286376654199998, 38.241496356807893 ], [ -122.286376678454502, 38.241496409723744 ], [ -122.284557597190698, 38.241444437163402 ], [ -122.282010219386677, 38.24122285258256 ], [ -122.278372951581076, 38.241461676453739 ], [ -122.27466482646247, 38.24255840342294 ], [ -122.27189922182481, 38.242337229331952 ], [ -122.267899844026488, 38.243434436255548 ], [ -122.265431243083, 38.24572839855967 ], [ -122.265653362316797, 38.247328902068432 ], [ -122.267912462661258, 38.248695199618801 ], [ -122.269807820774176, 38.250062526856368 ], [ -122.26980781179104, 38.250062579060568 ], [ -122.269807812689322, 38.250062579765981 ], [ -122.26958598720465, 38.251350602248124 ], [ -122.26930532476382, 38.252980197481854 ], [ -122.269305323865495, 38.252980198187302 ], [ -122.269305314882345, 38.252980248978517 ], [ -122.268216521723687, 38.254126831423207 ], [ -122.266256019583011, 38.25596191105042 ], [ -122.263569394825112, 38.258599492703887 ], [ -122.262557095907852, 38.261461334868585 ], [ -122.262781331572469, 38.263976758272932 ], [ -122.26337289194997, 38.267977937182152 ], [ -122.262873609213386, 38.272325164975108 ], [ -122.262873606518454, 38.272325168501339 ], [ -122.26287360023025, 38.272325217868513 ], [ -122.261567366263805, 38.2741013568101 ], [ -122.26040308228194, 38.274276002132339 ], [ -122.257491307374508, 38.274226358400853 ], [ -122.254580862872018, 38.2748057388457 ], [ -122.257643999413247, 38.277428128341683 ], [ -122.259974231955184, 38.277708018640546 ], [ -122.261142248437054, 38.279191748953131 ], [ -122.263694532839168, 38.281072007610987 ], [ -122.267703053690468, 38.282948392175634 ], [ -122.267703021351096, 38.282948433073891 ], [ -122.267703044707275, 38.282948443651001 ], [ -122.266759491163754, 38.284151847809866 ], [ -122.263631612141694, 38.285246586513665 ], [ -122.259627856852987, 38.285485868573389 ], [ -122.256278548503289, 38.28538020309508 ], [ -122.253803145516457, 38.285329387291611 ], [ -122.254096980852651, 38.28647221001782 ], [ -122.254096960191404, 38.286472216363791 ], [ -122.254096971869487, 38.286472262195858 ], [ -122.251987100558324, 38.287163893737116 ], [ -122.247766008666403, 38.28791791882842 ], [ -122.245730410062919, 38.289352541073193 ], [ -122.240053953087624, 38.290567363401983 ], [ -122.234813435044941, 38.291437841093263 ], [ -122.229572950239984, 38.292422372870391 ], [ -122.225862487705015, 38.294032195512422 ], [ -122.225862622452283, 38.294032089757231 ], [ -122.22586249758649, 38.29403214404492 ], [ -122.226734784185268, 38.29334417648581 ], [ -122.224335086719009, 38.294893465597696 ], [ -122.224127970248773, 38.296143737056546 ], [ -122.223974996139063, 38.297067151571028 ], [ -122.225505401989679, 38.297749897864051 ], [ -122.228635472002736, 38.297285126132465 ], [ -122.230672730692888, 38.296479697342789 ], [ -122.235112094334198, 38.295268347519901 ], [ -122.239625648936524, 38.294857114436304 ], [ -122.243190730820885, 38.293533128007823 ], [ -122.246102472490648, 38.293182881192799 ], [ -122.247778471892659, 38.293807667732828 ], [ -122.24974459209713, 38.293974284652712 ], [ -122.252145360355144, 38.292996067159301 ], [ -122.254619529955107, 38.292303557707356 ], [ -122.256877022315223, 38.292526496729636 ], [ -122.258261508526061, 38.292980394014791 ], [ -122.25964207448898, 38.291718722978267 ], [ -122.260440298585848, 38.290515822894065 ], [ -122.260652975627679, 38.288056430181413 ], [ -122.260652980119261, 38.288056429476363 ], [ -122.260652984610829, 38.288056378004569 ], [ -122.26145367727807, 38.28793994807684 ], [ -122.263637662295153, 38.287877012083591 ], [ -122.266774661912294, 38.290499019693435 ], [ -122.27224719143662, 38.29534489319159 ], [ -122.27334409099241, 38.297228954292578 ], [ -122.273344067636188, 38.297228981082689 ], [ -122.273344082907556, 38.297229006462828 ], [ -122.272545205735511, 38.298146105923806 ], [ -122.271240781874383, 38.300722918437955 ], [ -122.270299010588388, 38.302669672166587 ], [ -122.271467134868089, 38.303924499581399 ], [ -122.272341051909095, 38.303922170464674 ], [ -122.274306296256157, 38.303573652265655 ], [ -122.276197070266164, 38.302482006302178 ], [ -122.278306478944984, 38.301561266242409 ], [ -122.279617688679764, 38.301786376999011 ], [ -122.28005639172855, 38.302471403110992 ], [ -122.280567867298515, 38.303098875879904 ], [ -122.2805678385524, 38.303098904077764 ], [ -122.280567859213676, 38.303098928750892 ], [ -122.279332941599321, 38.304303241590063 ], [ -122.277880201393188, 38.305794078759497 ], [ -122.275697945633055, 38.306829403326489 ], [ -122.273880141773574, 38.307920809049811 ], [ -122.271990016347189, 38.309298311536239 ], [ -122.270464456009208, 38.31090360522856 ], [ -122.271269477657825, 38.312502540837372 ], [ -122.273600560006031, 38.312724904659568 ], [ -122.275932243327134, 38.313118849421834 ], [ -122.275935692857843, 38.314491215010982 ], [ -122.275935683874707, 38.314491242499571 ], [ -122.275935683874707, 38.314491267873663 ], [ -122.275501995221816, 38.315807673463731 ], [ -122.274414917845391, 38.318040783271094 ], [ -122.273326934967102, 38.319873639494659 ], [ -122.272312815164767, 38.322163692833264 ], [ -122.272826333503687, 38.323649037928341 ], [ -122.273342515347395, 38.326220947926188 ], [ -122.274150459215605, 38.328849109261597 ], [ -122.274150443944265, 38.328849140268233 ], [ -122.274150450232469, 38.32884916140911 ], [ -122.272918019154815, 38.33136863761429 ], [ -122.271831928128535, 38.334059148890439 ], [ -122.272205382944989, 38.337832226600824 ], [ -122.272431603886361, 38.340919574214709 ], [ -122.272431593106575, 38.340919591124617 ], [ -122.272431595801521, 38.340919626353532 ], [ -122.270617215421581, 38.343840860376837 ], [ -122.270549747452165, 38.346013971886528 ], [ -122.270554595659775, 38.348015413203647 ], [ -122.271870668873518, 38.349841685956839 ], [ -122.272968736239136, 38.351954493623886 ], [ -122.273338791830554, 38.354240882362113 ], [ -122.276110131312976, 38.355148192480236 ], [ -122.276556228394867, 38.358692413037978 ], [ -122.276491965614383, 38.362123639426336 ], [ -122.276640900898599, 38.363381247606391 ], [ -122.278463084943411, 38.363490567057696 ], [ -122.280139188549995, 38.363371564764876 ], [ -122.28159746686984, 38.363710647283931 ], [ -122.284078457377703, 38.36484732840696 ], [ -122.286629962042127, 38.365068901943019 ], [ -122.288816410239704, 38.365062648777936 ], [ -122.294214536800609, 38.366877030072295 ], [ -122.296405717323125, 38.368586235772995 ], [ -122.297650625101738, 38.370641222934829 ], [ -122.300276349473236, 38.371262555147531 ], [ -122.303412757100617, 38.372053829630524 ], [ -122.306333445990617, 38.37381780230821 ], [ -122.306777046654332, 38.375989443733047 ], [ -122.306709915553157, 38.377991117702379 ], [ -122.307010389439256, 38.381020951208129 ], [ -122.307382864193727, 38.383707495623725 ], [ -122.30848515274289, 38.386734952663481 ], [ -122.309365388533621, 38.388562161695909 ], [ -122.310979358366907, 38.391988331082032 ], [ -122.313762067825905, 38.395982774779249 ], [ -122.316547958219303, 38.401006437971965 ], [ -122.318595271752429, 38.40288717222046 ], [ -122.320277801008217, 38.404654718120483 ], [ -122.320361316481879, 38.408085525457821 ], [ -122.321535252861466, 38.410369222891042 ], [ -122.324096534789447, 38.413163176660397 ], [ -122.326368103750056, 38.41658713850687 ], [ -122.329872998510353, 38.417834039181599 ], [ -122.331329844017347, 38.417314797219511 ], [ -122.331692077079239, 38.416512991503794 ], [ -122.331540761259532, 38.414855220999648 ], [ -122.330878326501022, 38.412970238469889 ], [ -122.329558065341416, 38.410629888192425 ], [ -122.327362172256954, 38.408120753378931 ], [ -122.327362192918201, 38.408120714663049 ], [ -122.327362180341794, 38.408120700584583 ], [ -122.328014677038325, 38.40691773250316 ], [ -122.329692002353667, 38.406912436085193 ], [ -122.331951192529687, 38.40650491765642 ], [ -122.332311950557894, 38.405302994798873 ], [ -122.331651280090625, 38.403989805161288 ], [ -122.329824756284665, 38.402909191872766 ], [ -122.32697779572328, 38.401888893300075 ], [ -122.324785007216434, 38.400237452073505 ], [ -122.324124183137243, 38.39875274061108 ], [ -122.324124202001883, 38.398752710338407 ], [ -122.324124192120408, 38.398752688513909 ], [ -122.325792928643324, 38.396116907506112 ], [ -122.327099142846834, 38.39422579458234 ], [ -122.329277211559415, 38.391302431027277 ], [ -122.329416991214273, 38.389414965490879 ], [ -122.329483503376224, 38.387470543968533 ], [ -122.329483510562753, 38.387470539039683 ], [ -122.32948351235936, 38.38747049186324 ], [ -122.330647848443505, 38.386780566383301 ], [ -122.332543000842207, 38.38671727681119 ], [ -122.33342311446205, 38.388315624496649 ], [ -122.334227359966263, 38.388999277899075 ], [ -122.336198836824778, 38.389907812577825 ], [ -122.337584835798538, 38.390189240929331 ], [ -122.33984745394568, 38.390925216738772 ], [ -122.341384707653745, 38.392750147126385 ], [ -122.342265468060575, 38.394519954493262 ], [ -122.344474871806909, 38.400974499868674 ], [ -122.34544634678609, 38.407833376949249 ], [ -122.345381928597064, 38.410292550940014 ], [ -122.345381921410535, 38.410292566425895 ], [ -122.345381920512224, 38.410292603028864 ], [ -122.344512858865329, 38.412068195548635 ], [ -122.342839505001862, 38.413274537437154 ], [ -122.340363788502998, 38.414369220833869 ], [ -122.339272931015856, 38.415344856823374 ], [ -122.338697150444574, 38.417634182126292 ], [ -122.337753940057539, 38.419123958197751 ], [ -122.336662708871188, 38.419928182785533 ], [ -122.336301451379668, 38.420958602094395 ], [ -122.336307874333968, 38.422902807693994 ], [ -122.338064384344975, 38.424726994113804 ], [ -122.341279882344921, 38.426546428517319 ], [ -122.344788283229761, 38.428650681888222 ], [ -122.347568505253733, 38.431043245016369 ], [ -122.347863024207825, 38.431842870548422 ], [ -122.349552940310204, 38.43532541400883 ], [ -122.349847898540489, 38.436239360786594 ], [ -122.349847885964067, 38.436239400191077 ], [ -122.349847889557353, 38.436239412153135 ], [ -122.349487006663296, 38.437327183274313 ], [ -122.348398380591306, 38.438989145274171 ], [ -122.348912968823711, 38.440073940192043 ], [ -122.349720943234672, 38.441672406827912 ], [ -122.351987134880005, 38.442980030067794 ], [ -122.356297803178791, 38.444680996520965 ], [ -122.360171869588243, 38.446669205061774 ], [ -122.361563156045762, 38.448036884477538 ], [ -122.362302964496322, 38.450836352281662 ], [ -122.364208285824049, 38.453059977387923 ], [ -122.365306747550093, 38.454142658624363 ], [ -122.368013301432569, 38.455905926948056 ], [ -122.37050006541277, 38.457441195160449 ], [ -122.373501142740892, 38.459889537774295 ], [ -122.377671467242862, 38.462676756139494 ], [ -122.380816977499023, 38.464609749157141 ], [ -122.384183344855956, 38.466942193663968 ], [ -122.386308812717132, 38.469221856673279 ], [ -122.389164113237584, 38.471441662282686 ], [ -122.392897208826128, 38.474115499257508 ], [ -122.396925531241251, 38.477474444338746 ], [ -122.400952263638274, 38.480433047813378 ], [ -122.404108598593595, 38.484595576065374 ], [ -122.404995253745341, 38.487108357870156 ], [ -122.405947025077069, 38.487733856240943 ], [ -122.406967148320476, 38.487329610071114 ], [ -122.407548160679937, 38.486641181796003 ], [ -122.408198618200743, 38.485094619907343 ], [ -122.408263151374115, 38.484700216085038 ], [ -122.40855437890103, 38.482920287719551 ], [ -122.408554379799341, 38.482920285609936 ], [ -122.408554387884166, 38.482920235683096 ], [ -122.40891672425235, 38.482289827970774 ], [ -122.410887064742042, 38.48216791449412 ], [ -122.412347583460175, 38.482333834319036 ], [ -122.413513182575628, 38.481757487559243 ], [ -122.413801040521903, 38.480841378268089 ], [ -122.413503132224207, 38.479470123207527 ], [ -122.413203454245433, 38.477698476511918 ], [ -122.413198367984322, 38.476497692835331 ], [ -122.413198376967443, 38.476497680176678 ], [ -122.413198376967443, 38.476497641497502 ], [ -122.413705938577706, 38.475752217009308 ], [ -122.414802049412657, 38.476033898892979 ], [ -122.416191168235414, 38.476543180967546 ], [ -122.417800200029632, 38.477280358697421 ], [ -122.418826328510676, 38.478248404723807 ], [ -122.419569583796957, 38.481276363759036 ], [ -122.421188348837262, 38.484129261275193 ], [ -122.42412700403294, 38.488349336433018 ], [ -122.424069148935374, 38.491723536650994 ], [ -122.424949529354848, 38.492692196557563 ], [ -122.428460088891342, 38.494050655577034 ], [ -122.431970060031304, 38.495237537395731 ], [ -122.434606696238575, 38.497056803445759 ], [ -122.435714800480866, 38.499854405815377 ], [ -122.435580340649153, 38.502371161774363 ], [ -122.436100303501931, 38.504256186500093 ], [ -122.437561758264607, 38.50447896986897 ], [ -122.43938474540326, 38.503956881291309 ], [ -122.44048084725506, 38.504123889787785 ], [ -122.443330307827878, 38.504512551461829 ], [ -122.447425375966887, 38.505753625324807 ], [ -122.452914965396801, 38.508475631131084 ], [ -122.456136331192155, 38.510177726900906 ], [ -122.456874438233584, 38.511775781476395 ], [ -122.456874418470633, 38.511775812404593 ], [ -122.456874429250433, 38.511775834194935 ], [ -122.45600491934421, 38.513152001380178 ], [ -122.455132614779131, 38.513956242268023 ], [ -122.455358653362495, 38.515384902354569 ], [ -122.457191106947633, 38.516749621165332 ], [ -122.458657612937188, 38.517944311567774 ], [ -122.460857010349571, 38.51965050383528 ], [ -122.462683724598349, 38.519814288574729 ], [ -122.464508045735229, 38.519520555475559 ], [ -122.466844698536505, 38.519453324743289 ], [ -122.46940269622381, 38.519785403438185 ], [ -122.471964227883433, 38.520860778333279 ], [ -122.475478065372371, 38.522446668395837 ], [ -122.478625127917354, 38.523690885284452 ], [ -122.481628972056583, 38.525450373747738 ], [ -122.484338555058159, 38.52681084113717 ], [ -122.486977642767826, 38.528629003893741 ], [ -122.489099548808895, 38.529305635904436 ], [ -122.490786251637488, 38.530556123435616 ], [ -122.491890150865956, 38.532095263937244 ], [ -122.492269083609003, 38.534609754615722 ], [ -122.492269070134284, 38.534609781317961 ], [ -122.492269073727527, 38.534609807317494 ], [ -122.491618711428117, 38.535927959832399 ], [ -122.490233227189023, 38.536391721646979 ], [ -122.488115767808637, 38.536572791957987 ], [ -122.486070723419928, 38.536639117115826 ], [ -122.483805763364842, 38.536534917939598 ], [ -122.481173222576942, 38.536031935031154 ], [ -122.478464177666211, 38.534842944335878 ], [ -122.476121446863701, 38.533823916283765 ], [ -122.475539109489205, 38.534226720978197 ], [ -122.475546844882103, 38.535713544326917 ], [ -122.476358486216043, 38.537311178852768 ], [ -122.478419841315358, 38.540332981928806 ], [ -122.479670871112617, 38.542100225760656 ], [ -122.481863532957021, 38.542262167031012 ], [ -122.483905679380641, 38.541623996179503 ], [ -122.487992603393295, 38.540862269335477 ], [ -122.491644241548499, 38.540674335273629 ], [ -122.494060811172417, 38.541749856824843 ], [ -122.495313093221199, 38.543631323203613 ], [ -122.496634537462, 38.544826265720701 ], [ -122.498100738922673, 38.545734558573365 ], [ -122.500009481933319, 38.547384202118046 ], [ -122.501844371749513, 38.548919790883772 ], [ -122.501778681546014, 38.550235389478082 ], [ -122.501778674359514, 38.550235395800925 ], [ -122.501778672562892, 38.550235441465908 ], [ -122.500470402115681, 38.551499566518807 ], [ -122.499888953174988, 38.552074125767419 ], [ -122.499168547436255, 38.553907363614186 ], [ -122.499185405220899, 38.556995351785481 ], [ -122.499562846760554, 38.559166655764258 ], [ -122.50300981545638, 38.561438316960285 ], [ -122.505127613501656, 38.561199846897772 ], [ -122.506221115629018, 38.560737220741856 ], [ -122.508560194779889, 38.560840750553432 ], [ -122.510903220229793, 38.561687656983082 ], [ -122.513323449590175, 38.563220419996988 ], [ -122.514942264936138, 38.565157150749528 ], [ -122.516492325925185, 38.567837662217435 ], [ -122.518263947395909, 38.570917404186559 ], [ -122.51952023413422, 38.573313266080177 ], [ -122.519520217964555, 38.573313304707412 ], [ -122.519520225151084, 38.573313318753641 ], [ -122.518582700201435, 38.575490847154256 ], [ -122.517866996244905, 38.578124767558663 ], [ -122.519915461418208, 38.578458215885583 ], [ -122.520799828560897, 38.57971210437227 ], [ -122.52174891303163, 38.579536075315467 ], [ -122.523567677190158, 38.57804059745299 ], [ -122.525169249374201, 38.576946302662492 ], [ -122.527788065701188, 38.574817945549007 ], [ -122.532319633321606, 38.574853192474208 ], [ -122.539999938844986, 38.575845141084486 ], [ -122.540431834460563, 38.574756467757148 ], [ -122.54093131841978, 38.572752430642979 ], [ -122.542447385361854, 38.569656851413328 ], [ -122.544916289935912, 38.567071312613272 ], [ -122.547765672355268, 38.566942749302434 ], [ -122.550398670385647, 38.567272780518444 ], [ -122.5514366593234, 38.569669430473681 ], [ -122.551436645848682, 38.569669472614571 ], [ -122.551436650340236, 38.569669482447459 ], [ -122.550934743624708, 38.571216087472187 ], [ -122.548891251524807, 38.571683779492105 ], [ -122.547074238182773, 38.573351221157935 ], [ -122.54876154108598, 38.574372159784879 ], [ -122.551101081072574, 38.574474822275562 ], [ -122.553369577794953, 38.574921022460146 ], [ -122.554544913749766, 38.575887293099825 ], [ -122.555872409940676, 38.577767797287656 ], [ -122.556333199867339, 38.581311082863742 ], [ -122.556333189087553, 38.581311122188865 ], [ -122.556333190884175, 38.581311134829093 ], [ -122.555475397704214, 38.58440353436891 ], [ -122.553507453919707, 38.585328463511772 ], [ -122.551244370445247, 38.585797298805325 ], [ -122.547516016164778, 38.585758658645794 ], [ -122.547522722986699, 38.586845141533843 ], [ -122.54884453823172, 38.587810716006004 ], [ -122.550528350281752, 38.588202656957669 ], [ -122.553095694041261, 38.589619548911529 ], [ -122.553925863127915, 38.593789987440317 ], [ -122.554943610327356, 38.592869941718007 ], [ -122.556469805774256, 38.591432507636341 ], [ -122.558363396002719, 38.590279218214057 ], [ -122.560841509206725, 38.589122949265381 ], [ -122.564341171280503, 38.587675479850716 ], [ -122.567626597735412, 38.587029525454859 ], [ -122.570339059837508, 38.588216533886055 ], [ -122.572910887088597, 38.590261965059376 ], [ -122.57576618491413, 38.59093339563254 ], [ -122.577948539488958, 38.589263581578258 ], [ -122.579339513332741, 38.589599461004667 ], [ -122.581247352638229, 38.590676083862895 ], [ -122.583381517089606, 38.592780842441449 ], [ -122.584134292721302, 38.596036543156806 ], [ -122.585701109985337, 38.600774855574791 ], [ -122.587388862046225, 38.601680898981293 ], [ -122.588569653469719, 38.603333066789197 ], [ -122.588569630113525, 38.603333097678032 ], [ -122.588569644486583, 38.603333118738597 ], [ -122.587337968892101, 38.604998173788346 ], [ -122.586908744866179, 38.606430011637457 ], [ -122.587425548344086, 38.60717073244647 ], [ -122.588964529512438, 38.607677300264498 ], [ -122.588964495376459, 38.607677343085065 ], [ -122.588964521427599, 38.607677352210764 ], [ -122.588239549552284, 38.608596162203895 ], [ -122.587440784669624, 38.609458216875105 ], [ -122.588044686102521, 38.612257177795286 ], [ -122.589651764959299, 38.612019914602108 ], [ -122.590956886811412, 38.610354556392217 ], [ -122.592700502404838, 38.60868678056022 ], [ -122.593931135055257, 38.606850234291606 ], [ -122.595962939175024, 38.60455182000689 ], [ -122.597560732146661, 38.602999119699625 ], [ -122.599675240561353, 38.60212992570041 ], [ -122.601575350762133, 38.602005266658203 ], [ -122.602314493561039, 38.603144999816124 ], [ -122.602326318085133, 38.604860575473417 ], [ -122.602705716155484, 38.606860168779455 ], [ -122.60432896558568, 38.608967254359648 ], [ -122.606010672883016, 38.60895811268103 ], [ -122.608412773342621, 38.607400935723966 ], [ -122.61002257499301, 38.607563727367015 ], [ -122.610618796728545, 38.609161661639604 ], [ -122.611666509030954, 38.612587265413687 ], [ -122.612493834949746, 38.615842370915729 ], [ -122.614345364259933, 38.619149088426575 ], [ -122.615434719763968, 38.618056535460703 ], [ -122.616293521751984, 38.615421077183868 ], [ -122.616493931400299, 38.612732245821235 ], [ -122.616699156018527, 38.610729451024739 ], [ -122.61669916140842, 38.610729432774129 ], [ -122.616699165001691, 38.610729398378723 ], [ -122.617413607723549, 38.60838077011347 ], [ -122.620023406761717, 38.605220917556508 ], [ -122.621619834294165, 38.603496454547489 ], [ -122.621604713851283, 38.601380607649276 ], [ -122.621587810252606, 38.599035986850105 ], [ -122.621587819235742, 38.599035982637716 ], [ -122.621587818337431, 38.599035934195513 ], [ -122.624211218767286, 38.597820271207901 ], [ -122.627268571954716, 38.595973154883318 ], [ -122.62784121560901, 38.594311529473416 ], [ -122.625335258224425, 38.591466226987542 ], [ -122.624646269266151, 38.587180997164424 ], [ -122.622511777827967, 38.585134115961047 ], [ -122.619859910685051, 38.582289512243506 ], [ -122.615600253219668, 38.579453765024304 ], [ -122.612961697312656, 38.578438966869349 ], [ -122.608569509596791, 38.577490873750328 ], [ -122.604030226346367, 38.576371879729166 ], [ -122.599420893368446, 38.575710645082481 ], [ -122.593135119915701, 38.575687237073701 ], [ -122.587215049716818, 38.575718736157178 ], [ -122.582385181234955, 38.574829145797189 ], [ -122.578506007004805, 38.573991658362878 ], [ -122.574180591962289, 38.571955533821864 ], [ -122.571384791354689, 38.569110625191151 ], [ -122.569689611124758, 38.566889044986048 ], [ -122.568879451112736, 38.565921039241424 ], [ -122.565074413046318, 38.565139873297447 ], [ -122.556663709823312, 38.564096134135077 ], [ -122.551104597976916, 38.563266201752739 ], [ -122.546423947748622, 38.562660437886038 ], [ -122.539690126073168, 38.560863681529199 ], [ -122.536390875444354, 38.55904986546043 ], [ -122.533899312663905, 38.557861050880604 ], [ -122.528409326178661, 38.556229171768479 ], [ -122.523282857346189, 38.554252217709887 ], [ -122.51676466816987, 38.551595325658646 ], [ -122.51294666292236, 38.548353697528903 ], [ -122.510941318679301, 38.542587205681507 ], [ -122.508798844811523, 38.538308197440102 ], [ -122.506511450230519, 38.534258589580531 ], [ -122.503421306738602, 38.530269862771007 ], [ -122.500181895585797, 38.525652661071106 ], [ -122.497534359220865, 38.522347931291655 ], [ -122.489908672165072, 38.516778290334813 ], [ -122.487188035393913, 38.513302147796225 ], [ -122.483296314394153, 38.509259347138801 ], [ -122.483296338648657, 38.50925931058601 ], [ -122.483296323377317, 38.509259295121367 ], [ -122.485034883252325, 38.506621014612008 ], [ -122.486270711758365, 38.505586099000674 ], [ -122.48698775779792, 38.503123928638097 ], [ -122.48624751096952, 38.501240143223193 ], [ -122.486247535224052, 38.501240133380954 ], [ -122.486247519054373, 38.501240091199904 ], [ -122.488651785352147, 38.500257106063927 ], [ -122.488720915204823, 38.49951351686974 ], [ -122.485197896035359, 38.496040944850648 ], [ -122.483799763517055, 38.493988445715402 ], [ -122.480270024050938, 38.489143339629287 ], [ -122.478211027927543, 38.486293133307626 ], [ -122.47711134808597, 38.485383031201231 ], [ -122.472070891145322, 38.484718874212255 ], [ -122.468135722228538, 38.48605121331471 ], [ -122.463814798762499, 38.483267760409007 ], [ -122.461025310616378, 38.480134438266383 ], [ -122.45831871541138, 38.478945075608337 ], [ -122.454356371558973, 38.47473010834792 ], [ -122.451485944307436, 38.469824229564885 ], [ -122.450888069671791, 38.466910303001043 ], [ -122.447674539880637, 38.466409030231098 ], [ -122.445539741218639, 38.462586421430203 ], [ -122.443918117739102, 38.459162040073629 ], [ -122.442589103395377, 38.455907941654651 ], [ -122.44126661800712, 38.453969115757189 ], [ -122.43879099942464, 38.455122985467618 ], [ -122.436159506970711, 38.454161469575979 ], [ -122.436150485190311, 38.452217241741728 ], [ -122.436150495071772, 38.452217216415896 ], [ -122.436150495071772, 38.452217189683104 ], [ -122.43752012943601, 38.448608941196326 ], [ -122.435826757514747, 38.445356334656438 ], [ -122.432094189237276, 38.442798089782229 ], [ -122.427190140574183, 38.439272307620783 ], [ -122.423459969001868, 38.437171293039597 ], [ -122.423082888584958, 38.434427877172659 ], [ -122.42218994971779, 38.430485667181124 ], [ -122.42028193344423, 38.427919930460085 ], [ -122.417430947532083, 38.426501457073343 ], [ -122.413985801517967, 38.422626298761244 ], [ -122.412149806773968, 38.419717001563093 ], [ -122.411050418884855, 38.418463216206526 ], [ -122.405935121501258, 38.416138165998127 ], [ -122.401393514309206, 38.411351924372589 ], [ -122.399132113379295, 38.411188923630263 ], [ -122.39605656571409, 38.40811253224166 ], [ -122.393059298141083, 38.406293748585774 ], [ -122.38699286543293, 38.402827806629872 ], [ -122.381655473968365, 38.39918749591007 ], [ -122.379827364635929, 38.397821620006098 ], [ -122.376907629756772, 38.396974324443718 ], [ -122.372739349820421, 38.393786808294223 ], [ -122.368060689360433, 38.390429436980803 ], [ -122.365935175685223, 38.387406101641169 ], [ -122.363081471470991, 38.384556806318379 ], [ -122.359933307591504, 38.380850683836933 ], [ -122.359120657449509, 38.377879886368468 ], [ -122.356777574507404, 38.374971580870977 ], [ -122.352609167908582, 38.371097178607933 ], [ -122.350554218695578, 38.367044024229081 ], [ -122.349524701769255, 38.364417004109683 ], [ -122.349663594786918, 38.362472282559104 ], [ -122.349075905249933, 38.361101833509046 ], [ -122.34921667933979, 38.359671761673887 ], [ -122.349216684729711, 38.359671752516732 ], [ -122.349216689221265, 38.359671709548564 ], [ -122.349941163429918, 38.358468479939589 ], [ -122.348118081968138, 38.358131509344702 ], [ -122.34694437016735, 38.355848055559811 ], [ -122.346944383642096, 38.355848014702651 ], [ -122.346944378252189, 38.355848004136128 ], [ -122.347449116457526, 38.354359569278436 ], [ -122.346786802073254, 38.352417556030574 ], [ -122.346786820937908, 38.352417534896581 ], [ -122.346786811056447, 38.352417504604453 ], [ -122.348020730642489, 38.351040967308577 ], [ -122.351004350111381, 38.34988729193774 ], [ -122.3539158932535, 38.349019654643378 ], [ -122.356611317907891, 38.348838995956839 ], [ -122.357632224482217, 38.349064184666595 ], [ -122.35572930524954, 38.346726233367562 ], [ -122.352874368546765, 38.342961746657053 ], [ -122.352424977342736, 38.339475121129219 ], [ -122.348847466368127, 38.337314113192811 ], [ -122.347162344574414, 38.334574941940097 ], [ -122.34606110885079, 38.332119708038611 ], [ -122.344670579673021, 38.330237272753784 ], [ -122.342844314581868, 38.328756493801599 ], [ -122.339919735986726, 38.32556386662656 ], [ -122.339919748563119, 38.32556381800034 ], [ -122.339919745868173, 38.325563814476695 ], [ -122.340494891330536, 38.323274547226248 ], [ -122.342969741853437, 38.322751722743426 ], [ -122.343984334169633, 38.321261664789404 ], [ -122.342446561235306, 38.318807844738281 ], [ -122.340692058958965, 38.316926588217889 ], [ -122.337847083674376, 38.315620656199329 ], [ -122.335511769362881, 38.31419863638731 ], [ -122.335725142599031, 38.312654020384137 ], [ -122.335725143497356, 38.312654019679272 ], [ -122.335725150683885, 38.312653968224971 ], [ -122.337616343308795, 38.311904458244818 ], [ -122.341694453950211, 38.31177669927208 ], [ -122.345118322468537, 38.312051327145397 ], [ -122.34745188506524, 38.312901291073835 ], [ -122.34970667978456, 38.312093137283533 ], [ -122.35086241270325, 38.309344482980364 ], [ -122.349982473356562, 38.307574800485639 ], [ -122.348740519238603, 38.306492456153869 ], [ -122.347494548753019, 38.304209248343916 ], [ -122.34537233458984, 38.30118565617682 ], [ -122.342743003482454, 38.29884984647294 ], [ -122.339175186228104, 38.298918704007157 ], [ -122.336775223758835, 38.29984148608839 ], [ -122.333720871842758, 38.301052218852547 ], [ -122.33080967994195, 38.301576225522567 ], [ -122.327896387780015, 38.301413942546823 ], [ -122.325711318496403, 38.301249332120385 ], [ -122.325128449319237, 38.301136803489811 ], [ -122.324547348026556, 38.301653269996265 ], [ -122.322654611197663, 38.301830790828042 ], [ -122.31995895028632, 38.301381787773337 ], [ -122.31813794393284, 38.301215868859259 ], [ -122.316020545637912, 38.299335362885635 ], [ -122.313974384643316, 38.296939897332699 ], [ -122.312580833532948, 38.293570363246424 ], [ -122.311773979321146, 38.291571384937193 ], [ -122.311185411231861, 38.289514585212018 ], [ -122.31044872083362, 38.286657679284758 ], [ -122.308619082568612, 38.283403727202646 ], [ -122.306499696301941, 38.280608131809103 ], [ -122.304162558410383, 38.2779847232203 ], [ -122.302261110618176, 38.2749024570698 ], [ -122.300941670518739, 38.271646922322823 ], [ -122.299986600573291, 38.268561829797306 ], [ -122.298514210618649, 38.262619193769098 ], [ -122.286025497365529, 38.240737368742032 ] ], [ [ -122.381179797160783, 38.42675215757955 ], [ -122.37913605443093, 38.426359184194759 ], [ -122.376870398181509, 38.425223632984114 ], [ -122.374967991886876, 38.423629233822858 ], [ -122.374520342516178, 38.421057463356512 ], [ -122.374292912442456, 38.418770909089965 ], [ -122.373339384904327, 38.417344682054015 ], [ -122.370690976275284, 38.411292555880337 ], [ -122.370690999631464, 38.411292538282957 ], [ -122.370690984360124, 38.411292503792154 ], [ -122.372581549062659, 38.409856186429451 ], [ -122.376448481950462, 38.410357129135768 ], [ -122.379952983248643, 38.411373840789317 ], [ -122.38250857884087, 38.412165195234415 ], [ -122.385798681925138, 38.414269056715248 ], [ -122.385952002784578, 38.416155588311355 ], [ -122.385951990208156, 38.416155591126738 ], [ -122.385951993801442, 38.416155639692121 ], [ -122.384057212406944, 38.416505600448382 ], [ -122.383621143218562, 38.416907482444103 ], [ -122.384574583620093, 38.418276465425372 ], [ -122.387208076622173, 38.420211081353145 ], [ -122.389039766639328, 38.422320219894715 ], [ -122.389039753164596, 38.42232026775222 ], [ -122.389039757656178, 38.422320272678704 ], [ -122.388392587969292, 38.424610023692694 ], [ -122.384827756714941, 38.426967654686628 ], [ -122.382058596545377, 38.427606675522973 ], [ -122.381179797160783, 38.42675215757955 ] ] ] } }
]
}
