{"type":"FeatureCollection","features":[{"type":"Feature","geometry":{"type":"Polygon","coordinates":[[[-121.55487430075121,37.98210700179613],[-121.57929361295459,37.9859460353063],[-121.57982288325199,37.983364068661935],[-121.57969413401051,37.98292433462095],[-121.57930789526928,37.982552249368005],[-121.57892165742635,37.98228163905271],[-121.57523095423437,37.98174040197523],[-121.57265604306691,37.981131513191684],[-121.57192648529207,37.980827069737636],[-121.57093942633932,37.979304847684155],[-121.55606097074995,37.97638239562157],[-121.55487430075121,37.98210700179613]]]},"properties":{"active_date":"","app_type":"Initial","calculated_area":"287","calculated_area_double":"287.000000","county_id":"San Joaquin","created_date":"6/19/25, 12:17 PM","data_management_status":"Active","description":"S021047","epsg_code":"","error_table_flag":"","esri_oid":"","fass_yn":"","feature_approval_license":"","fips_code":"77","globalid":"1d0eb89c-531e-4ce8-ba32-9c137d910021","groundwater_type":"","huc10_id":"1804000309","huc10_name":"Middle River-San Joaquin River","huc12_id":"180400030904","huc12_name":"Mandeville Island-Connection Slough | 180400030904","huc4_id":"1804","huc6_id":"180400","huc8_id":"18040003","huc8_name":"San Joaquin Delta","inactive_date":"","last_edited_date":"6/19/25, 12:17 PM","legacy_yn":"Yes","meridian":"Mt Diablo, Mt Diablo, Mt Diablo","name":"CA_DELTA_624","objectid":"10489","parcel_id":"12905052, 12905009","plss_id":"M02N04E32, M02N04E31, M02N04E30","pou_type":"","primary_owner":"THE METROPOLITAN WATER DISTRICT OF SOUTHERN CALIFORNIA","projected":"","quad_map_name":"WOODWARD ISLAND","quad_map_number":"","quarter":"","quarter_quarter":"","range_direction":"E, E, E","range_number":"4, 4, 4","revoke_request":"No","sabl_id":"","section_classifier":"P, P, P","section_number":"32, 31, 30","source":"","source_global_id":"","source_object_id":"294","sp_zone_id":"3","subtype":"Riparian, Pre-1914 Appropriative","swra_id":"","township_direction":"N, N, N","township_number":"2, 2, 2","transfer_date":"","v_cawsr":"false","v_fwsr":"false","v_in_fass":"true","v_in_north_coast_instream":"false","v_stacked":"true","validation_flag":"False","water_course_name":"","water_district_id":"Reclamation District No 2028, Central Delta Water Agency","wb_region_id":"Central Valley","wq_facility":"","wr_id":"S021047"},"id":10489}]}