{"type":"FeatureCollection", "features": [
{"type":"Feature","geometry":{"type":"Polygon","coordinates":[[[-122.28050615859466,39.20170599462647],[-122.24522974563078,39.20170599462647],[-122.20995333266694,39.20170599462647],[-122.17467691970306,39.20170599462647],[-122.13940050673921,39.20170599462647],[-122.10412409377533,39.20170599462647],[-122.06884768081146,39.20170599462647],[-122.03357126784763,39.20170599462647],[-121.9982948548837,39.20170599462647],[-121.98507845779024,39.20170724080251],[-121.98505233386575,39.2018051366314],[-121.98528026872711,39.20620184491352],[-121.99229248270989,39.210586382288994],[-122.00151465568298,39.215367633295806],[-122.00167636362626,39.21644608695863],[-122.00219436530367,39.21644653313533],[-122.00403428810522,39.21701949340388],[-122.00845287378492,39.21844793856129],[-122.01154981105908,39.21868293418356],[-122.01346617103736,39.21930805121079],[-122.01109812743496,39.22279149097873],[-122.00769799231293,39.22558601632063],[-122.00548536666695,39.22655162532575],[-122.0048938161325,39.227865828501635],[-122.00510626807153,39.22974765547216],[-122.0039183016193,39.23220189575165],[-122.00125708497241,39.232348335918495],[-121.9997040135493,39.23175277235848],[-121.99719859615223,39.233183161644476],[-121.99690440386115,39.23506876870879],[-122.00134739528391,39.2379937864256],[-122.00389965007862,39.239336851692784],[-122.00684906972947,39.24025343644299],[-122.00713516761354,39.243563634335786],[-122.00558027123529,39.24544769083138],[-122.00483595348705,39.24750156213494],[-122.00468578806789,39.249384863126906],[-122.00445468386528,39.25252489858017],[-122.00525686666417,39.2555496694643],[-122.01018998353132,39.259493864089066],[-122.00915249209469,39.26177599360248],[-122.00694111039795,39.26177212674186],[-122.0044292658432,39.261942902229066],[-122.00094008738047,39.262174328158316],[-122.00034582286024,39.26234487354016],[-121.99858010076511,39.264120621978456],[-121.99806954297419,39.2673724032709],[-122.0005674795664,39.271763405388455],[-122.00439916326333,39.27330443441383],[-122.00779567090346,39.27324874397711],[-122.01097312689313,39.271708711367054],[-122.01429509126605,39.269143251237885],[-122.01599749810643,39.267377292528515],[-122.01909734395706,39.26743335276821],[-122.02138116541875,39.26880732962923],[-122.02092969595908,39.27166066604123],[-122.02025461335606,39.27685423850648],[-122.0198014911982,39.28027943329992],[-122.0179387611795,39.28838324153036],[-122.0162256286675,39.29460365131939],[-122.01695338799254,39.297401812108035],[-122.02042132436546,39.29780468779841],[-122.02425742869745,39.29797800242363],[-122.02780032982596,39.29963490439801],[-122.02919289575046,39.30311890027288],[-122.02970139991186,39.30734586027864],[-122.02924640892164,39.310485243653176],[-122.02872584694211,39.31270985788613],[-122.02724749634265,39.31385127065726],[-122.02422299482498,39.313048092472265],[-122.02068171222737,39.311677013161464],[-122.01957310789649,39.31264689187057],[-122.01927168978006,39.31447022250962],[-122.02073965321271,39.31818544514898],[-122.02331574076722,39.32195377596016],[-122.02677948513413,39.323209953637075],[-122.02692840589415,39.32401165389067],[-122.02515123107852,39.32560928568344],[-122.02579948258358,39.33177297521406],[-122.02896956254024,39.33406150740147],[-122.03000044747333,39.336742912889505],[-122.03072169685858,39.343021511346194],[-122.025830533335,39.35004104934502],[-122.02360873434642,39.352267058678514],[-122.01947188354566,39.35426105752815],[-122.01577257651982,39.356028753422166],[-122.01369760314523,39.3583682761093],[-122.01338966301378,39.362702616749466],[-122.0133753502823,39.36806863524826],[-122.01159439812557,39.37126564272207],[-122.01048249187748,39.373834989730035],[-122.01046956670314,39.37799927245082],[-122.01156750709544,39.382283706632165],[-122.01008363243781,39.38433649059495],[-122.00897474696244,39.3857620260267],[-122.00799935564069,39.391014337882645],[-122.00777684652824,39.39152731621815],[-122.00427667083542,39.400033422083006],[-122.00478806713662,39.40397018500045],[-122.00699055728488,39.40876832366972],[-122.00874746872422,39.41625003775432],[-122.01042732132409,39.42195926125566],[-122.00588771289051,39.42478587391917],[-122.0007240704323,39.42463805199832],[-121.99636442751068,39.424128406838086],[-121.9946625822874,39.42521500024961],[-121.99444689997104,39.427899304700226],[-121.99622535540632,39.43132398906919],[-121.9977856770164,39.436056907482644],[-121.9954260560956,39.438860987023965],[-121.99232961622762,39.44217300204624],[-121.99262408110653,39.444513878127324],[-121.99278987992784,39.452106719531045],[-121.99230879369588,39.472658297449556],[-121.99393467445476,39.47277034637181],[-121.99734408700454,39.47539116336138],[-121.99550431185975,39.48270405106855],[-121.99404451163232,39.49337959187326],[-121.99384539913196,39.50559851032529],[-121.9976273468145,39.51038482290246],[-122.0011137681673,39.51258439038902],[-122.00426235690958,39.51552207405758],[-122.00588849363854,39.516666164917254],[-122.00692141838584,39.51872248128679],[-122.007346834456,39.5239163703921],[-122.00541969682139,39.52614178843403],[-122.00158024112231,39.526494958858095],[-121.99735692697503,39.52357464085198],[-121.99483974338918,39.52260582535448],[-121.99298222706817,39.521241979844724],[-121.98935681266856,39.52010345612578],[-121.98520903371103,39.52079619208314],[-121.98136626539424,39.522511564150236],[-121.98204150147669,39.528675552443545],[-121.98604259329234,39.5312961545624],[-121.99063759907696,39.53300444477713],[-121.99404373079975,39.53476760849926],[-121.99560547166705,39.538419562798666],[-121.99857454840773,39.5411012354202],[-121.99895184780094,39.544124504362976],[-121.99858721472259,39.548348399949894],[-121.99867431728633,39.55514316136681],[-121.99690076007079,39.55880023691542],[-121.99209727125279,39.562461811025436],[-121.98980277305705,39.566118321480026],[-122.00240448017276,39.56935383077902],[-122.00209243081827,39.57041786127236],[-122.00383155024039,39.57247616398925],[-122.00493580340024,39.57584502417201],[-122.00123713167545,39.57763464009646],[-121.99419911638263,39.579983345746534],[-121.99516465367473,39.58209454904723],[-121.99635618556309,39.58443443332036],[-121.9968064552642,39.5884307152649],[-121.99541417023735,39.59528536202421],[-121.99282623243542,39.597972655136275],[-121.98905374944508,39.60305622779204],[-121.9849830943278,39.605061387311494],[-121.98090682134631,39.608147798495835],[-121.97987547306984,39.61237358767731],[-121.98032954170147,39.614828361962886],[-121.98240792507121,39.619566981037885],[-121.98716038785469,39.62218452569284],[-121.98879033623923,39.62275243648805],[-121.98998584187314,39.626919910725945],[-121.98961944364656,39.62983477151194],[-121.98821778341132,39.63320431202833],[-121.98725739067896,39.636629240493995],[-121.98266640784965,39.64171698166003],[-121.97770792669742,39.64458074854077],[-121.97170417204599,39.64669702731365],[-121.96777545173472,39.64870380187499],[-121.96762688428298,39.650926985194694],[-121.97008481663467,39.65492257768102],[-121.97416548397248,39.656175200504144],[-121.98083714533844,39.65667995828586],[-121.98721721867899,39.65752870500684],[-121.99271240306354,39.65883378603117],[-121.99560685979408,39.66094060820653],[-121.9956148415244,39.66505150237806],[-121.99384149496167,39.66882041896052],[-121.98886963791006,39.66996895585561],[-121.98375360802083,39.66986398478631],[-121.97900498882414,39.66878324363708],[-121.97514594958884,39.669761417979416],[-121.97152844871309,39.67111090795281],[-121.97236358761094,39.671589023697514],[-121.97366921698932,39.67233219406543],[-121.97590148959183,39.674365156384496],[-121.97723736042325,39.6755814435994],[-121.98013170580063,39.67831874730422],[-121.9826587722476,39.682027070959435],[-121.98386284804768,39.68371459648344],[-121.98571123524736,39.686303274753946],[-121.99128510109107,39.69212048705591],[-121.99418861853613,39.6974847794399],[-121.99703202320346,39.70296624637922],[-121.99835913407503,39.70552752801749],[-122.00106570667849,39.710434661577864],[-122.0039498791041,39.71335039366042],[-122.00670654100121,39.71435549813548],[-122.00802928373236,39.71483886427655],[-122.01046453542683,39.71616197323833],[-122.01277031037228,39.71741122137671],[-122.01425406177117,39.71889729549425],[-122.02011626557672,39.71861787493753],[-122.02275820078168,39.71986141082661],[-122.02582879865635,39.72130335725796],[-122.03109697708818,39.722163796881006],[-122.03465084367333,39.725134797017496],[-122.03947379385542,39.72622564190132],[-122.04608024361376,39.727255368880456],[-122.05008176323636,39.7304553378188],[-122.05341233398913,39.73080192799881],[-122.05780082453444,39.731255866303655],[-122.06217500499137,39.73325601797981],[-122.06781050856215,39.7364012336173],[-122.0687014389707,39.736752674755095],[-122.0724122120623,39.73822743871332],[-122.07613724946836,39.739384545886196],[-122.07775702475611,39.73988453265998],[-122.08161234635223,39.74011422604645],[-122.09304781497106,39.74251647395438],[-122.09545082628699,39.74424518061263],[-122.09860561323524,39.74651512192712],[-122.09944922601677,39.74702360265058],[-122.1017263323076,39.74839683425001],[-122.10640017862538,39.75005520851047],[-122.11122332154018,39.751255033498516],[-122.11553156321094,39.75068499391649],[-122.12065881604315,39.75056985304592],[-122.1229580930483,39.75089211422686],[-122.12429701177982,39.751083543410125],[-122.12963830993526,39.75353835309032],[-122.13262053530029,39.75560495593976],[-122.13342532430555,39.75616297871997],[-122.13459740453253,39.7567906330284],[-122.1381021317799,39.75867375483026],[-122.14189144827965,39.75838881874151],[-122.14433721305713,39.758556206099875],[-122.1485016174171,39.75919857235313],[-122.15399392839743,39.76004099887166],[-122.16171675419608,39.76003509445346],[-122.16483928698334,39.75838026548942],[-122.16944283701739,39.757405377485306],[-122.17701557976653,39.75626155042919],[-122.17876072816348,39.75723618196393],[-122.1808064712711,39.75837076158861],[-122.18459229240271,39.759912410394364],[-122.18964316604024,39.76264695740253],[-122.19446795258571,39.766529385465404],[-122.19892683129564,39.77018134101252],[-122.2027859628011,39.773544408307245],[-122.2087308628313,39.77491262639372],[-122.21675382465986,39.7763324066651],[-122.22417916726933,39.77849541959519],[-122.22908732452422,39.781400847815235],[-122.23025593729054,39.782635497315276],[-122.23168822583179,39.78414235994046],[-122.23562399876968,39.78482169672095],[-122.24350246722301,39.7865821485256],[-122.2480338272838,39.788322768442725],[-122.25004128873898,39.789090471818795],[-122.2522244997681,39.79029299630121],[-122.2547974012723,39.79171171655003],[-122.25686029946655,39.79427038413724],[-122.25792206847296,39.79559167847997],[-122.26340635071026,39.796416016749966],[-122.26542304233855,39.796723059938635],[-122.27567985925607,39.797852119639025],[-122.28690026035628,39.79806421207096],[-122.29894352717459,39.8002709935958],[-122.30288598627399,39.802950294058014],[-122.30660363840934,39.80676879666282],[-122.3072525315789,39.8082091752939],[-122.30817002393535,39.810252245408776],[-122.31345518252368,39.814809939189004],[-122.31841406659142,39.816195901442185],[-122.32178060909595,39.8171380400925],[-122.32832707375513,39.81844003308023],[-122.33588828691362,39.81753251324621],[-122.33590333511452,39.81401496891404],[-122.3363365321184,39.81250059900878],[-122.33764579852924,39.80790368757037],[-122.34154037899478,39.800710167356534],[-122.34313348865555,39.799191612090695],[-122.34572269467141,39.79671997441142],[-122.3456210854638,39.794639267220184],[-122.34539244277063,39.79004930947135],[-122.34531893801767,39.788482018039474],[-122.34442943998027,39.7866129841683],[-122.3443947627227,39.785894136013454],[-122.34377204025864,39.78510597010437],[-122.34329866150108,39.782826810855454],[-122.34255062534889,39.7808433579392],[-122.34087673476755,39.77928415518296],[-122.33825982237774,39.77598654403451],[-122.33449666501866,39.77220119864177],[-122.33192378980819,39.76790149068959],[-122.33009543549413,39.76494189783142],[-122.32816966166345,39.7618276296757],[-122.32715218577489,39.75937549531558],[-122.32621046697781,39.759482699194635],[-122.32497120487076,39.758254769847554],[-122.32454514030354,39.756890855194285],[-122.32472409454992,39.75413450140001],[-122.32435589304818,39.751491302431624],[-122.32245111962939,39.74956542156239],[-122.32177239202876,39.74791128430734],[-122.3205159517152,39.747595343296496],[-122.31986592873044,39.7462936896111],[-122.31985624106565,39.744345385331435],[-122.32000423734804,39.74334600484306],[-122.32002845647455,39.74319805831906],[-122.3202628627342,39.74181717657097],[-122.31914696320275,39.73989865409628],[-122.31899152692003,39.73974968294486],[-122.31783271067754,39.73866766027921],[-122.3168856325963,39.73731803397886],[-122.316745762918,39.7358324691983],[-122.31893288145199,39.73497789298361],[-122.32313062133197,39.73446961737306],[-122.32740992880632,39.73579639545623],[-122.32962156311066,39.737171183135935],[-122.32983631517631,39.7373592685243],[-122.33659356092595,39.74057836242079],[-122.33751235597367,39.741575394470665],[-122.33856899500906,39.741988805953255],[-122.33965597827186,39.74316580861789],[-122.33968616008077,39.74392946539501],[-122.34337934531564,39.747921448329194],[-122.34502656154739,39.75896448698923],[-122.34581920170926,39.76360618106583],[-122.34675062845814,39.76498273974323],[-122.34758078557434,39.76880143997678],[-122.34989749476973,39.77429889311309],[-122.35001181130654,39.77460959510235],[-122.35139830021537,39.778404165838175],[-122.35174772990639,39.779349411513444],[-122.35199564183237,39.78038606361346],[-122.35301270587864,39.78458992009902],[-122.35402552315018,39.78920061800478],[-122.3550033110625,39.79290028881856],[-122.35556396994664,39.794274991128006],[-122.35573016098124,39.79852649612956],[-122.35581887679588,39.79894044746634],[-122.35588113346343,39.799252101165884],[-122.35603885019033,39.800004393585255],[-122.35689867890667,39.79914329324398],[-122.35800345860699,39.793830547738004],[-122.35812304078352,39.792143336527964],[-122.35829415633067,39.78971776527369],[-122.35920575914304,39.78525792977893],[-122.3596871078471,39.78292022468327],[-122.36138741761569,39.77846311902663],[-122.36464590067676,39.773774914522114],[-122.36967941815918,39.766969880421286],[-122.3709443522222,39.76395560865583],[-122.37226831931484,39.76079718900342],[-122.37334605118568,39.75880998792333],[-122.37477926362439,39.756167910052916],[-122.37706987324226,39.753683509042354],[-122.3790019312565,39.751590339749235],[-122.38073547126716,39.74803062403584],[-122.38203398669772,39.74535976215773],[-122.38379271868618,39.743828552828994],[-122.38551174385707,39.74232486741995],[-122.39003911355304,39.74037336618221],[-122.39150459979268,39.73962976496668],[-122.39611710921028,39.737278590217294],[-122.40220400181488,39.736234690216506],[-122.40672935707939,39.735654597979625],[-122.41088895128657,39.73400447576049],[-122.41333761608976,39.73303129648819],[-122.41324989932359,39.73283194573486],[-122.4116379718797,39.72982903726741],[-122.4110285234298,39.72804442712137],[-122.41077850335388,39.72644045403212],[-122.41105047469738,39.724844134631134],[-122.4124397040558,39.72303819813354],[-122.41316200964303,39.72139275036679],[-122.41602197298097,39.719200385786536],[-122.4164347055649,39.71888837463484],[-122.41688113936064,39.718544436130664],[-122.41751224452629,39.71729847905642],[-122.41936561333183,39.71481746157004],[-122.4211950991763,39.71319042476785],[-122.42246511743572,39.71287045921368],[-122.42358225762608,39.71283502136621],[-122.42660672021587,39.71334741183863],[-122.42843270994162,39.712493522248586],[-122.42848394987256,39.7124656531582],[-122.43077684635983,39.71101702172867],[-122.43279725999601,39.709743646058136],[-122.44148382609862,39.7068139262469],[-122.44166586493476,39.706711982659534],[-122.4439001563723,39.705429614784215],[-122.44459036576762,39.70458470594044],[-122.4464099947745,39.70130392581124],[-122.44644818055406,39.70123165843016],[-122.44725681732236,39.699772049108844],[-122.44767331465769,39.69594718331011],[-122.44833481718484,39.693556465431975],[-122.44878076964531,39.69285933892395],[-122.44880271301454,39.69282315874747],[-122.44891579904518,39.692740481232555],[-122.45100203729913,39.691206176224135],[-122.45152762905136,39.69046725251183],[-122.4530159274755,39.68838182069063],[-122.45317643575818,39.6879852736957],[-122.45300478345747,39.686321794831045],[-122.45273067479627,39.68557643547375],[-122.45173211152009,39.684300395241884],[-122.44984691834335,39.68283640407947],[-122.44684679779255,39.68163588825928],[-122.44309149369181,39.68070959295584],[-122.43702347343668,39.680427864770806],[-122.4309654706374,39.679747982605264],[-122.42949941126766,39.6792049077491],[-122.42820182751397,39.67797931186657],[-122.42815464863205,39.67777908455739],[-122.42807463458232,39.6774634267362],[-122.42935977726792,39.67657101189981],[-122.42974549845832,39.67650077635453],[-122.43241630228741,39.67600103122727],[-122.43835274318369,39.67565099716419],[-122.44505248990711,39.67474468876224],[-122.44558770123933,39.67429604216564],[-122.4456061895238,39.67363426925999],[-122.44560523919152,39.67360749487858],[-122.44489274672134,39.67273681571863],[-122.44329953485806,39.6715082275117],[-122.44104000251362,39.67026612963865],[-122.43817769699064,39.669357690865574],[-122.4367373995958,39.66784443126896],[-122.43419043534999,39.66631296825993],[-122.43416045341588,39.666282245180064],[-122.43256094368515,39.6648526131768],[-122.4321013566184,39.6644416124735],[-122.43177612777994,39.66423801349448],[-122.42751773164956,39.66155596996719],[-122.42175048021564,39.65876502755572],[-122.42115707702789,39.658329794059114],[-122.42102667823701,39.658238539677285],[-122.42086836749257,39.658179117610885],[-122.41575157003822,39.65630903178491],[-122.41246381555716,39.65476038955635],[-122.4112031827981,39.65357855343031],[-122.41023507709319,39.65266354846332],[-122.40982664132052,39.65133984030985],[-122.40978342965634,39.64949953399544],[-122.40972958789784,39.64733763208241],[-122.40924777639154,39.64606900023912],[-122.40859942314435,39.64554098922375],[-122.40750433488452,39.64498592592317],[-122.40743355260541,39.64494710013984],[-122.40463221273902,39.644438928023476],[-122.40093071358434,39.6443728499708],[-122.39716961779516,39.64390114569845],[-122.395928681663,39.64330860406384],[-122.39063355678516,39.64195055246547],[-122.3865694585698,39.64158717778427],[-122.38428977450721,39.64109071576739],[-122.38082036238595,39.6406799088223],[-122.3743029980012,39.63838839107526],[-122.3712288760024,39.637129523971694],[-122.36598248340377,39.63456289696886],[-122.36502961119614,39.634094104293204],[-122.3648051605975,39.63341917262237],[-122.36432418107019,39.63196716953874],[-122.36428570607175,39.631851694127555],[-122.36408952659201,39.62864693736435],[-122.36378155260533,39.62663745266754],[-122.36330480502684,39.625314874038665],[-122.35920861248292,39.62123325116091],[-122.35875830261385,39.619110301968995],[-122.359277265547,39.61671851678693],[-122.35934505391906,39.616668041843525],[-122.36034008537341,39.6159383641909],[-122.36279597793273,39.61547110980047],[-122.36480152926649,39.615392221814034],[-122.36701506172953,39.61566241049284],[-122.36879081690188,39.61563704059855],[-122.36903817007595,39.615592092892015],[-122.37050524519196,39.61532691930173],[-122.37184944814842,39.61484062961881],[-122.37253407902317,39.614183915314726],[-122.37284280554684,39.61388746235956],[-122.37325562103484,39.612521031771706],[-122.37286390024131,39.61096898406602],[-122.37239246739466,39.61034801620141],[-122.36994509793399,39.607142078498086],[-122.36845337470896,39.604136553306354],[-122.36799540954549,39.603215956901884],[-122.36728654091478,39.602228589299415],[-122.36391029310377,39.59890635974606],[-122.36350427149549,39.59833777880381],[-122.36263161372035,39.597112247858895],[-122.35782983507572,39.58741372271498],[-122.35081686601826,39.57744466893198],[-122.34601783643735,39.57243783291795],[-122.34358939967373,39.568842290450334],[-122.34269106629696,39.56751440469146],[-122.34011302852453,39.56483774778866],[-122.33781158531946,39.56284843554789],[-122.33596439273529,39.560412527162676],[-122.33487814991524,39.55862790143841],[-122.3339933207934,39.55717006181915],[-122.3315159155836,39.553637875401016],[-122.32937256087513,39.54896427763518],[-122.32905687467064,39.54849216213544],[-122.3273443687256,39.54590612809258],[-122.32626339996106,39.5442732847273],[-122.32319281074317,39.54078347572632],[-122.31975002268295,39.53739894476442],[-122.31823899411486,39.536229919442306],[-122.31230755118973,39.53199857400896],[-122.3049508936516,39.52763730117683],[-122.3032311640012,39.52661956069523],[-122.30280224373892,39.52621202951904],[-122.30268822228848,39.52534281607275],[-122.30250464576584,39.52391641761476],[-122.30267290983859,39.523569175748285],[-122.30351829218789,39.521779273987306],[-122.30456947405138,39.51955212716436],[-122.30643321786835,39.51449898423681],[-122.30734128802179,39.51085357222608],[-122.30753601559113,39.5100634698193],[-122.30757122395845,39.50751132592772],[-122.30758688172985,39.50617495841792],[-122.3081182065037,39.50120948302333],[-122.30807114691115,39.49806461739053],[-122.30748506292092,39.495595649778515],[-122.30603337733186,39.492423672133235],[-122.30538871564015,39.49066183472496],[-122.30499691651819,39.489592315561325],[-122.304472496883,39.48816337656051],[-122.30329120231835,39.4843964397594],[-122.30165467021722,39.47918575597979],[-122.30070537141634,39.47709450756137],[-122.29992960986617,39.47537983730574],[-122.29964048216469,39.47426369404153],[-122.29900927784074,39.47181800554985],[-122.2981139406021,39.46720558317634],[-122.29736290351569,39.463323332318836],[-122.2966854861759,39.46142359631091],[-122.29538947008326,39.45894564858591],[-122.29466445552,39.45755169491927],[-122.29408539200554,39.45491285604818],[-122.29399143339681,39.4533864782686],[-122.2938445255713,39.450904819048525],[-122.2941471658522,39.44839690884386],[-122.29565879702528,39.444856533172675],[-122.29686396832838,39.442045742552054],[-122.2985224624042,39.44099142934149],[-122.3016702423495,39.43956499221521],[-122.30303573644836,39.4385607847751],[-122.30327381370259,39.43805134972769],[-122.30414445213844,39.436180655420074],[-122.30412723668216,39.435631376221615],[-122.30410457110224,39.43509564229393],[-122.30348169831029,39.4338250010871],[-122.30232444286675,39.43300222222854],[-122.2973045921547,39.43067471394471],[-122.2947894733007,39.428510129862545],[-122.29289282095769,39.42544467717257],[-122.29250824335719,39.42366458176917],[-122.29230120246636,39.42091607895018],[-122.2913696432467,39.41659039904035],[-122.29043764325705,39.41224687917001],[-122.28996644891554,39.40860965832838],[-122.28907743811222,39.40175428255663],[-122.28696826809343,39.391650993502815],[-122.28509033871808,39.385256413336606],[-122.28492870926203,39.38469649289483],[-122.2847740881339,39.38417654506636],[-122.28477858746483,39.38413627003823],[-122.28520481167995,39.38003553067701],[-122.2855608624705,39.37665097326582],[-122.28605751455898,39.37185188723926],[-122.28613677101914,39.3693974649976],[-122.28493225680627,39.36108250797884],[-122.28490491475499,39.3574236823966],[-122.28479537342845,39.35631317153494],[-122.28457127194282,39.35392695236429],[-122.28358807517286,39.350495961816776],[-122.28178995150726,39.344211740248745],[-122.28111849192331,39.339854496632604],[-122.2812833287214,39.334766853510935],[-122.2816997027401,39.33313712793627],[-122.28179228776385,39.3327780190443],[-122.28179055720342,39.323627580626],[-122.28202167330267,39.31807845565271],[-122.28213052526388,39.31545818125127],[-122.2794476986469,39.302542207846535],[-122.27941845152698,39.30122922763092],[-122.27943921871353,39.30059888760488],[-122.27944994842503,39.30020097448235],[-122.28026947020714,39.29764349553264],[-122.28309850676318,39.292264908366825],[-122.28360832238623,39.29031631577735],[-122.28402996540272,39.28868206603726],[-122.28387802528408,39.28508825403514],[-122.28381771641824,39.28370434703845],[-122.28488890753816,39.275722471740195],[-122.28466013386256,39.269842529935836],[-122.28460544961305,39.268454068212975],[-122.28334631968623,39.25739729426455],[-122.28301959414688,39.255960290032235],[-122.28305645465255,39.25492307420487],[-122.28306744358017,39.25453414558112],[-122.28428218898149,39.24655417780503],[-122.28493398731564,39.244736954884985],[-122.28533174413984,39.244197901766455],[-122.28670289923411,39.242371645512335],[-122.28761511813647,39.241528066039244],[-122.28833429724538,39.240402093552305],[-122.29234749037293,39.234134430210354],[-122.29258239037294,39.23391109939664],[-122.29287863184258,39.2336285243457],[-122.29408591111367,39.22822217815505],[-122.29436250885483,39.22416909585643],[-122.29374035759083,39.21289065088944],[-122.29343321718689,39.20728490080889],[-122.29361027703763,39.201707236504504],[-122.28050615859466,39.20170599462647]],[[-122.411257888023,39.70073843479301],[-122.41208926566054,39.701177924909665],[-122.41319009632375,39.70258193281994],[-122.41427570559573,39.70370026305432],[-122.41265532463312,39.70551518294742],[-122.41027301677227,39.706893758528565],[-122.40824603350681,39.70797923763855],[-122.40728688880588,39.708060572047444],[-122.40454664939897,39.70807401932802],[-122.40276363183497,39.707947974681645],[-122.40120824194852,39.70787115249041],[-122.39977340117679,39.70899405648637],[-122.39828011227779,39.70869252479542],[-122.39727359750033,39.70768425755607],[-122.39732390185948,39.705506867596846],[-122.39846343608822,39.70438978050703],[-122.39893146784709,39.70329016474758],[-122.39893864172488,39.701743723014786],[-122.397277832748,39.70109682923626],[-122.39519052646213,39.70069510889526],[-122.39389269185506,39.699808743897],[-122.39188985488072,39.699686875844804],[-122.38900900818105,39.69981889133948],[-122.38832249617752,39.69937635865186],[-122.3888095035172,39.69867872567606],[-122.39101725916274,39.698336329588415],[-122.39255715450193,39.69812309418152],[-122.39489828817744,39.697434018040205],[-122.39811372900503,39.696553428958524],[-122.40192509320117,39.69565223784654],[-122.4046176064768,39.69455383360745],[-122.4061272264079,39.693599183204775],[-122.40745654172694,39.693506145852105],[-122.40886880740382,39.69364383765108],[-122.40993138632088,39.694244198581984],[-122.41009766447341,39.69630113671823],[-122.40979371403401,39.697799691621256],[-122.40984297532499,39.698942851519426],[-122.41043410901572,39.70053110842252],[-122.411257888023,39.70073843479301]],[[-122.40005274765252,39.67496622639532],[-122.40182206882211,39.676464449021815],[-122.40286924816265,39.6767836337854],[-122.40467222870144,39.677365061910514],[-122.40301626383987,39.67843879150047],[-122.40127012609307,39.67905831182587],[-122.3991906778921,39.6788799788274],[-122.39651738697673,39.67878020124934],[-122.39438546464172,39.67912118945299],[-122.39271239613896,39.67967667665015],[-122.39099582234682,39.67943304550217],[-122.38834332845097,39.679618698366774],[-122.38694453154504,39.67988268790707],[-122.38542910404514,39.67905858322482],[-122.38390639339815,39.6780111311217],[-122.38284796038391,39.67752219168715],[-122.3816597607043,39.67749608268544],[-122.38007492612196,39.67845189091352],[-122.37856718022746,39.67785993093012],[-122.37779466930235,39.67707935646176],[-122.3768960217288,39.67687334991393],[-122.37532624456054,39.67651041063461],[-122.3747060386812,39.67578060349087],[-122.37552949216705,39.67438823480916],[-122.37652584067388,39.67350197930608],[-122.37750921228856,39.67221829302185],[-122.37705232384842,39.670278695580734],[-122.37586457753993,39.668478316096184],[-122.37445117744359,39.66668235797153],[-122.37370898135514,39.66486894541965],[-122.37367318982177,39.66412330982046],[-122.37436325536083,39.66290336792308],[-122.37386347268956,39.66159918948849],[-122.3730157992077,39.66081563478114],[-122.37220417031945,39.65917781945647],[-122.37184529833289,39.65775471842228],[-122.37172140897283,39.65661306574571],[-122.37151858630092,39.655356761437446],[-122.37096423692336,39.654509497162024],[-122.36994587603847,39.65327785946451],[-122.3685272091934,39.651307679041324],[-122.3680313759206,39.650119550447016],[-122.36604715493769,39.64873668681424],[-122.36886413240856,39.648838848718576],[-122.37196270346793,39.650302896734644],[-122.37451653540451,39.651214336300434],[-122.37661946669171,39.651964608752415],[-122.37870740038143,39.65225492098707],[-122.38084595073421,39.652141961699726],[-122.382685788558,39.651923033516766],[-122.3835259500211,39.652474290569685],[-122.38469113456583,39.653761034638684],[-122.3865536396065,39.65583415144027],[-122.38813621570688,39.65642459343831],[-122.39022046361086,39.6567728243005],[-122.39201735092534,39.65718474033994],[-122.39302478034274,39.65824660650896],[-122.39352127397107,39.65943906033289],[-122.39200455810885,39.66033556314331],[-122.3909877835397,39.66076205412288],[-122.38910469767558,39.6616120236378],[-122.38752593956,39.66274207800691],[-122.38743759617608,39.66411573404918],[-122.38887753222967,39.66494131695992],[-122.39097524991453,39.665517181710214],[-122.39343786251368,39.66768577995018],[-122.39578433556139,39.670549375255746],[-122.39828331029135,39.67346346908123],[-122.40005274765252,39.67496622639532]],[[-122.32782940857356,39.59265180323816],[-122.32869967243322,39.59400265263734],[-122.32989737629629,39.59437320891459],[-122.33169788510945,39.59496012799145],[-122.33166882535826,39.59604661595722],[-122.33090211207687,39.59703979201487],[-122.32934894930938,39.59713631087111],[-122.32824836773852,39.597277828488956],[-122.32771039757542,39.59855265259912],[-122.32917795990143,39.59994586902123],[-122.33050815853619,39.601748324064985],[-122.32848673435198,39.60276978907935],[-122.32680371273953,39.603154678639946],[-122.32549630157727,39.60370677839375],[-122.32507490973047,39.60428680594493],[-122.3227670850033,39.603946148020604],[-122.32058376492805,39.60296862611307],[-122.31899922521652,39.60226125770497],[-122.31704115846593,39.60145365566034],[-122.31529057102188,39.60189781579205],[-122.31418785390653,39.60215540518518],[-122.31284724308782,39.60184108601162],[-122.31212174222009,39.60048735133858],[-122.31282475237596,39.599665294561326],[-122.31345500951922,39.598737343381444],[-122.31214518461734,39.59756441174575],[-122.30954996732886,39.59562472169013],[-122.3076086814961,39.59515632485199],[-122.30638148609663,39.5942141267073],[-122.30609574978644,39.59267334447659],[-122.30603528051408,39.591302646686856],[-122.30600249386991,39.59044529353996],[-122.30521491929932,39.589316134418226],[-122.30629515107707,39.58871933997684],[-122.30853854116664,39.58923577322959],[-122.31055653959223,39.589756379898844],[-122.31191344201989,39.590409999906676],[-122.31310571292661,39.59061097911298],[-122.31426648386396,39.590182471321235],[-122.3130850388228,39.58849325492516],[-122.31141319115565,39.58738968809386],[-122.30935290780477,39.58589127150539],[-122.30713894744572,39.58428854016296],[-122.30493800378503,39.58290883002409],[-122.30273718750905,39.58153368729839],[-122.30122496497638,39.58071299146961],[-122.30020861475641,39.57947633355361],[-122.29995227633732,39.57868130932963],[-122.30209276533444,39.578511585258774],[-122.30380637120912,39.57893073349377],[-122.30546164254163,39.57951631185184],[-122.30688418289688,39.58005705243189],[-122.30866207200845,39.58012640132621],[-122.3090009160233,39.57931568680652],[-122.30831933412269,39.57732659746113],[-122.30708738903292,39.57604046995806],[-122.30622490650028,39.57491718156558],[-122.30565542196517,39.57373029711875],[-122.30558578252561,39.57206929327212],[-122.30585499709994,39.57143417135814],[-122.30925074466774,39.571464142190635],[-122.3111070534179,39.57164368575025],[-122.3126049486677,39.572008683034404],[-122.3150580567887,39.57240480669395],[-122.31680259310637,39.57179092444739],[-122.31900493406525,39.57139184124093],[-122.32113768653669,39.57116829069682],[-122.32258786796737,39.5722178179549],[-122.3234612021784,39.57185272653988],[-122.32485962905346,39.57181726010537],[-122.32605235980499,39.57368041069037],[-122.32733649805354,39.57605123161858],[-122.3280995180681,39.58004062483629],[-122.32788285969056,39.583597329832145],[-122.32808334438418,39.58662773225239],[-122.32823115619523,39.59000315807997],[-122.32814743367341,39.59155538659496],[-122.32782940857356,39.59265180323816]]]},"properties":null,"id":"0"}
]}