{"type":"FeatureCollection","features":[{"type":"Feature","geometry":{"type":"Polygon","coordinates":[[[-122.38147147154666,41.77830685684804],[-122.38176698301353,41.77818847814277],[-122.38185574139366,41.77818314354903],[-122.38228293567305,41.778157670740605],[-122.38286566639874,41.778177596472275],[-122.3833364343954,41.77818013729645],[-122.3838748850091,41.778149483207976],[-122.38425768857496,41.778082910764816],[-122.38443626667195,41.77805176053383],[-122.38472818155033,41.77800305968746],[-122.38513112255377,41.77807230279383],[-122.38533211943185,41.778199470024674],[-122.38539853221928,41.77824153119735],[-122.3856662725795,41.77837718342773],[-122.38611462096272,41.77837959912087],[-122.38694331765393,41.77846796632219],[-122.3876836350563,41.77842150294614],[-122.38833493355799,41.778307577044664],[-122.38905442779088,41.77809319422192],[-122.3894135647739,41.77804475255843],[-122.3897749551295,41.778046797918066],[-122.39018191268606,41.778094688039914],[-122.3905893278539,41.77809687343943],[-122.39079398170027,41.77800643909036],[-122.39093784718163,41.77786997550984],[-122.39116353149818,41.77770340141871],[-122.39132872017083,41.77747554491094],[-122.39137160200903,41.77724698071529],[-122.39137278614402,41.777125020993445],[-122.3913128180589,41.77700270721014],[-122.39113207219704,41.776727222381886],[-122.39085347925214,41.776387730648985],[-122.39069338193845,41.77608186583843],[-122.39061473839946,41.775776477997475],[-122.39059030401145,41.77549165282058],[-122.39040377049508,41.77510433576216],[-122.39027071508438,41.77481896268056],[-122.39016314629414,41.77469635330487],[-122.38978714463948,41.774247039245004],[-122.38962919020882,41.77371751072056],[-122.38952706553592,41.77317017479138],[-122.3894652644234,41.77259929978464],[-122.38953585262115,41.77224720288993],[-122.38978700818531,41.77176188947822],[-122.38994614686065,41.771527770564994],[-122.39019600228902,41.77119351196949],[-122.3904226471243,41.77092618115465],[-122.39058281796396,41.77059141126755],[-122.39073966502504,41.77018284857541],[-122.39076593300163,41.77014879200355],[-122.39079354899343,41.77011914382129],[-122.39099277863228,41.76990549409996],[-122.39110608413465,41.76977187240708],[-122.39144354693951,41.769639364730445],[-122.39176790043398,41.76967348634806],[-122.3921603971488,41.76969352476732],[-122.39263086239167,41.76972955584326],[-122.3930360690265,41.769547054811724],[-122.39370886754736,41.76951710562885],[-122.39420162510761,41.7694754334833],[-122.39426973735569,41.76946970764908],[-122.39473996847214,41.76952249910851],[-122.39488605365693,41.769557516333],[-122.39545579097653,41.76969413212083],[-122.39566794948087,41.769701216179826],[-122.3959033504369,41.76978043051547],[-122.39595919335464,41.76977022284236],[-122.39608289365648,41.76974777745738],[-122.39682617012674,41.769382444938344],[-122.39704988461789,41.76933044528976],[-122.39732033822361,41.76926751812799],[-122.39801612477876,41.769187303025475],[-122.39853246477912,41.769106096626416],[-122.39887043394091,41.768906536525776],[-122.39925460887737,41.768572891916165],[-122.39955003834118,41.768154889584864],[-122.39982280751022,41.76778855834939],[-122.4000482015539,41.767620462325084],[-122.40034156412254,41.76740384044247],[-122.4006363339994,41.767036212710046],[-122.40099667107712,41.76685339557773],[-122.40158143943438,41.7666550273422],[-122.40196572308507,41.7663046490018],[-122.40215357129287,41.766108259020314],[-122.40252883225207,41.766022299612175],[-122.40313554036244,41.765857572000385],[-122.40340652002156,41.7657004327889],[-122.40345105649358,41.76567467239725],[-122.40370680069914,41.76553991159319],[-122.40376642526047,41.765508514522026],[-122.40408220651136,41.76529191746559],[-122.40424054820129,41.7651417361983],[-122.40421952102027,41.76499063319591],[-122.40428812238422,41.764839899445185],[-122.40442489816705,41.764605717342455],[-122.40467419232796,41.76430485929711],[-122.40482958736078,41.764160954031176],[-122.40509975498773,41.76403650765043],[-122.40540342576396,41.763924781246786],[-122.40567324378925,41.763838008657906],[-122.40597688944683,41.763726361377834],[-122.4062967724393,41.763665171363925],[-122.40648281427121,41.763540230277926],[-122.40673536771946,41.76350371362742],[-122.40683668272594,41.76345389470059],[-122.40687576537805,41.76335399036948],[-122.4069055336173,41.76327803964369],[-122.40703978968139,41.76330387279968],[-122.40724190199185,41.76335561005043],[-122.40745893263562,41.763431932918074],[-122.40771074441837,41.763458402859264],[-122.4080300781453,41.76346635956706],[-122.40818196412948,41.76340417765899],[-122.40836861039476,41.76322895409193],[-122.40841915255696,41.76303434049662],[-122.4087262906049,41.76271471768246],[-122.40901340086346,41.762577812851525],[-122.40916207571253,41.762508587459386],[-122.40933416362896,41.76242831607998],[-122.40957100037573,41.76226596645292],[-122.40979631098067,41.76207203037714],[-122.4101955395637,41.76199231629764],[-122.41036460875826,41.76187982407834],[-122.41075293431864,41.761705644060356],[-122.4111764787046,41.761439586509866],[-122.4113286056355,41.76134261504627],[-122.41161644990441,41.76103039110291],[-122.411921029255,41.76080537079462],[-122.41235945606003,41.760656606328595],[-122.4130695065621,41.76021969491697],[-122.41364364919686,41.759933142763884],[-122.4142326398242,41.75987321554157],[-122.414371740666,41.759847055391724],[-122.41475456897987,41.759775201920824],[-122.41500828827884,41.75960026525668],[-122.41507731329699,41.7593991667465],[-122.41506352346136,41.75907189143856],[-122.41510090137724,41.75885786039922],[-122.41526960242003,41.75859464100361],[-122.41547376442037,41.758318771279356],[-122.41552623503672,41.758092513693896],[-122.41547842634618,41.75780277914386],[-122.4155201057273,41.75763045035738],[-122.4155483407292,41.75751361721505],[-122.41556883156538,41.75747171471478],[-122.41563401943833,41.757337879470626],[-122.41580375865118,41.757149974563426],[-122.41602819930351,41.75690703212506],[-122.41605839146362,41.756874296965506],[-122.41613187987006,41.75683661596699],[-122.41644677982838,41.75667489019672],[-122.41685166109626,41.75652592460297],[-122.4170385414211,41.756312915621265],[-122.41717508336897,41.75607441998541],[-122.41721046754324,41.75588585065082],[-122.41727928833079,41.755709943123755],[-122.41738167128219,41.7555342838075],[-122.41751873223836,41.755251770899946],[-122.41764091114958,41.75474896286187],[-122.41774439038267,41.75445998980291],[-122.41776310223669,41.75425237981207],[-122.41759685569549,41.75405011644213],[-122.41733259705171,41.75387570083255],[-122.417212585465,41.75379649431315],[-122.4169801132545,41.75346804226026],[-122.41679836046481,41.75312725329073],[-122.4167998298509,41.75296191692233],[-122.41680036259477,41.75290076366471],[-122.41681997704751,41.75259880261606],[-122.4168552254608,41.75241014653914],[-122.41687430742496,41.75215850602035],[-122.41687639850521,41.751931993927734],[-122.4168546350357,41.75185605979873],[-122.41681125738174,41.7517050966709],[-122.41681264492102,41.751541476038426],[-122.41703327945922,41.75131600946149],[-122.41727024252107,41.751128438147134],[-122.4175241551328,41.7509284180746],[-122.41776105543167,41.75075331134669],[-122.41789737188539,41.75055261584511],[-122.41815075664837,41.75041542730373],[-122.41818794028767,41.750407576174055],[-122.41847072852843,41.75034786094047],[-122.41890906088709,41.750199026249405],[-122.41921316022028,41.75002438449311],[-122.41972028861623,41.74969966638456],[-122.42058023647513,41.7493893211707],[-122.42066136556566,41.749372800946425],[-122.42100127973939,41.74930339823251],[-122.42159017228693,41.74923076381132],[-122.42199399017329,41.74918248222156],[-122.42241406240383,41.749184634114634],[-122.4224784831207,41.74918656167352],[-122.42291817754683,41.74919972358107],[-122.42338879275428,41.74920210158474],[-122.42382548733673,41.74922945691849],[-122.4242293303412,41.74918108444407],[-122.42451562457772,41.74913217571397],[-122.42470210012621,41.748944337373075],[-122.4251422069293,41.748594101519686],[-122.42546359227377,41.748356660827696],[-122.42587083273331,41.74793070433504],[-122.42604240089375,41.7475413488962],[-122.42624699064685,41.74721514642439],[-122.42632439746181,41.747152285081945],[-122.42641624221211,41.74707747355256],[-122.42655578776666,41.74696659827435],[-122.42680376181396,41.74697882155518],[-122.42707256444572,41.746980151746236],[-122.42739362558272,41.74678029140281],[-122.42742635924469,41.746755173239606],[-122.42776597835481,41.746492721214416],[-122.42815317799678,41.74641912683095],[-122.42819967660496,41.74641265043264],[-122.42902816009385,41.746297506621445],[-122.42976886960295,41.7461493717599],[-122.43082982270803,41.745928845888876],[-122.43121539448688,41.74578130171977],[-122.43125145945098,41.74576735582497],[-122.43163969202622,41.74558053724168],[-122.43196097360415,41.745355554449574],[-122.43211350304178,41.74520521422741],[-122.43221554902483,41.74506729563955],[-122.43230353677818,41.74462723707885],[-122.43237871526085,41.74450848839403],[-122.43242273847511,41.74443903083092],[-122.43246559074133,41.7444042020414],[-122.43259203067896,41.74430140867815],[-122.43271114201818,41.74413834012531],[-122.4331147442039,41.74411517879808],[-122.4335681372459,41.74412995617038],[-122.433806851196,41.744124290310566],[-122.43400531001946,41.7441195457051],[-122.43447735243623,41.74409907721017],[-122.4345264549388,41.74409689948736],[-122.43496311954904,41.74413678980304],[-122.43499660200646,41.744149279048365],[-122.43581751888865,41.74445577224684],[-122.43670775306477,41.74451044111486],[-122.43727831111669,41.74460131636516],[-122.43778195319489,41.74466675692662],[-122.43823629133905,41.74460603405166],[-122.43901022266603,41.744509116567905],[-122.43912201134619,41.744481800130494],[-122.43931344318233,41.744435120284805],[-122.43954815326259,41.74449915369934],[-122.43969145319036,41.74455090686411],[-122.43986645807664,41.74461395256867],[-122.44043673869689,41.74474267540632],[-122.44104150089511,41.744770754976464],[-122.44160369990234,41.74478584301213],[-122.44223429760541,41.744826915132634],[-122.4424020262739,41.74486546142504],[-122.44259449626331,41.74512160694153],[-122.44290167777433,41.74538391908077],[-122.44332054839423,41.74553701967839],[-122.44369017205315,41.745551415834015],[-122.44447922769437,41.74565584273562],[-122.44498342413887,41.745645745668774],[-122.4457227713873,41.74567449386606],[-122.44629416022137,41.74566462064262],[-122.44669701213894,41.745729571580945],[-122.44691494590636,41.74579354930981],[-122.44738465879664,41.7458964646055],[-122.4477387758681,41.74575972639379],[-122.44794195287946,41.745584488712744],[-122.44796163222813,41.74555645544591],[-122.44819719597518,41.74522068207749],[-122.4484673661698,41.74507092105585],[-122.4491081576476,41.74482232524044],[-122.44956379136049,41.74459787342332],[-122.45037179335006,41.744450783652],[-122.45111301295971,41.744240294581935],[-122.4518034138583,41.74409256185498],[-122.45240896485744,41.744019874793096],[-122.45293012483306,41.74399719822671],[-122.45363428740279,41.7442020183354],[-122.45408487685992,41.744581758941656],[-122.45461786059329,41.74515065422635],[-122.45527088337462,41.7454306464599],[-122.4562088762116,41.74581265417834],[-122.4563239645669,41.745862689485],[-122.45679498453858,41.74606722188739],[-122.45716300432109,41.74625773105049],[-122.4577086481087,41.74635470215097],[-122.45781754451912,41.74637411097183],[-122.45849472552464,41.746467518432404],[-122.45885524141575,41.74638721099796],[-122.45901110264266,41.74635245922441],[-122.4596852604261,41.746120689344295],[-122.4601570604111,41.74597189614706],[-122.46087682060593,41.745656367062516],[-122.4616399430932,41.745508934643134],[-122.46238016516398,41.74541171286926],[-122.46334201085496,41.74563427301678],[-122.4636761024217,41.745870852504794],[-122.46445704591709,41.74627725816707],[-122.46562047552844,41.74650090265602],[-122.46694200289882,41.7465741022576],[-122.46788257685579,41.74664563582797],[-122.46853209489079,41.74668219077946],[-122.46939196088549,41.74674795604881],[-122.47074284956167,41.74682647424932],[-122.47209347504182,41.74694116068077],[-122.47359004939881,41.746911853909886],[-122.47494182582948,41.746881951869916],[-122.47571495171282,41.74677700548116],[-122.47622691448622,41.74656650308769],[-122.4765780358032,41.74645006107812],[-122.47682602244554,41.74636783997908],[-122.47766689148635,41.74585700025396],[-122.47883635330327,41.745325287409756],[-122.47973651378399,41.74485946326624],[-122.4804254330561,41.74463881801482],[-122.48093532600639,41.74439503871574],[-122.48130201549965,41.74385684275385],[-122.48137179311753,41.74353827970717],[-122.4815977450229,41.74330440533751],[-122.48173373688867,41.74310352162919],[-122.4820941003446,41.74287026880835],[-122.4822067085964,41.742803607526795],[-122.4824526173885,41.74287184780887],[-122.48267696935511,41.742839263279016],[-122.48321569925946,41.74272423767843],[-122.48340226902147,41.74266325323984],[-122.4836201480688,41.7425917801337],[-122.48409059099029,41.742610748743246],[-122.48496433145583,41.74263140024902],[-122.4850596882562,41.7426370471945],[-122.4858826264097,41.74268591540768],[-122.48684599723745,41.74269020977059],[-122.48751898709637,41.74260928489498],[-122.48803663557872,41.742326322678224],[-122.48835074040443,41.742260572190524],[-122.48860654276446,41.74217254926919],[-122.48868780284731,41.74214457345302],[-122.48878341928277,41.74214500853281],[-122.48915838930887,41.742146702660406],[-122.48998801400016,41.742083211196416],[-122.49068424050216,41.74186815243056],[-122.49115800031257,41.74146746507804],[-122.49123890239188,41.741367910258276],[-122.49142956139802,41.741133090529786],[-122.4915208633818,41.74091527948398],[-122.49190348364256,41.74069881364138],[-122.49224148059997,41.740465343185825],[-122.49255716292991,41.740215060234554],[-122.4930094834392,41.739679975325515],[-122.49350650247422,41.73916187048825],[-122.49364544764552,41.738591941233885],[-122.49368542657528,41.73832930805106],[-122.4937399447721,41.737971427018586],[-122.49383249797751,41.73765167174672],[-122.49392422717958,41.73733452243756],[-122.4940367311914,41.73713564351031],[-122.49415143059058,41.736932775633186],[-122.49442204333003,41.736715722812306],[-122.49493858144824,41.736550163746685],[-122.49581351714694,41.73640306807655],[-122.4961304763055,41.73637702096444],[-122.49639643678259,41.73635524836331],[-122.49704672375755,41.73629094019628],[-122.49727683563235,41.73641896969022],[-122.49738142518076,41.73647703402728],[-122.49759690324916,41.736605447862246],[-122.49769357650828,41.73666294215014],[-122.49800529890963,41.73691605847839],[-122.49831719635742,41.737135585051085],[-122.49869675260679,41.73732183966206],[-122.49889067182842,41.737359104904115],[-122.49914419616836,41.73740774872313],[-122.49954002164208,41.737409454947056],[-122.49965944078265,41.73740995903197],[-122.49979268198568,41.737429007942616],[-122.50026381110241,41.7374965069796],[-122.50088273914736,41.737546518766074],[-122.50136092650739,41.73758519908333],[-122.50172348465483,41.73758680824123],[-122.5018090729654,41.737587179737766],[-122.50225728248132,41.73757229648077],[-122.50299858166397,41.737323759599875],[-122.50339479399082,41.73712322468444],[-122.50342604146041,41.73710747640801],[-122.50416592356636,41.737043540637764],[-122.50463933882384,41.73665959069864],[-122.50484457689281,41.736198992380324],[-122.50518658887096,41.73542842432113],[-122.5054617147,41.73497170827332],[-122.50564035761019,41.73467521173686],[-122.50591462107423,41.733971505734374],[-122.50627849144982,41.73328498750565],[-122.50662059476615,41.73248096878576],[-122.50682907768369,41.7315923743336],[-122.50686203565976,41.73111335685066],[-122.50679174597138,41.73084193891238],[-122.5061837619257,41.72989041801832],[-122.50507785490893,41.72779808011891],[-122.50464898036915,41.72709135068228],[-122.50443681910214,41.72643976217991],[-122.50447774704078,41.72581635039426],[-122.50455371524357,41.725355789360115],[-122.50499292191488,41.72470698716146],[-122.50525168679756,41.724003231851704],[-122.5054017173379,41.72332607047616],[-122.50580661945905,41.722433121811655],[-122.50663747929165,41.72148873071109],[-122.50733607406833,41.72095468275286],[-122.50812403509686,41.72042103625221],[-122.5089445426894,41.720110064115296],[-122.50898274526457,41.7200959212609],[-122.5097635366745,41.71986580557992],[-122.51043674461859,41.719717684444326],[-122.51104330513508,41.71946849355748],[-122.51123600380708,41.719300256494364],[-122.51167480341289,41.718917377869694],[-122.51208019161625,41.71861702698163],[-122.51239579059975,41.71834985992695],[-122.51277884729947,41.718049404668015],[-122.51334180194439,41.717648953743264],[-122.51374883138094,41.7171472380176],[-122.5139529719328,41.71679568984516],[-122.5141230712835,41.716502788841225],[-122.51425386237813,41.71623711945127],[-122.51429708994894,41.71598936798876],[-122.51436128598752,41.71569509024427],[-122.51454889193204,41.71550994979895],[-122.51513108063881,41.715109412053735],[-122.51538116232817,41.71486255210816],[-122.51544451640358,41.714692381569776],[-122.51544564600026,41.7145373761243],[-122.51553035631815,41.71427422900931],[-122.51569806947757,41.71398048382667],[-122.51598995529505,41.71367172057511],[-122.51657272814622,41.713186027511924],[-122.51674109653094,41.71279920501161],[-122.51684607133832,41.712582708182175],[-122.51695113469883,41.71236618411068],[-122.5170565182768,41.7121031602853],[-122.51724618119334,41.711639053053084],[-122.51741524553353,41.71115929792862],[-122.51781304738613,41.71051000413834],[-122.51816665738909,41.710248008237755],[-122.51847900652129,41.709954948968246],[-122.51885363689283,41.70964648502217],[-122.51937744081843,41.70916139857061],[-122.51943682669753,41.70910651483468],[-122.51978971635762,41.708921949362406],[-122.52045445237434,41.7085373455131],[-122.52145051239529,41.70809200952202],[-122.5219671238719,41.70798196645137],[-122.52273480659343,41.707818382226066],[-122.52325280253501,41.70769655003867],[-122.52372964924467,41.70755906123964],[-122.524620073229,41.707392296462025],[-122.52563607910264,41.707039971235666],[-122.52627922237866,41.70676366208452],[-122.52637495940697,41.706705089850644],[-122.52644681825288,41.70666110627104],[-122.5267569863434,41.70647116508202],[-122.52725653861717,41.70603923807979],[-122.52763168225924,41.705637864721005],[-122.52787455974828,41.70529273294528],[-122.52790346298522,41.70525152562026],[-122.52811247767359,41.70495788161041],[-122.52846855292995,41.70433943813246],[-122.52876122097408,41.70390675440073],[-122.52893008782245,41.7034424581959],[-122.5291412656908,41.70285434427792],[-122.52924648697059,41.702591321848615],[-122.52924833458485,41.70234341335854],[-122.52927020522499,41.702172945344174],[-122.5293127381577,41.70201817674697],[-122.52960347148634,41.70184888051093],[-122.52974829913624,41.70183395238295],[-122.52991457973388,41.70172617817985],[-122.53008072817973,41.70163381160385],[-122.53041242795778,41.70151124286254],[-122.53062040368994,41.7013726243636],[-122.53070354257298,41.70134460305653],[-122.53084837887923,41.70129601143642],[-122.53117009720559,41.70123418763974],[-122.53150510164619,41.7011876170105],[-122.53191037497298,41.701079050911105],[-122.53216928624543,41.70085975468728],[-122.53227977627982,41.70050594493755],[-122.53231647451017,41.70044500148195],[-122.53100532080188,41.69998125749527],[-122.53008639812583,41.69991479504929],[-122.52961457094199,41.69978893357835],[-122.52897434149516,41.69961800759787],[-122.52802881750657,41.69938443117287],[-122.52722306471324,41.69910979653357],[-122.52655551832522,41.69898175775478],[-122.52614205382238,41.69886783933227],[-122.52572455225233,41.69880348691236],[-122.52526445701427,41.6988641982849],[-122.52465737226447,41.699033944066436],[-122.52396664120651,41.69920332654545],[-122.52361091184339,41.699280140566295],[-122.52289994815851,41.69937112580015],[-122.52262781713729,41.699432653880784],[-122.52241702086447,41.699431809760455],[-122.52237706698067,41.69943151312402],[-122.52208404165998,41.69932940627407],[-122.52187692529513,41.699257305934026],[-122.52166889311522,41.69914679266674],[-122.52141887169383,41.699051771801095],[-122.52096075391175,41.69886198802142],[-122.52041909432963,41.69864049686325],[-122.51971086364622,41.6983557943073],[-122.51946099043418,41.69824507016657],[-122.5188768048745,41.69814868548346],[-122.51858512724613,41.69803788331328],[-122.51846073400928,41.69789649764666],[-122.51827475586886,41.69792027081051],[-122.51766539996274,41.69811233975169],[-122.51745592216542,41.698174058951984],[-122.51714067615204,41.69842326568437],[-122.51670020620703,41.69865630099302],[-122.5162601722063,41.698826645406776],[-122.51586286487847,41.69888762148321],[-122.51559212100727,41.698776911922906],[-122.51553133149392,41.69851040270808],[-122.51550854733067,41.698480671699116],[-122.51533140542517,41.69824858885873],[-122.5151669767102,41.69787216816304],[-122.51477819341352,41.69772436075726],[-122.51416715273848,41.69749212194861],[-122.51350040834733,41.6972596681108],[-122.51308338954306,41.69713264976196],[-122.51247177003006,41.69696306570873],[-122.51241766294001,41.69695261567489],[-122.5122493337333,41.6969203144179],[-122.5122239419248,41.696586143565334],[-122.51226691449197,41.696422577376026],[-122.51233874610465,41.69614826794405],[-122.5122868864315,41.69564699358564],[-122.51204078874152,41.69504050723535],[-122.51209893851643,41.69470675295022],[-122.51218556572697,41.694310368669626],[-122.51210461561259,41.69395511401772],[-122.51197060285146,41.693265557984226],[-122.51185257724997,41.69279806948138],[-122.51175415553358,41.6924087900071],[-122.5115649829757,41.6916563417048],[-122.51155232999129,41.691597298055164],[-122.51140348884597,41.69090407145914],[-122.5112309742642,41.690451961809025],[-122.5110577010058,41.69039527228413],[-122.51097216765656,41.69036749250411],[-122.5106475512084,41.69026157987384],[-122.50964450582597,41.69029902844768],[-122.5090313651416,41.69032883283797],[-122.50836231691957,41.69043974004268],[-122.50826203257739,41.6905582240714],[-122.5082217728457,41.69060607349886],[-122.50791491717686,41.690667431555596],[-122.5076078438272,41.69074962887343],[-122.5069097176238,41.69099720906738],[-122.50637773650847,41.6913497425746],[-122.50553888931762,41.69178454436001],[-122.50531438421952,41.69199236761156],[-122.5048099106339,41.69240779352268],[-122.50455572431376,41.69286593700304],[-122.50449291231831,41.69339107986816],[-122.50426873371299,41.69369893468924],[-122.50414254131519,41.69387206399346],[-122.5040274341458,41.694074161236955],[-122.50344391101429,41.69414069754465],[-122.50332123378429,41.69415465098418],[-122.50276324211622,41.69426357203023],[-122.5016124774326,41.69420291003866],[-122.50053582363284,41.69414255665334],[-122.4991624620853,41.69405305013928],[-122.49804867803607,41.69399257187548],[-122.49741683477599,41.69407333462488],[-122.49708156986131,41.694183136922575],[-122.49696931793032,41.69429398570513],[-122.49651979205213,41.69479305900552],[-122.49614478127728,41.69523681576247],[-122.49600604065009,41.695768567598385],[-122.49597559822101,41.6961025146136],[-122.49580530996693,41.69651932733801],[-122.49575796176391,41.696589164847154],[-122.49572076782151,41.69664423315181],[-122.49560272602334,41.696562206527226],[-122.49519312735325,41.696433152336404],[-122.49488704450692,41.69611826165467],[-122.4946671075662,41.696013248516294],[-122.49436135848238,41.69592843373872],[-122.49391805662465,41.69563420922095],[-122.49382650051214,41.69557459837476],[-122.49353010664723,41.695381867044446],[-122.49333476091553,41.695422817281205],[-122.49288732848387,41.69565051536471],[-122.49238258565285,41.6960867267996],[-122.4921570373421,41.696419701169646],[-122.49173658616336,41.69673101946717],[-122.49114835234055,41.697166869125574],[-122.49055924864302,41.69768622912548],[-122.48996938082544,41.69830991452383],[-122.48946453883576,41.698746008409934],[-122.48936005675833,41.698823454468524],[-122.48924032170243,41.6989120884857],[-122.489035338685,41.69889317144704],[-122.48854437445581,41.698846284083764],[-122.48801644150947,41.69867694046033],[-122.48760125068483,41.69836193134857],[-122.48741454283862,41.69822042290037],[-122.48735190688313,41.698172941191395],[-122.4871611780987,41.69806503414009],[-122.48693313308219,41.6978605324185],[-122.48649520235593,41.697764612624894],[-122.4853691344968,41.69749340031947],[-122.48417787351143,41.69755078884265],[-122.48286076759011,41.69765439243502],[-122.48189941420256,41.69771270352508],[-122.48093771718234,41.69780227049147],[-122.47997397814908,41.698126809406396],[-122.47903091670491,41.69848261280887],[-122.47863072598714,41.6988878733533],[-122.47831641206847,41.69901174882282],[-122.47814826018649,41.69912057077949],[-122.47793798548017,41.69927620799477],[-122.47774824565133,41.69960271846871],[-122.47759875516076,41.69990099971942],[-122.47740929139461,41.70007229283388],[-122.47696720769298,41.70049313949678],[-122.47686032593634,41.70079009517316],[-122.47683795567714,41.70097790285456],[-122.47664861426708,41.70113357887296],[-122.47635485497035,41.701288838810605],[-122.47604071321382,41.701381421101495],[-122.47583174655205,41.70138048318915],[-122.47553958976533,41.70133211555764],[-122.47526866674048,41.701268184573955],[-122.47519503461545,41.70123843312227],[-122.47505153922836,41.70118029877933],[-122.47495633026574,41.70114156949834],[-122.47495101456656,41.7011150170323],[-122.47491613663405,41.700937848441015],[-122.47458474938965,41.70056053133989],[-122.47433597438214,41.70034024688761],[-122.47417003444156,41.700182936413455],[-122.47402491057619,41.70004128098706],[-122.47396465525392,41.69975921362825],[-122.47367295237285,41.699663821155674],[-122.47335973936913,41.69964675716953],[-122.47275417104755,41.69961268914075],[-122.47252910036622,41.69961164454144],[-122.47204377641212,41.69960941125154],[-122.47129202496714,41.699559008167945],[-122.47089491012275,41.69957284434554],[-122.47053882681692,41.69969643419481],[-122.47020377176757,41.69978887540595],[-122.46959686517911,41.699895634173934],[-122.46907280559994,41.70011245946389],[-122.46854841083146,41.70037619551287],[-122.4680656092277,41.700640167977895],[-122.46760552468966,41.70070065715437],[-122.46697788442579,41.70079171547771],[-122.46601506627326,41.7010064623428],[-122.4654362178288,41.7010133417831],[-122.46507488743845,41.701017744382355],[-122.46498069573286,41.70107639798404],[-122.46467584406221,41.70126641879186],[-122.46446462773713,41.70154723500167],[-122.46435826733595,41.701766028913184],[-122.46421145163,41.701827926650374],[-122.46379208122495,41.70201376032182],[-122.46368636680931,41.70216996361421],[-122.46345579058556,41.70226278860267],[-122.46314165728106,41.70235524655964],[-122.4628694825799,41.70240094809624],[-122.46263917395883,41.702462529342085],[-122.46234553334818,41.70260204656427],[-122.46180162884909,41.70267787082871],[-122.46134116588036,41.70278532651733],[-122.4610893906415,41.702909271244586],[-122.46071259638363,41.70298582655816],[-122.4603151249609,41.703062257457134],[-122.45960433210816,41.703105954762506],[-122.45876857436544,41.70308636791185],[-122.45807918261893,41.703098791720315],[-122.45722186618933,41.703173035873114],[-122.45667798247811,41.70324874890376],[-122.45632213089192,41.70332532481455],[-122.45550675247331,41.70338403725318],[-122.45464911122664,41.70350538615113],[-122.45397992135489,41.70356471445212],[-122.45316424032781,41.703670454673436],[-122.45253666135382,41.70376138814723],[-122.45174225078158,41.70382031867748],[-122.45126145956104,41.70384923047029],[-122.45089988627132,41.703948946555315],[-122.45075879117744,41.7039878772425],[-122.45045977871284,41.70415691169372],[-122.45040174993841,41.70418964634866],[-122.4498976961398,41.7045004479792],[-122.44962510338995,41.70462434890279],[-122.44937473121419,41.704560512904294],[-122.44893865508405,41.70426095478993],[-122.4482732156194,41.70388200603769],[-122.44813084292744,41.703790938496546],[-122.44787452791718,41.70362717763061],[-122.447570528068,41.70344680939024],[-122.44732004374983,41.70341423613858],[-122.44662376326373,41.70338999417708],[-122.44587248674588,41.70328197286484],[-122.44551369408309,41.702904412791156],[-122.44540437770787,41.70265343055315],[-122.44524235192075,41.7020680742203],[-122.44502610633138,41.70129465286343],[-122.44480881096464,41.7006042856044],[-122.44461747422002,41.70020693613182],[-122.44456867456381,41.7000173030405],[-122.44453671827758,41.699893429402636],[-122.44445528528573,41.69964251377179],[-122.44434609776069,41.69937060226272],[-122.4443197472662,41.69920342722456],[-122.44432278708464,41.6988486279084],[-122.4442963035658,41.698681351030395],[-122.44418840925947,41.698284221226785],[-122.44404874511719,41.69791811253621],[-122.44398724346249,41.697776959447545],[-122.44421844869663,41.69762147949165],[-122.44455401953999,41.69746653497406],[-122.44484826572202,41.69726446020045],[-122.44505876361758,41.697077568126986],[-122.44537357458292,41.69690680145744],[-122.44570922707148,41.69675182726869],[-122.44604486213014,41.696581209969345],[-122.44587853679448,41.69650218888307],[-122.44567068919139,41.69637588329518],[-122.44550475228337,41.69623415100487],[-122.44519243071116,41.69610741952071],[-122.445004843285,41.69605946050689],[-122.4446086324496,41.695979250457405],[-122.44431739824378,41.69583694005114],[-122.44402569615308,41.6957416449686],[-122.44375524178527,41.695615074191174],[-122.44365095459891,41.695598867410354],[-122.44337844829525,41.695691486390785],[-122.44302308618533,41.695721136337355],[-122.44210341613982,41.69577927968028],[-122.44187321391237,41.695825124104005],[-122.44164284618962,41.69588666677603],[-122.44141271917252,41.695916839593245],[-122.44103553017243,41.6960559528744],[-122.44055298577948,41.69628842548929],[-122.44036299608024,41.6965067722035],[-122.44002635940468,41.69680263479216],[-122.43987891676119,41.69694284249569],[-122.43970979480183,41.69716118260815],[-122.4395822864593,41.69741106080396],[-122.4393504424795,41.69764488843476],[-122.43909886006482,41.69773754245183],[-122.43891727663797,41.69780093316716],[-122.43870080067657,41.69787658119669],[-122.43849090794231,41.69798510067267],[-122.43805209525614,41.69799858987261],[-122.43787680391692,41.69799118882193],[-122.43763442178432,41.6979809100194],[-122.4372356698374,41.69818252928029],[-122.43716316234855,41.698220844511795],[-122.4369417811934,41.69833759283916],[-122.43666894174031,41.698492884381835],[-122.43643863570406,41.69853874625668],[-122.43589527703931,41.6985517362084],[-122.43554005541365,41.698550014772835],[-122.43542182039121,41.698511292406124],[-122.43524854710284,41.69845462656009],[-122.4349160425562,41.6982494155422],[-122.43460477171242,41.69801300987628],[-122.43431450012628,41.69776105790571],[-122.43414890733557,41.69757233633406],[-122.43398347233875,41.697383639170184],[-122.43381787071615,41.697210641999185],[-122.4335910773236,41.69686503695254],[-122.43352932413939,41.69675511745044],[-122.4334011675821,41.696802437492885],[-122.43336174448113,41.69681685380962],[-122.43300575639856,41.69690909996909],[-122.43281743784517,41.696939581320876],[-122.43260862957999,41.69693851031116],[-122.43215030569738,41.696779667075276],[-122.4314414151041,41.69661954954062],[-122.430565710189,41.696411617869444],[-122.43019952087849,41.696272168528765],[-122.42981521893651,41.69623567054341],[-122.42959427380855,41.69621890403706],[-122.42920960869219,41.69621702627975],[-122.42901844224085,41.69616797857492],[-122.42871049946226,41.69596401532647],[-122.42853443668936,41.69589038918672],[-122.42808598920948,41.695702542992095],[-122.42771203899476,41.695465748908894],[-122.4271940602085,41.69499352763607],[-122.42699016274292,41.69484739182679],[-122.42682026166801,41.69472547413507],[-122.42615367303264,41.694518587906636],[-122.42561142186088,41.6944062507127],[-122.4255283224777,41.69440578648652],[-122.42536087164581,41.69440496045058],[-122.42514758784328,41.69429080943064],[-122.42494039421734,41.69391492909251],[-122.42463917443415,41.693328944646616],[-122.42456156146196,41.692660362429216],[-122.424649785292,41.69213895906378],[-122.42479449520528,41.69153409872018],[-122.42524507059886,41.69097272689825],[-122.42533087298341,41.69072270997897],[-122.4255285005149,41.690431419091595],[-122.42558658517012,41.69016032661704],[-122.42558810868826,41.689993187655745],[-122.42543393989584,41.689904409109374],[-122.4252081203782,41.689801396681],[-122.42483382078638,41.68980794462836],[-122.42459558658749,41.689806722135295],[-122.42407343952544,41.6898636396094],[-122.42390277912264,41.68992223166289],[-122.42359607629854,41.68998025101548],[-122.42319912458719,41.6899782233638],[-122.42272441689622,41.68980585544417],[-122.42237525236017,41.68954059785603],[-122.42195866443899,41.68918996996014],[-122.42136518422103,41.688802978846155],[-122.42078482432733,41.68829900167268],[-122.4202886707907,41.68771189950183],[-122.41968459657231,41.68674846737053],[-122.41927152195865,41.686245400781694],[-122.41866420280196,41.685636832640945],[-122.41827609629674,41.68542613230633],[-122.41777713450678,41.68517307584769],[-122.4173894496653,41.684920514550946],[-122.417232527214,41.68481843645632],[-122.41700190324669,41.684668057299994],[-122.41692187097306,41.68427096615588],[-122.41681476153282,41.68379026640171],[-122.41667857210048,41.68345554753209],[-122.41667906504959,41.683401167843584],[-122.41668006909963,41.68329291452043],[-122.41668239358937,41.683038016263055],[-122.41676800818078,41.68280873584738],[-122.41693502745107,41.682486697691594],[-122.41699472551825,41.68237155439687],[-122.41730465893413,41.68197645623604],[-122.41761400485368,41.68164402431307],[-122.41800851953697,41.68112396581216],[-122.41834755330527,41.68058304516904],[-122.41835187066128,41.68010283342661],[-122.41852361182433,41.67960255767404],[-122.4186713269591,41.67915801892776],[-122.41900536124649,41.67866553182369],[-122.41928686392582,41.67833290692875],[-122.41931867919071,41.67789468396964],[-122.41937193855253,41.677573699336676],[-122.41937748449203,41.67754009216442],[-122.41963153313438,41.67716556934556],[-122.41989050088453,41.67693497409643],[-122.42038943826627,41.676490881943295],[-122.42061510281927,41.676157976198915],[-122.42086939205157,41.67576263150916],[-122.42101158672521,41.6754292428054],[-122.42137657453938,41.675076140580295],[-122.42148962262188,41.674909768396056],[-122.4214909657503,41.674763581119734],[-122.42115993474123,41.67440703930117],[-122.4209285003599,41.67419589778585],[-122.42074573169369,41.67402909922631],[-122.42049896447833,41.67358943702722],[-122.42033327937723,41.673313725597964],[-122.42019911682311,41.67287808116944],[-122.41995117012935,41.67258463279284],[-122.41953566135308,41.672332056205846],[-122.41895750208077,41.67199248291001],[-122.41882735996074,41.671930518561474],[-122.41891717751881,41.671835634717866],[-122.41910649259789,41.67168007320788],[-122.41927515984638,41.671493034368375],[-122.41940224348158,41.67130581514523],[-122.41944655049737,41.67102408881722],[-122.41953197711695,41.6708210068108],[-122.4197219695775,41.67058706323528],[-122.41984946999958,41.670337179906994],[-122.42003943572855,41.67010331902348],[-122.42016580855494,41.6699942767064],[-122.42027150432014,41.669838207386334],[-122.42035684189852,41.669650790742025],[-122.42025353039529,41.66952499606743],[-122.42014970911265,41.669461896406425],[-122.42010856570393,41.66938333763956],[-122.42002615719123,41.66925767185078],[-122.42004820625165,41.66911688441655],[-122.4200504087672,41.66888205629974],[-122.42003072817424,41.66875669675602],[-122.41999095586615,41.6685373017033],[-122.41992981150226,41.66836468102808],[-122.41984781018905,41.668192065102694],[-122.4198910634044,41.668027865106716],[-122.41985024364384,41.66791801513717],[-122.41983072971128,41.667761341023706],[-122.41974929084765,41.66754179903816],[-122.41968887562793,41.66729093695184],[-122.41958598329151,41.66713382763148],[-122.41929630819781,41.666819261669],[-122.41887283438783,41.66653754803801],[-122.41879816553345,41.66648790480911],[-122.41823797816335,41.66609357653488],[-122.41784389600924,41.66579405219357],[-122.41747022267734,41.66554163553718],[-122.4170441728715,41.665329623819616],[-122.41670145957163,41.66511507044],[-122.41656806366686,41.66509614756256],[-122.41647200340077,41.665082542415455],[-122.4162006249759,41.66508120316505],[-122.4158674802114,41.664985467753944],[-122.41549272906039,41.66485836973508],[-122.4152229483417,41.66466909874685],[-122.41494325239668,41.66450194612519],[-122.41464008535408,41.66446256701183],[-122.41449522553826,41.664456095563054],[-122.41424362956315,41.66444486206743],[-122.41399140894832,41.664398546304],[-122.41342929444254,41.66444074475066],[-122.41278197325192,41.66443742409287],[-122.41240576225726,41.66446679391536],[-122.41169537939814,41.66451015570815],[-122.41130116175609,41.6645702511533],[-122.41044009981118,41.66478557115057],[-122.40947050746672,41.66502596967324],[-122.40871775461676,41.665126489174014],[-122.40843895940239,41.66516668928119],[-122.40835412707234,41.66549406480787],[-122.40826737801736,41.66566690934966],[-122.40776544186797,41.6657478004459],[-122.40681767210756,41.665868149897975],[-122.40586976900178,41.66600942054332],[-122.40486642364456,41.666129519750555],[-122.40372308793991,41.666311409398745],[-122.40302649519656,41.666370512143956],[-122.40220855487303,41.666389706065424],[-122.4017484328008,41.66646563662382],[-122.40140860967212,41.666479692334306],[-122.40107988712376,41.66649338882326],[-122.40080807313383,41.6665390330541],[-122.40070357455186,41.66665888356307],[-122.40061794902866,41.666757228741126],[-122.40028240670803,41.66692769359536],[-122.3999263015526,41.66703547040798],[-122.39931990597952,41.66712630027197],[-122.39925570965801,41.66715244824231],[-122.39873458758211,41.66753769624668],[-122.39868528273577,41.66761305354139],[-122.39849184567751,41.667908105655634],[-122.39853701496597,41.66857482364616],[-122.39853043058167,41.66927970344053],[-122.39838248738961,41.669474603355816],[-122.39856062376248,41.66970289197969],[-122.39869510417283,41.66994705877735],[-122.39862316405804,41.67033122475385],[-122.39832942527467,41.67067572691834],[-122.39791646285235,41.670955539521685],[-122.39752126711186,41.67117138870307],[-122.39709094753977,41.671489538968565],[-122.39677984058868,41.67185960200397],[-122.39672459318092,41.67206276904443],[-122.39673531015697,41.6722839374555],[-122.3966825092964,41.67244703608799],[-122.39643603665543,41.672753345557936],[-122.39625373162545,41.67305039214649],[-122.39598176272969,41.67333734470795],[-122.3956975259364,41.67357615262259],[-122.3955286168929,41.67380601186543],[-122.39548801774919,41.67403649281191],[-122.39554994374956,41.67427710949096],[-122.39565031788399,41.674508387964956],[-122.39578865073345,41.67480704002749],[-122.39587475709159,41.675192063470305],[-122.39575621583339,41.67552783765187],[-122.39559923912017,41.67586352608527],[-122.39546869212022,41.67610307738157],[-122.39505449755598,41.67652391417175],[-122.39475673837788,41.6768299656815],[-122.39453580297786,41.67714599929159],[-122.39433963751969,41.677558333241095],[-122.39429875283822,41.67781763449225],[-122.39416811048474,41.67807168768803],[-122.3942432281627,41.67826433903725],[-122.3942023419613,41.67852364514997],[-122.3940337026797,41.67872465362664],[-122.39375056111307,41.678838493590895],[-122.3933379789217,41.67908626849503],[-122.39304163267585,41.67923845835506],[-122.39257833669951,41.67941870405764],[-122.39225704712301,41.6794939298379],[-122.39185952506254,41.67950141258258],[-122.39146197638985,41.67949933148897],[-122.39111658576469,41.679420542587316],[-122.39079599781901,41.67941890437772],[-122.3904116788202,41.679378387236284],[-122.38991199480249,41.67934689228235],[-122.38938688228636,41.67927679623768],[-122.38910523058331,41.67923687800531],[-122.38886241890877,41.67914907145734],[-122.38860588663468,41.67914770217989],[-122.38806601775859,41.67929856790348],[-122.3874103624749,41.67947779695344],[-122.38671581884594,41.67970477673832],[-122.38630390902252,41.6798660224933],[-122.38590602778804,41.67991194794515],[-122.38544454757302,41.67989980888649],[-122.38513717378363,41.679859799067344],[-122.38482967073105,41.67982932643007],[-122.38463784110172,41.67977059880429],[-122.38440747541172,41.67974052000667],[-122.38397050730966,41.67983432708393],[-122.38357184976965,41.679966691861054],[-122.38305798943698,41.680060094317106],[-122.38259605802651,41.68009608091014],[-122.38195420663989,41.680169519999616],[-122.38129936243087,41.68026209581086],[-122.38064436505368,41.680373928231276],[-122.38019380781269,41.680554181940224],[-122.3794476090274,41.68081928581605],[-122.37890806195749,41.680931711101486],[-122.37845903063176,41.68093892074661],[-122.37811283821267,41.68093704697937],[-122.37772735576114,41.68103111862634],[-122.37728934033326,41.681240281492684],[-122.37714763056543,41.68130667689443],[-122.37700367187755,41.681613545238726],[-122.37679502071528,41.68196803664694],[-122.3766516534224,41.682217227247925],[-122.37634015580275,41.68259044635257],[-122.37618453907895,41.68277219297678],[-122.37598969055266,41.68304030030825],[-122.37584726488164,41.68318377613058],[-122.37582010219118,41.68334699179127],[-122.37575295402215,41.68365423032292],[-122.3757104046068,41.684076975094676],[-122.37564407278732,41.68429767877375],[-122.375551570107,41.68458565662135],[-122.3754338487357,41.684825247889265],[-122.37535515872555,41.68499790041109],[-122.37531461902593,41.68521392044447],[-122.37522182420992,41.68553070873795],[-122.37502542901716,41.68596217007065],[-122.37495915686434,41.68618293654609],[-122.37480276647052,41.68643200775156],[-122.37476200054493,41.68667207042985],[-122.37459112291208,41.68709411759956],[-122.37448549899342,41.68741071990413],[-122.3743935139489,41.68763133303237],[-122.37413155304904,41.688211540636466],[-122.37392100070927,41.688758323195174],[-122.37374910650351,41.68929564261434],[-122.37351247918778,41.68989032347799],[-122.37349830093984,41.69003442258559],[-122.37335406264968,41.69035092638693],[-122.3733510579509,41.69066804604698],[-122.37339853507191,41.691062511528585],[-122.37347138994235,41.69148581874728],[-122.37348289740837,41.69162052062063],[-122.37354348850423,41.69197644997794],[-122.3735404612118,41.692293663716896],[-122.37352641476923,41.69241858488145],[-122.37362794338846,41.69252479850598],[-122.37376749203163,41.69267940011079],[-122.37380508966434,41.69277578458575],[-122.37381566476671,41.693006513022254],[-122.37390263842681,41.69330496926351],[-122.37394970013096,41.69373781386585],[-122.37403683188433,41.69401700739582],[-122.37415105382671,41.69414261424724],[-122.37430316493345,41.694316506756195],[-122.3744042988529,41.69446129010092],[-122.3745436805873,41.694634954132425],[-122.37481011131658,41.69494407488914],[-122.37496180769145,41.695175615956806],[-122.37519004217108,41.695436405504104],[-122.37559571833128,41.69593846818974],[-122.3757220208534,41.696140960573054],[-122.37547729640141,41.69624543132739],[-122.37559117480195,41.696409450225175],[-122.37565435957647,41.69650590025106],[-122.3757137992029,41.696986851100554],[-122.37574819214133,41.69741964004161],[-122.37578147672048,41.697958172142066],[-122.37580353342283,41.69831387782092],[-122.3758125906425,41.69871767887891],[-122.3758478474231,41.699035103073335],[-122.37587092471503,41.69930439989383],[-122.37590576240213,41.69967948201732],[-122.37592959443135,41.69987180221331],[-122.37603989395963,41.700401100368914],[-122.37607473364386,41.700781017286],[-122.37613570897386,41.701098619742424],[-122.37624616902255,41.70161831068502],[-122.37630792392027,41.70186850255182],[-122.37631961938351,41.701983888356885],[-122.37639588184892,41.702061252302904],[-122.3764972852473,41.70218676191642],[-122.37657405661439,41.702196792694075],[-122.37681784022111,41.70218850790302],[-122.3769334197702,41.702179518891334],[-122.37715104492712,41.702219161479306],[-122.37745729834444,41.70239389257826],[-122.37783955591783,41.70265542698134],[-122.37814471144449,41.702926261328884],[-122.37830954408194,41.703129015694685],[-122.3785367871492,41.703514740791974],[-122.3787000153361,41.70388093981821],[-122.37873756663575,41.70397729846457],[-122.37873534394497,41.70421754285162],[-122.37881110847977,41.70434294873484],[-122.37897585914699,41.70453608876062],[-122.37903805103608,41.70473828588017],[-122.37915218507945,41.70487346595597],[-122.37920216793889,41.70500831040814],[-122.37935480439839,41.70515336821825],[-122.37966051781665,41.70537609345851],[-122.3798641511896,41.705530968488894],[-122.38005522621833,41.70567620265365],[-122.38030887608838,41.70598514311938],[-122.38047357678523,41.70619753486841],[-122.38068927724125,41.706439042456545],[-122.38082734318303,41.70675698285452],[-122.38087518672891,41.70712249856348],[-122.38084951465147,41.70752652655082],[-122.38084801771514,41.70769075654332],[-122.38086037430641,41.70785274370033],[-122.38087625121366,41.70803796744906],[-122.38096187694414,41.708316220795915],[-122.38115117913524,41.70881982016672],[-122.38128857501627,41.709217391244536],[-122.38160172932362,41.70969522451846],[-122.38200295542697,41.710186703594836],[-122.38229897340025,41.710611532002176],[-122.38268380625998,41.71097073482067],[-122.38305093810712,41.71134304837354],[-122.38311931121014,41.71158150663729],[-122.38348291030285,41.71184402313675],[-122.38349916718175,41.71246967803768],[-122.38280278133037,41.71329921978672],[-122.38235589661338,41.7139320106219],[-122.38187456508061,41.71430840309838],[-122.38048580957758,41.71552225143075],[-122.3794867232773,41.717127782824356],[-122.37925662979586,41.717673957376185],[-122.37897038160195,41.71821998205627],[-122.37882133737264,41.71910356868654],[-122.37787861454349,41.72067776258688],[-122.37665261184507,41.72248206504345],[-122.3756526988051,41.72416122809198],[-122.37522497139607,41.724790627929046],[-122.37538618724709,41.72554948400782],[-122.375459674679,41.726665993009625],[-122.37592199376192,41.7282688426854],[-122.37593180643634,41.73016401864474],[-122.37609233595083,41.73100725403225],[-122.37602733951547,41.73191225051669],[-122.37602271766633,41.73239664879924],[-122.37601842031272,41.73283874210475],[-122.37609952525773,41.733176107559295],[-122.37670932816575,41.734063868003005],[-122.37737598394601,41.73490975015344],[-122.37776283527735,41.73558568449207],[-122.37806949036631,41.7358611054179],[-122.378458421252,41.73634750454832],[-122.37878960890059,41.73698101038729],[-122.37948796961626,41.73744809300817],[-122.37979400484345,41.73778657215258],[-122.38054582002827,41.738548655721246],[-122.38115871286705,41.739120606022915],[-122.38196823700692,41.73973561661593],[-122.38227015210694,41.74049526486173],[-122.38223576633492,41.74114787810096],[-122.38250864393471,41.74201270915801],[-122.38295521069487,41.742351963559415],[-122.38365331031025,41.742861134204084],[-122.38418221054694,41.74341140093154],[-122.38448553934268,41.74404474998428],[-122.3845109650668,41.744318621714726],[-122.38436830266195,41.74452844251927],[-122.38405661518979,41.74477951728005],[-122.38373152944561,41.74503517886527],[-122.3830756653394,41.74518854204281],[-122.38276099627878,41.745245602305125],[-122.3824208072561,41.745243742422666],[-122.3821717836858,41.74519581659695],[-122.38210723463806,41.74518329519228],[-122.38171455364196,41.74518121248267],[-122.3813006028476,41.74522790671154],[-122.38121686372689,41.745237310112145],[-122.38106596057874,41.74523647879059],[-122.38085035262795,41.74523532179495],[-122.38024767804647,41.74525913927879],[-122.38021766014472,41.745702398268925],[-122.38018834017208,41.746035526386066],[-122.38010785427572,41.7462310975332],[-122.38010373423226,41.746662330081435],[-122.38010083052973,41.74695633494368],[-122.37999182954893,41.747406637843255],[-122.37977659335121,41.74801313968119],[-122.37945486719441,41.74879546565706],[-122.37921394065835,41.74936265265097],[-122.37913062132989,41.74985223970825],[-122.37912852174945,41.75006785010074],[-122.37920037291181,41.7507739434995],[-122.37927222755458,41.751460434683224],[-122.37934498588206,41.752068486361225],[-122.37946957259804,41.752716066582465],[-122.37951835185179,41.75308876600013],[-122.37964707331835,41.75330504967286],[-122.37974968756318,41.753540904332056],[-122.38029468404623,41.754014201620535],[-122.38063171829423,41.754368934281125],[-122.38102270455705,41.75454747114437],[-122.38133544279742,41.75468639348865],[-122.38133319504772,41.754921624721625],[-122.38117365461873,41.75517559600724],[-122.38111983958353,41.75537891182488],[-122.38106506563165,41.75558670294832],[-122.38108091523239,41.75632629017242],[-122.38107947717117,41.756439031807375],[-122.38062670453269,41.757613150818436],[-122.3806066945913,41.75782324967111],[-122.38053914356733,41.7585340305347],[-122.38032454790526,41.759081710271694],[-122.3800334237343,41.75941346494099],[-122.37989606103852,41.7595986844269],[-122.37987419773332,41.75962819265963],[-122.3798195139159,41.75978846379217],[-122.37971106349204,41.760254472633456],[-122.37957685542868,41.76060663756145],[-122.37957380554157,41.76092026744024],[-122.3795687435003,41.76144954731862],[-122.37964443047127,41.76174401618924],[-122.3798250580598,41.76201933708418],[-122.37963907681358,41.762292800309986],[-122.37921743977743,41.76258457105961],[-122.37868664513192,41.76332656955544],[-122.37818330323474,41.76394139415905],[-122.37830990019516,41.76437981550019],[-122.37862128308447,41.764668950987165],[-122.37924386458094,41.76527349872055],[-122.38000653327522,41.765826455331926],[-122.38024667778971,41.76627218245747],[-122.3799970809995,41.766819710776325],[-122.37960693970881,41.76744491058701],[-122.37921683344881,41.76806995820133],[-122.37889893373102,41.76846035887454],[-122.37892808040779,41.76906163178104],[-122.37856849733785,41.7701312909686],[-122.37863261734236,41.770732774874574],[-122.37852440374853,41.771098142015454],[-122.37820426825311,41.77169752596803],[-122.37760270699225,41.772530638619685],[-122.37696424269508,41.77357259345732],[-122.37691970072889,41.77379416112444],[-122.37685414681756,41.77412099189924],[-122.37681797196863,41.77425146240457],[-122.37698862433012,41.774644420254006],[-122.37715545690637,41.77545550669059],[-122.37704411968187,41.776134461952076],[-122.37679572772802,41.77655135360013],[-122.37668438831986,41.77668419824498],[-122.37682474467664,41.77676192189504],[-122.3772213915303,41.77700051682337],[-122.37724885025958,41.77702035590046],[-122.37755914418351,41.77724484987494],[-122.3776647578204,41.77735710224368],[-122.37783119195046,41.77753881308835],[-122.37786098739997,41.77756018671485],[-122.37807715357451,41.77772088476009],[-122.37850202292165,41.77778565857291],[-122.37856347007546,41.77778526906093],[-122.37891063625955,41.777735292979536],[-122.37943864313257,41.7776633496138],[-122.38003269483674,41.777614245867056],[-122.3808357452841,41.777618597312426],[-122.38096331978568,41.77765413268969],[-122.38107025834272,41.777682180911384],[-122.38129120312846,41.777904211512045],[-122.38139072989671,41.778107664456314],[-122.38147147154666,41.77830685684804]]]},"id":"00000000000000000000","properties":{"areaacres":"18963.14","areasqkm":"76.74","gnis_id":"","huc12":"180102070304","humod":"OT,ID,IT,TF","hutype":"S","loaddate":"20130118070803","metasource":"{8D0E0C7B-7D2C-4C1B-861E-F65C7FC8A309}","name":"Lower Little Shasta River","noncontr00":"","noncontrib":"","shape_area":"0.00830319921591672","shape_leng":"0.550249818067309","sourcedata":"","sourcefeat":"","sourceorig":"","states":"CA","tnmid":"{BF163396-0828-4084-B2A4-9AF5006E2C78}","tohuc":"180102070503"}}]}